{"type":"FeatureCollection","name":"LFKS AVISO","bbox":[9.343075833,41.819716944,9.481977778,41.963882778],"metadata":{"schema":"vSMR AVISO","schema_version":2,"geometry_mode":"shared","airport":"LFKS","coordinate_reference_system":"WGS84","coordinate_order":"longitude, latitude","default_color_palette":"dark","color_palettes":["dark","light"],"background_colors":{"dark":"#434A4F","light":"#434A4F"},"runways":[{"ends":["18","36"],"headings":[176,356],"thresholds":[[9.405060833,41.936243889],[9.405641944,41.912596944]]}],"saved_active_runways":[],"saved_active_airport_modes":[],"airport_reference":[9.405277778,41.926388889],"feature_count":47,"style_count":8,"layer_counts":{"Airfield surfaces":11,"Guidance lines":4,"Labels":13,"Surface markings":18,"Terrain":1},"category_counts":{"Apron Surface":1,"Gates":13,"Grass":1,"Hard Surface 2":11,"Runways":1,"Surface markings":18,"Taxiways":2},"geometry_source":"local GNG","geometry_source_url":"","geometry_license":"GPL-3.0"},"styles":{"line.runwayconcrete.555555":{"name":"Runways","layer":"Guidance lines","object_type":"Line","paint":{"stroke":"#111318","stroke-opacity":1,"stroke-width":1,"palette-overrides":{"light":{"stroke":"#555555"}}},"feature_count":1},"line.taxiway.c0b631":{"name":"Taxiways","layer":"Guidance lines","object_type":"Line","paint":{"stroke":"#4E5A69","stroke-opacity":1,"stroke-width":1,"palette-overrides":{"light":{"stroke":"#C0B631"}}},"feature_count":2},"line.apronsurface.808080":{"name":"Apron Surface","layer":"Guidance lines","object_type":"Line","paint":{"stroke":"#808080","stroke-opacity":1,"stroke-width":1,"palette-overrides":{"light":{"stroke":"#808080"}}},"feature_count":1},"label.gates":{"name":"Gates","layer":"Labels","object_type":"Label","paint":{"text-color":"#CCCCCC","text-font":"Arial","text-size":12,"text-halo-color":"#000000","text-halo-width":1,"text-anchor":"center","zoomLevel":9},"feature_count":13},"polygon.terrain2.868686":{"name":"Hard Surface 2","layer":"Airfield surfaces","object_type":"Area","paint":{"fill":"#2F3949","fill-opacity":1,"palette-overrides":{"light":{"fill":"#595E5B"}}},"feature_count":1},"polygon.grassurface.00512f":{"name":"Grass","layer":"Terrain","object_type":"Area","paint":{"fill":"#010D19","fill-opacity":1,"palette-overrides":{"light":{"fill":"#00512F"}}},"feature_count":1},"polygon.hardsurface2.595e5b":{"name":"Hard Surface 2","layer":"Airfield surfaces","object_type":"Area","paint":{"fill":"#2F3949","fill-opacity":1,"palette-overrides":{"light":{"fill":"#595E5B"}}},"feature_count":10},"polygon.surfacemarking":{"name":"Surface markings","layer":"Surface markings","object_type":"Area","paint":{"fill":"#666666","fill-opacity":1,"stroke":"#666666","stroke-opacity":1,"stroke-width":0.5,"palette-overrides":{"light":{}}},"feature_count":18}},"vsmr_groups":[],"features":[{"type":"Feature","id":"LFKS-2f75655752417eabe8f4","properties":{"airport":"LFKS","name":"LFKS AVISO","layer":"Airfield surfaces","category":"Hard Surface 2","object_type":"Area","style_id":"polygon.terrain2.868686","source_group":"LFKS AVISO","vsmr_group_ids":[],"geometry_role":"filled_region"},"geometry":{"type":"Polygon","coordinates":[[[9.344386389,41.821624444],[9.481977778,41.819716944],[9.4722975,41.963669722],[9.343075833,41.963882778],[9.344386389,41.821624444]]]}},{"type":"Feature","id":"LFKS-86e1e5464b96193d047b","properties":{"airport":"LFKS","name":"LFKS AVISO","layer":"Terrain","category":"Grass","object_type":"Area","style_id":"polygon.grassurface.00512f","source_group":"LFKS AVISO","vsmr_group_ids":[],"geometry_role":"filled_region"},"geometry":{"type":"Polygon","coordinates":[[[9.402470278,41.909476389],[9.405629444,41.908993056],[9.405928333,41.909019444],[9.406154722,41.909072778],[9.4064725,41.909340556],[9.406789444,41.909778889],[9.406899444,41.910093611],[9.406911389,41.910628889],[9.407013611,41.912538333],[9.407060556,41.9127675],[9.407333056,41.912968333],[9.411776389,41.915490833],[9.412066111,41.915586667],[9.412297222,41.915672222],[9.4122375,41.915916111],[9.411963333,41.916206389],[9.411774167,41.916674444],[9.411673611,41.91725],[9.41166,41.917968611],[9.411554722,41.918412778],[9.411362222,41.918714167],[9.411278056,41.918975],[9.411372778,41.919196667],[9.411671944,41.919336944],[9.411880556,41.919404167],[9.412351111,41.920909167],[9.412683889,41.921541389],[9.413092778,41.922289444],[9.413279444,41.922785833],[9.413153611,41.923168056],[9.412763333,41.92342],[9.411206944,41.924158333],[9.410496389,41.924225556],[9.408993889,41.924340278],[9.408365278,41.924418889],[9.407925833,41.924485],[9.407918611,41.924625278],[9.408034444,41.924891389],[9.408391389,41.925278889],[9.408618333,41.925679722],[9.408741111,41.927483333],[9.4086575,41.927944722],[9.408487778,41.928207778],[9.408463889,41.928438889],[9.408555,41.928762778],[9.408638056,41.929247222],[9.408641667,41.929871944],[9.408813056,41.934207222],[9.408807222,41.934787222],[9.4089425,41.935647778],[9.408996944,41.935988333],[9.408923056,41.936253889],[9.408431944,41.936866111],[9.408210278,41.936975833],[9.407776944,41.937008056],[9.407439167,41.937043056],[9.40704,41.937335],[9.406334722,41.937984167],[9.405871944,41.938577778],[9.405657222,41.938785556],[9.405399722,41.938894167],[9.405038611,41.938919722],[9.403302778,41.938843056],[9.402897778,41.938786944],[9.402480833,41.938498333],[9.402246389,41.938161389],[9.402080556,41.937888889],[9.402058889,41.934345556],[9.402017222,41.933987222],[9.401925278,41.933913333],[9.401532222,41.9338575],[9.401114444,41.933818611],[9.400905278,41.933687778],[9.400810556,41.933435],[9.400815833,41.931945],[9.400731111,41.931728333],[9.400591389,41.931644167],[9.400423889,41.931639167],[9.3998325,41.931640556],[9.399568056,41.931650833],[9.399043611,41.931582222],[9.398731944,41.931573333],[9.398431667,41.9315825],[9.3981925,41.931566667],[9.398129167,41.931395278],[9.3985275,41.919509167],[9.398726111,41.915038889],[9.3988875,41.911929167],[9.398880278,41.911417778],[9.398901111,41.911019444],[9.399249167,41.910767778],[9.400293889,41.910324167],[9.400841389,41.910103056],[9.401188056,41.909876111],[9.401345,41.909756111],[9.401536111,41.909624444],[9.402470278,41.909476389]]]}},{"type":"Feature","id":"LFKS-978c8415e8f4de29877c","properties":{"airport":"LFKS","name":"LFKS AVISO","layer":"Airfield surfaces","category":"Hard Surface 2","object_type":"Area","style_id":"polygon.hardsurface2.595e5b","source_group":"LFKS AVISO","vsmr_group_ids":[],"geometry_role":"filled_region"},"geometry":{"type":"Polygon","coordinates":[[[9.406012778,41.912487778],[9.406365,41.912507778],[9.406369722,41.912588056],[9.405418889,41.912550556],[9.405430556,41.911134167],[9.4054025,41.910983611],[9.405336944,41.910868611],[9.40484,41.910618056],[9.403613333,41.910619444],[9.403405556,41.91066],[9.403334444,41.910737778],[9.403315556,41.910843889],[9.40329,41.912282778],[9.403320833,41.91238],[9.403397222,41.912462222],[9.403091111,41.912496667],[9.4031575,41.910805833],[9.403178056,41.910702222],[9.4032825,41.910581667],[9.403958611,41.910088611],[9.405366944,41.910095278],[9.405517222,41.910037778],[9.406075556,41.910053889],[9.406012778,41.912487778]]]}},{"type":"Feature","id":"LFKS-d695771639b3615d1e12","properties":{"airport":"LFKS","name":"LFKS AVISO","layer":"Airfield surfaces","category":"Hard Surface 2","object_type":"Area","style_id":"polygon.hardsurface2.595e5b","source_group":"LFKS AVISO","vsmr_group_ids":[],"geometry_role":"filled_region"},"geometry":{"type":"Polygon","coordinates":[[[9.401791111,41.912562778],[9.401894444,41.912666667],[9.402813889,41.912681667],[9.402928333,41.912644444],[9.403027222,41.912606944],[9.4030675,41.912581944],[9.403096667,41.912464444],[9.403303611,41.912366389],[9.403459722,41.912495],[9.403547778,41.912517778],[9.404427222,41.9125575],[9.404535556,41.912641389],[9.405114444,41.912675278],[9.405245278,41.912668611],[9.405331944,41.912639444],[9.405380556,41.912603333],[9.405430833,41.912529722],[9.40602,41.912537778],[9.406026389,41.912716944],[9.406175556,41.912755833],[9.406320556,41.912875556],[9.406392778,41.912981667],[9.406407222,41.913077222],[9.406379722,41.913235278],[9.405953611,41.913820556],[9.405379167,41.913454722],[9.405348611,41.913373056],[9.405086667,41.913111667],[9.404930833,41.913052222],[9.404772222,41.913041944],[9.40372,41.913040556],[9.403601944,41.9130775],[9.403468611,41.913180556],[9.402965,41.913166111],[9.402965278,41.913010278],[9.402924167,41.912902222],[9.402871944,41.912863333],[9.402776389,41.912834444],[9.402653333,41.912816667],[9.402007778,41.912809444],[9.401924444,41.9128475],[9.401339722,41.912851111],[9.401051667,41.912646389],[9.401725556,41.912143333],[9.402015833,41.9123825],[9.401791111,41.912562778]]]}},{"type":"Feature","id":"LFKS-ebdf08d8153f72184ebd","properties":{"airport":"LFKS","name":"LFKS AVISO","layer":"Airfield surfaces","category":"Hard Surface 2","object_type":"Area","style_id":"polygon.hardsurface2.595e5b","source_group":"LFKS AVISO","vsmr_group_ids":[],"geometry_role":"filled_region"},"geometry":{"type":"Polygon","coordinates":[[[9.405469444,41.934944722],[9.405751389,41.935433889],[9.405825556,41.935562222],[9.405879167,41.935696111],[9.4058725,41.935825],[9.405801389,41.935949444],[9.405713611,41.936006944],[9.405576944,41.936072222],[9.405408889,41.936096389],[9.405344444,41.938543889],[9.403283611,41.9384275],[9.403029722,41.938411111],[9.402866111,41.938370278],[9.402728889,41.938288333],[9.402575278,41.938136667],[9.402516667,41.938017778],[9.402503611,41.937881944],[9.402536389,41.936470833],[9.402693611,41.936478333],[9.402656111,41.937915556],[9.402673611,41.937964167],[9.402750833,41.938035556],[9.402861389,41.938083889],[9.403005278,41.938115],[9.404067778,41.938133333],[9.404189444,41.938125],[9.404450833,41.937994722],[9.404666944,41.937880556],[9.404763333,41.937814167],[9.404816111,41.937734444],[9.405388056,41.913348056],[9.405987222,41.913022222],[9.405469444,41.934944722]]]}},{"type":"Feature","id":"LFKS-2ac1de1718ea71b49423","properties":{"airport":"LFKS","name":"LFKS AVISO","layer":"Airfield surfaces","category":"Hard Surface 2","object_type":"Area","style_id":"polygon.hardsurface2.595e5b","source_group":"LFKS AVISO","vsmr_group_ids":[],"geometry_role":"filled_region"},"geometry":{"type":"Polygon","coordinates":[[[9.405123056,41.929503333],[9.404901389,41.929493611],[9.4048875,41.9293175],[9.404766944,41.929228056],[9.404602778,41.929181944],[9.404364167,41.929137222],[9.403302778,41.929123889],[9.403139167,41.929157222],[9.403043333,41.929216389],[9.402987778,41.929307778],[9.402961944,41.929716944],[9.402462778,41.929699167],[9.402467222,41.929523611],[9.402413611,41.929305],[9.402286667,41.929163611],[9.402095833,41.929092778],[9.400426111,41.9290925],[9.400385556,41.929958889],[9.400454722,41.929970556],[9.400550833,41.930037778],[9.400627778,41.930156111],[9.400588611,41.930273611],[9.40053,41.930311389],[9.400389722,41.930327222],[9.400257778,41.930306111],[9.400161667,41.930241667],[9.399896111,41.930233889],[9.399897778,41.930392222],[9.399979444,41.930421667],[9.400041111,41.930448333],[9.400063889,41.930520556],[9.4000675,41.9305825],[9.400047778,41.930638611],[9.399996389,41.930671944],[9.399925278,41.930694444],[9.399921667,41.930911389],[9.399675833,41.930911667],[9.399668333,41.930733611],[9.398850556,41.930742222],[9.398881667,41.930335278],[9.399021667,41.93021],[9.399073333,41.928280833],[9.400980278,41.928332222],[9.401008333,41.928470833],[9.401090833,41.928578333],[9.401320278,41.928666944],[9.40146,41.928693889],[9.40197,41.928698611],[9.402103889,41.928666389],[9.402279722,41.928592778],[9.402404167,41.928491111],[9.402489722,41.928372222],[9.403068056,41.928393056],[9.40314,41.928536389],[9.403229722,41.928591389],[9.403369167,41.928628333],[9.404186111,41.928700833],[9.404441667,41.928708333],[9.4046775,41.928669167],[9.404785833,41.928623056],[9.404863333,41.928572778],[9.404901667,41.928514722],[9.404908333,41.928386944],[9.405089444,41.928378889],[9.405123056,41.929503333]]]}},{"type":"Feature","id":"LFKS-86f7d8c53f603be9ca9a","properties":{"airport":"LFKS","name":"LFKS AVISO","layer":"Airfield surfaces","category":"Hard Surface 2","object_type":"Area","style_id":"polygon.hardsurface2.595e5b","source_group":"LFKS AVISO","vsmr_group_ids":[],"geometry_role":"filled_region"},"geometry":{"type":"Polygon","coordinates":[[[9.4028525,41.9292775],[9.402737222,41.934902778],[9.402783056,41.935195556],[9.402856389,41.935395556],[9.402930556,41.935578889],[9.403020556,41.935677778],[9.403125278,41.935711944],[9.404245,41.935760833],[9.404471111,41.935730556],[9.404565278,41.935673889],[9.404688333,41.935575556],[9.404917778,41.935253889],[9.404951944,41.936431944],[9.404419444,41.936360278],[9.404318333,41.936326111],[9.404281111,41.936237222],[9.404281667,41.9361525],[9.403996389,41.936144167],[9.403884722,41.936169444],[9.403806111,41.936218056],[9.403694722,41.9362375],[9.402916389,41.936223611],[9.402827222,41.936255],[9.402718056,41.936379167],[9.402684167,41.9365225],[9.40254,41.936512778],[9.402490278,41.935931389],[9.402461111,41.935834167],[9.402393056,41.935679444],[9.402326944,41.935488056],[9.402309722,41.935309167],[9.402423333,41.930950556],[9.402461667,41.929697778],[9.4028525,41.9292775]]]}},{"type":"Feature","id":"LFKS-4474110b26431db7588e","properties":{"airport":"LFKS","name":"LFKS AVISO","layer":"Airfield surfaces","category":"Hard Surface 2","object_type":"Area","style_id":"polygon.hardsurface2.595e5b","source_group":"LFKS AVISO","vsmr_group_ids":[],"geometry_role":"filled_region"},"geometry":{"type":"Polygon","coordinates":[[[9.403566667,41.913033889],[9.403389167,41.9133075],[9.403353611,41.913468333],[9.4030075,41.928173056],[9.403073333,41.928451111],[9.402483889,41.928494167],[9.402971111,41.913151944],[9.403566667,41.913033889]]]}},{"type":"Feature","id":"LFKS-6a31fe396544da0cc807","properties":{"airport":"LFKS","name":"LFKS AVISO","layer":"Airfield surfaces","category":"Hard Surface 2","object_type":"Area","style_id":"polygon.hardsurface2.595e5b","source_group":"LFKS AVISO","vsmr_group_ids":[],"geometry_role":"filled_region"},"geometry":{"type":"Polygon","coordinates":[[[9.405242778,41.920170278],[9.405180556,41.920040833],[9.405104444,41.919961944],[9.405003611,41.919921944],[9.404905556,41.919899444],[9.403426667,41.919868333],[9.403314444,41.919896389],[9.403193333,41.9199525],[9.402793611,41.919995],[9.402721389,41.919916111],[9.4025675,41.919866389],[9.402434444,41.919856944],[9.400600833,41.919883056],[9.400523333,41.919906389],[9.400485833,41.919967778],[9.4004475,41.920114444],[9.400423333,41.920579722],[9.399565556,41.920558056],[9.399580833,41.919453333],[9.400464722,41.91949],[9.400469167,41.9195525],[9.400511944,41.919610556],[9.400608889,41.919653333],[9.4007525,41.919685833],[9.402366944,41.919738889],[9.402470278,41.919733333],[9.402601667,41.9197],[9.402702778,41.919666111],[9.402798889,41.919580833],[9.403225556,41.919675278],[9.403273333,41.919710833],[9.403344444,41.919738333],[9.404803889,41.919743333],[9.404991111,41.919743056],[9.405091389,41.919723333],[9.405181944,41.919668889],[9.405246389,41.919605556],[9.405242778,41.920170278]]]}},{"type":"Feature","id":"LFKS-a81eac3e03950dacc486","properties":{"airport":"LFKS","name":"LFKS AVISO","layer":"Airfield surfaces","category":"Hard Surface 2","object_type":"Area","style_id":"polygon.hardsurface2.595e5b","source_group":"LFKS AVISO","vsmr_group_ids":[],"geometry_role":"filled_region"},"geometry":{"type":"Polygon","coordinates":[[[9.402571389,41.927054167],[9.402479722,41.926720556],[9.402406667,41.926577778],[9.402306944,41.926493889],[9.402128611,41.926460556],[9.401375833,41.926466944],[9.401158611,41.926548889],[9.401063333,41.926648333],[9.401019722,41.926763333],[9.400983056,41.928382222],[9.399068889,41.928344722],[9.399134444,41.926628056],[9.399404167,41.926628889],[9.399503611,41.926624722],[9.399538333,41.9265975],[9.399559722,41.925907222],[9.400256944,41.925920278],[9.4002675,41.925990833],[9.400331667,41.926031389],[9.402015278,41.926069167],[9.402191111,41.926060278],[9.402295833,41.926045556],[9.402432222,41.925971944],[9.402523889,41.925848056],[9.402588333,41.925698333],[9.402571389,41.927054167]]]}},{"type":"Feature","id":"LFKS-d390ccebebd650a68bd9","properties":{"airport":"LFKS","name":"LFKS AVISO","layer":"Airfield surfaces","category":"Hard Surface 2","object_type":"Area","style_id":"polygon.hardsurface2.595e5b","source_group":"LFKS AVISO","vsmr_group_ids":[],"geometry_role":"filled_region"},"geometry":{"type":"Polygon","coordinates":[[[9.400434167,41.919809444],[9.400256389,41.925880833],[9.400273333,41.926002222],[9.399561111,41.926010556],[9.399575278,41.924618056],[9.399416944,41.924613333],[9.399485,41.922029722],[9.399218611,41.922019167],[9.399265556,41.921038611],[9.399498333,41.921028056],[9.399554444,41.920989444],[9.399566944,41.920529167],[9.400434167,41.919809444]]]}},{"type":"Feature","id":"LFKS-21291c329e91ae139640","properties":{"airport":"LFKS","name":"LFKS AVISO","layer":"Airfield surfaces","category":"Hard Surface 2","object_type":"Area","style_id":"polygon.hardsurface2.595e5b","source_group":"LFKS AVISO","vsmr_group_ids":[],"geometry_role":"filled_region"},"geometry":{"type":"Polygon","coordinates":[[[9.399577778,41.919463056],[9.399586667,41.919222778],[9.399570556,41.919198889],[9.399525556,41.919187222],[9.399353889,41.919174444],[9.399355833,41.918327778],[9.399720833,41.918330278],[9.399745833,41.917172222],[9.399733889,41.917130278],[9.399548889,41.916973333],[9.399743056,41.916821944],[9.399898333,41.916941389],[9.399963611,41.916966944],[9.400131944,41.916971667],[9.400228056,41.916948333],[9.400547778,41.916743333],[9.4006,41.916817778],[9.400682778,41.916846389],[9.400784722,41.916849444],[9.400767222,41.917253889],[9.400733611,41.9173575],[9.400693333,41.917390278],[9.400600556,41.917418889],[9.400494444,41.917431667],[9.400471111,41.919573333],[9.399577778,41.919463056]]]}},{"type":"Feature","id":"LFKS-d5de94560f2380d0b13e","properties":{"airport":"LFKS","name":"LFKS AVISO","layer":"Surface markings","category":"Surface markings","object_type":"Area","style_id":"polygon.surfacemarking","source_group":"LFKS AVISO","vsmr_group_ids":[],"geometry_role":"filled_region"},"geometry":{"type":"Polygon","coordinates":[[[9.405372778,41.935902222],[9.405363889,41.936175833],[9.404875,41.936168889],[9.404882778,41.935894444],[9.405372778,41.935902222]]]}},{"type":"Feature","id":"LFKS-f0c747ce08d26e43684e","properties":{"airport":"LFKS","name":"LFKS AVISO","layer":"Surface markings","category":"Surface markings","object_type":"Area","style_id":"polygon.surfacemarking","source_group":"LFKS AVISO","vsmr_group_ids":[],"geometry_role":"filled_region"},"geometry":{"type":"Polygon","coordinates":[[[9.405939722,41.912906389],[9.405450556,41.912901944],[9.405459167,41.912628889],[9.405946667,41.912634444],[9.405939722,41.912906389]]]}},{"type":"Feature","id":"LFKS-9802dae337c94cd5608c","properties":{"airport":"LFKS","name":"LFKS AVISO","layer":"Surface markings","category":"Surface markings","object_type":"Area","style_id":"polygon.surfacemarking","source_group":"LFKS AVISO","vsmr_group_ids":[],"geometry_role":"filled_region"},"geometry":{"type":"Polygon","coordinates":[[[9.405438056,41.912571944],[9.405968333,41.912580833],[9.405968889,41.912603889],[9.405436944,41.91259],[9.405438056,41.912571944]]]}},{"type":"Feature","id":"LFKS-9bc0378b24d55220d091","properties":{"airport":"LFKS","name":"LFKS AVISO","layer":"Surface markings","category":"Surface markings","object_type":"Area","style_id":"polygon.surfacemarking","source_group":"LFKS AVISO","vsmr_group_ids":[],"geometry_role":"filled_region"},"geometry":{"type":"Polygon","coordinates":[[[9.405954444,41.912578889],[9.405977222,41.912578333],[9.405397222,41.936225833],[9.405375,41.936226944],[9.405954444,41.912578889]]]}},{"type":"Feature","id":"LFKS-16ddf9c7e0b5fc7d1336","properties":{"airport":"LFKS","name":"LFKS AVISO","layer":"Surface markings","category":"Surface markings","object_type":"Area","style_id":"polygon.surfacemarking","source_group":"LFKS AVISO","vsmr_group_ids":[],"geometry_role":"filled_region"},"geometry":{"type":"Polygon","coordinates":[[[9.405395556,41.936212778],[9.405394722,41.936229167],[9.404847222,41.936216667],[9.404846111,41.936200278],[9.405395556,41.936212778]]]}},{"type":"Feature","id":"LFKS-68ba7385b6212d28bf16","properties":{"airport":"LFKS","name":"LFKS AVISO","layer":"Surface markings","category":"Surface markings","object_type":"Area","style_id":"polygon.surfacemarking","source_group":"LFKS AVISO","vsmr_group_ids":[],"geometry_role":"filled_region"},"geometry":{"type":"Polygon","coordinates":[[[9.405430833,41.912571944],[9.405450833,41.9125725],[9.404860556,41.936217222],[9.404845278,41.936216667],[9.405430833,41.912571944]]]}},{"type":"Feature","id":"LFKS-232d89f64ebb3e7843c6","properties":{"airport":"LFKS","name":"LFKS AVISO","layer":"Surface markings","category":"Surface markings","object_type":"Area","style_id":"polygon.surfacemarking","source_group":"LFKS AVISO","vsmr_group_ids":[],"geometry_role":"filled_region"},"geometry":{"type":"Polygon","coordinates":[[[9.405580556,41.913171389],[9.405585278,41.913143611],[9.405634722,41.91314],[9.405639167,41.913128889],[9.4056075,41.913109722],[9.405608056,41.913099722],[9.405641111,41.9130825],[9.405640278,41.913038611],[9.405585833,41.913037222],[9.405588333,41.913006667],[9.405673056,41.913006667],[9.405665,41.9130925],[9.405636389,41.913105556],[9.405655833,41.913118333],[9.405654722,41.913169444],[9.405580556,41.913171389]]]}},{"type":"Feature","id":"LFKS-b0b9c6b43437c3ddcf9e","properties":{"airport":"LFKS","name":"LFKS AVISO","layer":"Surface markings","category":"Surface markings","object_type":"Area","style_id":"polygon.surfacemarking","source_group":"LFKS AVISO","vsmr_group_ids":[],"geometry_role":"filled_region"},"geometry":{"type":"Polygon","coordinates":[[[9.405768889,41.913182222],[9.405718889,41.913162222],[9.405723611,41.913004722],[9.405798889,41.9130025],[9.405800556,41.913032778],[9.405740833,41.913035],[9.4057375,41.913111944],[9.405736389,41.913149444],[9.405769444,41.913166111],[9.405768889,41.913182222]]]}},{"type":"Feature","id":"LFKS-ffc81491c7dd4aef1e2d","properties":{"airport":"LFKS","name":"LFKS AVISO","layer":"Surface markings","category":"Surface markings","object_type":"Area","style_id":"polygon.surfacemarking","source_group":"LFKS AVISO","vsmr_group_ids":[],"geometry_role":"filled_region"},"geometry":{"type":"Polygon","coordinates":[[[9.405732778,41.913081389],[9.405773333,41.913080833],[9.405773889,41.913025278],[9.405798889,41.913021667],[9.405798056,41.913113611],[9.405724722,41.913115556],[9.405732778,41.913081389]]]}},{"type":"Feature","id":"LFKS-5496cc56344c6b0840b2","properties":{"airport":"LFKS","name":"LFKS AVISO","layer":"Surface markings","category":"Surface markings","object_type":"Area","style_id":"polygon.surfacemarking","source_group":"LFKS AVISO","vsmr_group_ids":[],"geometry_role":"filled_region"},"geometry":{"type":"Polygon","coordinates":[[[9.405389444,41.91567],[9.405501944,41.915670833],[9.405489167,41.91608],[9.405385278,41.916075],[9.405389444,41.91567]]]}},{"type":"Feature","id":"LFKS-e94b844084b02877d195","properties":{"airport":"LFKS","name":"LFKS AVISO","layer":"Surface markings","category":"Surface markings","object_type":"Area","style_id":"polygon.surfacemarking","source_group":"LFKS AVISO","vsmr_group_ids":[],"geometry_role":"filled_region"},"geometry":{"type":"Polygon","coordinates":[[[9.405725,41.915673889],[9.405833333,41.915676667],[9.405826111,41.916090556],[9.405706389,41.916090556],[9.405725,41.915673889]]]}},{"type":"Feature","id":"LFKS-9ee2a79898b2dbd2dddc","properties":{"airport":"LFKS","name":"LFKS AVISO","layer":"Surface markings","category":"Surface markings","object_type":"Area","style_id":"polygon.surfacemarking","source_group":"LFKS AVISO","vsmr_group_ids":[],"geometry_role":"filled_region"},"geometry":{"type":"Polygon","coordinates":[[[9.404990556,41.932708333],[9.405110556,41.93271],[9.405087222,41.933111389],[9.404973611,41.933105556],[9.404990556,41.932708333]]]}},{"type":"Feature","id":"LFKS-bed81e5e46fd0f1ca1f4","properties":{"airport":"LFKS","name":"LFKS AVISO","layer":"Surface markings","category":"Surface markings","object_type":"Area","style_id":"polygon.surfacemarking","source_group":"LFKS AVISO","vsmr_group_ids":[],"geometry_role":"filled_region"},"geometry":{"type":"Polygon","coordinates":[[[9.405307222,41.932708611],[9.405415833,41.932713056],[9.405408611,41.933113056],[9.405291111,41.933111111],[9.405307222,41.932708611]]]}},{"type":"Feature","id":"LFKS-e95d586c4854c1ec8d62","properties":{"airport":"LFKS","name":"LFKS AVISO","layer":"Surface markings","category":"Surface markings","object_type":"Area","style_id":"polygon.surfacemarking","source_group":"LFKS AVISO","vsmr_group_ids":[],"geometry_role":"filled_region"},"geometry":{"type":"Polygon","coordinates":[[[9.405184444,41.935629167],[9.405204444,41.935655278],[9.405186389,41.935654722],[9.405179167,41.935790833],[9.405158889,41.935791389],[9.405168889,41.935628056],[9.405184444,41.935629167]]]}},{"type":"Feature","id":"LFKS-b443a412db63768f32a6","properties":{"airport":"LFKS","name":"LFKS AVISO","layer":"Surface markings","category":"Surface markings","object_type":"Area","style_id":"polygon.surfacemarking","source_group":"LFKS AVISO","vsmr_group_ids":[],"geometry_role":"filled_region"},"geometry":{"type":"Polygon","coordinates":[[[9.405087778,41.935625278],[9.405112778,41.935641389],[9.405113056,41.935685278],[9.405091111,41.9357],[9.405107222,41.935711111],[9.405106667,41.935771111],[9.405093611,41.93579],[9.405071389,41.935791111],[9.405074722,41.935767222],[9.405090278,41.9357675],[9.405093889,41.935758611],[9.405094722,41.935714444],[9.405080556,41.935708056],[9.405080278,41.935691389],[9.405095278,41.935680833],[9.405096389,41.935653611],[9.405085556,41.935646667],[9.405087778,41.935625278]]]}},{"type":"Feature","id":"LFKS-2d09f5faecca95f4165a","properties":{"airport":"LFKS","name":"LFKS AVISO","layer":"Surface markings","category":"Surface markings","object_type":"Area","style_id":"polygon.surfacemarking","source_group":"LFKS AVISO","vsmr_group_ids":[],"geometry_role":"filled_region"},"geometry":{"type":"Polygon","coordinates":[[[9.405092222,41.935648611],[9.405063056,41.935647778],[9.405053611,41.935653611],[9.405052778,41.935679722],[9.405061389,41.9356875],[9.405090556,41.935687222],[9.405085,41.93571],[9.405070556,41.935709444],[9.40506,41.935715278],[9.405053611,41.9357625],[9.405060278,41.935766944],[9.4050925,41.9357675],[9.405076944,41.935790278],[9.4050425,41.935791389],[9.405029722,41.935774444],[9.405031389,41.935707778],[9.405050833,41.9356975],[9.405032222,41.935684444],[9.405031944,41.935635278],[9.405039167,41.935626111],[9.405089722,41.935627222],[9.405092222,41.935648611]]]}},{"type":"Feature","id":"LFKS-1aa0c5c8842e90e7422f","properties":{"airport":"LFKS","name":"LFKS AVISO","layer":"Surface markings","category":"Surface markings","object_type":"Area","style_id":"polygon.surfacemarking","source_group":"LFKS AVISO","vsmr_group_ids":[],"geometry_role":"filled_region"},"geometry":{"type":"Polygon","coordinates":[[[9.405453889,41.912592222],[9.405952222,41.912606667],[9.405950833,41.91263],[9.405933333,41.912629444],[9.405923611,41.912926667],[9.405904444,41.9129275],[9.4059175,41.912630278],[9.405896389,41.912628889],[9.405881389,41.912923889],[9.405865,41.912924167],[9.405876111,41.912630278],[9.405848611,41.912629167],[9.405837222,41.912923056],[9.405824444,41.912923333],[9.405831944,41.912628611],[9.40581,41.912628056],[9.405798889,41.912920556],[9.405783056,41.912921389],[9.405794167,41.912629444],[9.4057675,41.912628056],[9.405756389,41.912920556],[9.405681389,41.912915833],[9.405690278,41.912630833],[9.405666389,41.91263],[9.405658333,41.912915],[9.40564,41.912915833],[9.405654167,41.912630278],[9.405623889,41.912629444],[9.405613333,41.912913611],[9.405595833,41.912913056],[9.405611944,41.912628889],[9.4055825,41.912629444],[9.405574722,41.912913056],[9.405556111,41.9129125],[9.405565833,41.912629444],[9.405539167,41.91263],[9.4055325,41.912908056],[9.405516944,41.912907778],[9.405524444,41.912629444],[9.405493056,41.912629167],[9.405486667,41.912904722],[9.405471111,41.912904167],[9.405481944,41.912628056],[9.405454444,41.912627222],[9.405450833,41.912902778],[9.405441667,41.9129025],[9.405451111,41.912605833],[9.405453889,41.912592222]]]}},{"type":"Feature","id":"LFKS-50d6d120923ae1170808","properties":{"airport":"LFKS","name":"LFKS AVISO","layer":"Surface markings","category":"Surface markings","object_type":"Area","style_id":"polygon.surfacemarking","source_group":"LFKS AVISO","vsmr_group_ids":[],"geometry_role":"filled_region"},"geometry":{"type":"Polygon","coordinates":[[[9.405373889,41.936198611],[9.404861389,41.936188056],[9.404871667,41.935871667],[9.404884444,41.935872222],[9.404871111,41.936165278],[9.404889167,41.936166389],[9.404901667,41.935871667],[9.404925,41.935871389],[9.404908333,41.936165833],[9.404936944,41.936167222],[9.404946389,41.935870833],[9.404960278,41.935871667],[9.404950833,41.936168056],[9.4049775,41.936168611],[9.404981667,41.935870278],[9.405001111,41.935870556],[9.404993611,41.936168889],[9.405015833,41.93617],[9.40502,41.935873889],[9.40504,41.935874167],[9.405032778,41.936170833],[9.405059444,41.936171389],[9.405061389,41.935875278],[9.405082778,41.935875],[9.405077778,41.936170833],[9.405102222,41.936172222],[9.405104722,41.935878611],[9.405134722,41.935879167],[9.405135278,41.9361725],[9.405161667,41.936173056],[9.405161389,41.93588],[9.405178333,41.93588],[9.405176667,41.936173056],[9.405200278,41.936172778],[9.405205833,41.935882222],[9.405220833,41.935883056],[9.405217222,41.936173611],[9.405245,41.936172778],[9.405245,41.935885278],[9.405266667,41.935883889],[9.405259167,41.936171111],[9.405287778,41.9361725],[9.405295,41.935887778],[9.405304722,41.935888333],[9.405300833,41.936170833],[9.40532,41.936171944],[9.405331111,41.935891389],[9.405342778,41.935891944],[9.405338333,41.936170556],[9.405368056,41.936170556],[9.4053725,41.935893611],[9.405384167,41.9358925],[9.405376944,41.936179722],[9.405373889,41.936198611]]]}},{"type":"Feature","id":"LFKS-6853dd370d129b444621","properties":{"airport":"LFKS","name":"1","layer":"Labels","category":"Gates","object_type":"Label","style_id":"label.gates","source_group":"LFKS Gates","vsmr_group_ids":[],"geometry_role":"text_label","text-field":"1"},"geometry":{"type":"Point","coordinates":[9.401194444,41.921416667]}},{"type":"Feature","id":"LFKS-914c0c8b8b150c0eb7c7","properties":{"airport":"LFKS","name":"2","layer":"Labels","category":"Gates","object_type":"Label","style_id":"label.gates","source_group":"LFKS Gates","vsmr_group_ids":[],"geometry_role":"text_label","text-field":"2"},"geometry":{"type":"Point","coordinates":[9.401166667,41.921833333]}},{"type":"Feature","id":"LFKS-0828d33cb09a3c4fe80c","properties":{"airport":"LFKS","name":"3","layer":"Labels","category":"Gates","object_type":"Label","style_id":"label.gates","source_group":"LFKS Gates","vsmr_group_ids":[],"geometry_role":"text_label","text-field":"3"},"geometry":{"type":"Point","coordinates":[9.401166667,41.922277778]}},{"type":"Feature","id":"LFKS-c41bca49ad0269bfec7a","properties":{"airport":"LFKS","name":"4","layer":"Labels","category":"Gates","object_type":"Label","style_id":"label.gates","source_group":"LFKS Gates","vsmr_group_ids":[],"geometry_role":"text_label","text-field":"4"},"geometry":{"type":"Point","coordinates":[9.401194444,41.922833333]}},{"type":"Feature","id":"LFKS-4765ab26e1e318013c4b","properties":{"airport":"LFKS","name":"5","layer":"Labels","category":"Gates","object_type":"Label","style_id":"label.gates","source_group":"LFKS Gates","vsmr_group_ids":[],"geometry_role":"text_label","text-field":"5"},"geometry":{"type":"Point","coordinates":[9.401194444,41.923361111]}},{"type":"Feature","id":"LFKS-ed17fe26211a6ce1f1ae","properties":{"airport":"LFKS","name":"6","layer":"Labels","category":"Gates","object_type":"Label","style_id":"label.gates","source_group":"LFKS Gates","vsmr_group_ids":[],"geometry_role":"text_label","text-field":"6"},"geometry":{"type":"Point","coordinates":[9.401166667,41.923916667]}},{"type":"Feature","id":"LFKS-745404dd0dd7c54c6654","properties":{"airport":"LFKS","name":"7","layer":"Labels","category":"Gates","object_type":"Label","style_id":"label.gates","source_group":"LFKS Gates","vsmr_group_ids":[],"geometry_role":"text_label","text-field":"7"},"geometry":{"type":"Point","coordinates":[9.401166667,41.924416667]}},{"type":"Feature","id":"LFKS-7c30df661c51202663d0","properties":{"airport":"LFKS","name":"8","layer":"Labels","category":"Gates","object_type":"Label","style_id":"label.gates","source_group":"LFKS Gates","vsmr_group_ids":[],"geometry_role":"text_label","text-field":"8"},"geometry":{"type":"Point","coordinates":[9.401166667,41.924916667]}},{"type":"Feature","id":"LFKS-8c2fd4bc0746c95595e2","properties":{"airport":"LFKS","name":"9","layer":"Labels","category":"Gates","object_type":"Label","style_id":"label.gates","source_group":"LFKS Gates","vsmr_group_ids":[],"geometry_role":"text_label","text-field":"9"},"geometry":{"type":"Point","coordinates":[9.401166667,41.925416667]}},{"type":"Feature","id":"LFKS-c0ee8bcfc757898e1498","properties":{"airport":"LFKS","name":"10","layer":"Labels","category":"Gates","object_type":"Label","style_id":"label.gates","source_group":"LFKS Gates","vsmr_group_ids":[],"geometry_role":"text_label","text-field":"10"},"geometry":{"type":"Point","coordinates":[9.401194444,41.926055556]}},{"type":"Feature","id":"LFKS-4dd09ea36f6cb10b95e2","properties":{"airport":"LFKS","name":"11","layer":"Labels","category":"Gates","object_type":"Label","style_id":"label.gates","source_group":"LFKS Gates","vsmr_group_ids":[],"geometry_role":"text_label","text-field":"11"},"geometry":{"type":"Point","coordinates":[9.401166667,41.926555556]}},{"type":"Feature","id":"LFKS-3ca6af7dc416133311a0","properties":{"airport":"LFKS","name":"12","layer":"Labels","category":"Gates","object_type":"Label","style_id":"label.gates","source_group":"LFKS Gates","vsmr_group_ids":[],"geometry_role":"text_label","text-field":"12"},"geometry":{"type":"Point","coordinates":[9.401166667,41.927083333]}},{"type":"Feature","id":"LFKS-c750248883235e8781d0","properties":{"airport":"LFKS","name":"13","layer":"Labels","category":"Gates","object_type":"Label","style_id":"label.gates","source_group":"LFKS Gates","vsmr_group_ids":[],"geometry_role":"text_label","text-field":"13"},"geometry":{"type":"Point","coordinates":[9.401166667,41.927583333]}},{"type":"Feature","id":"LFKS-3d9aa895c8fca4c30f4a","properties":{"airport":"LFKS","name":"LFKS Groundlayout AVISO","layer":"Guidance lines","category":"Taxiways","object_type":"Line","style_id":"line.taxiway.c0b631","source_group":"LFKS Groundlayout AVISO","vsmr_group_ids":[],"geometry_role":"linework"},"geometry":{"type":"MultiLineString","coordinates":[[[9.405547778,41.911303611],[9.405548056,41.911059167],[9.405533611,41.910969444],[9.405480278,41.910902222],[9.405398611,41.910831667],[9.405001944,41.910622778],[9.404884167,41.910579444],[9.404799722,41.910563056],[9.403587222,41.910556667],[9.403504444,41.910573056],[9.403411111,41.910605556],[9.403295556,41.910703333],[9.403259722,41.910784444],[9.403242222,41.910878056],[9.403194167,41.912521111],[9.403117778,41.913225556],[9.403111111,41.913612222],[9.402583889,41.935219444],[9.402580833,41.935364167],[9.402614167,41.935526667],[9.402628333,41.935609722],[9.402566111,41.937880556],[9.402609444,41.938026389],[9.402701667,41.938121944],[9.402760278,41.938154444],[9.402883611,41.938185556],[9.404133056,41.938210556],[9.404245,41.938199444],[9.404374444,41.938148889],[9.404788056,41.937943611],[9.404836667,41.937899444],[9.404891667,41.937800833],[9.404913333,41.93775]],[[9.402779722,41.938163056],[9.402976667,41.938291667],[9.403127222,41.938353056],[9.403256667,41.938373889],[9.403351667,41.938390833],[9.403451944,41.938385278],[9.403614444,41.938358611],[9.403771667,41.938291667],[9.40388,41.938203333]],[[9.402964167,41.919518611],[9.402911667,41.919663056],[9.4028425,41.919720278],[9.402747222,41.919765],[9.402669444,41.919784444],[9.402586944,41.919793889],[9.402738889,41.919823889],[9.402841389,41.919891944],[9.402898889,41.920009722],[9.402953611,41.920131667],[9.402996944,41.920010556],[9.403084722,41.919900833],[9.403158611,41.919853611],[9.403234722,41.919816389],[9.403365556,41.919802222],[9.403242778,41.919767222],[9.403147778,41.9197075],[9.403053611,41.919631667],[9.402964167,41.919518611]],[[9.405526944,41.919085556],[9.405491944,41.920528611]],[[9.4050175,41.919823333],[9.4022425,41.919788889],[9.399913333,41.919749722]],[[9.40552,41.919477222],[9.405468611,41.919592222],[9.405386389,41.919692778],[9.405304444,41.919733889],[9.405138889,41.9198025],[9.405012778,41.9198225],[9.405162778,41.9198525],[9.405318056,41.919938056],[9.405445556,41.920040556],[9.405503889,41.920196667]],[[9.405311389,41.928430278],[9.405225278,41.928652222],[9.405126111,41.928750833],[9.404955278,41.928849722],[9.404761389,41.928897222],[9.404623889,41.92892],[9.404829167,41.928969167],[9.405026389,41.9290475],[9.405199444,41.929214167],[9.405279167,41.929428889]],[[9.405314722,41.928090278],[9.405277222,41.929689722]],[[9.403879167,41.938146111],[9.403859722,41.938445556]],[[9.404563333,41.910096389],[9.404548056,41.910619444]],[[9.403461667,41.910586111],[9.403790556,41.910346944],[9.403851111,41.910315556],[9.4043475,41.910325556],[9.4044075,41.9103625],[9.404442222,41.910433889],[9.404428333,41.9104775],[9.404396111,41.910527222],[9.4042875,41.910561389],[9.403896389,41.910558333],[9.403819444,41.910530278],[9.403753889,41.91048],[9.403751389,41.910418333],[9.403790278,41.910349167]],[[9.405659722,41.913631944],[9.405653889,41.913163611],[9.405636389,41.913098056],[9.405533889,41.912980833],[9.4053975,41.912885],[9.405264167,41.912840833],[9.405150556,41.912828611],[9.403611667,41.912810833],[9.403453056,41.912793056],[9.403329444,41.912737778],[9.403221111,41.912620556],[9.403193333,41.912516667]],[[9.403665833,41.912810278],[9.403523333,41.912828611],[9.403347778,41.912904167],[9.403221944,41.913008056],[9.403153333,41.913115833],[9.403119167,41.913249444]],[[9.40319,41.912525556],[9.403148611,41.9126275],[9.403078611,41.912696944],[9.402964444,41.912749722],[9.402873611,41.912762778],[9.401799722,41.9127425]],[[9.405663056,41.913633056],[9.406081944,41.913156667],[9.406208056,41.912992222],[9.4061725,41.912919722],[9.406085,41.912865556],[9.406001944,41.912840833],[9.405855833,41.912814167],[9.405750278,41.91282],[9.405687778,41.912863056],[9.405664444,41.912963333],[9.405653056,41.913184722]],[[9.404628611,41.912638056],[9.404615833,41.913025556]],[[9.404633333,41.928917778],[9.400618333,41.928867778]],[[9.404293056,41.919746944],[9.404295,41.919886389]],[[9.404060556,41.928702778],[9.404052222,41.929118333]],[[9.402747778,41.928539722],[9.402683611,41.928686389],[9.402568889,41.928792222],[9.402445833,41.928841944],[9.4022625,41.928892778],[9.402450556,41.928968056],[9.402617778,41.929085],[9.402680556,41.929181944],[9.402728611,41.929343056]],[[9.402628611,41.9356175],[9.402685,41.935707222],[9.402781389,41.935808056],[9.402883056,41.935871389],[9.4029825,41.935906944],[9.403132778,41.935928889],[9.404571667,41.9359525],[9.404728611,41.935931944],[9.404908333,41.935858889],[9.404972222,41.935800278],[9.405033889,41.935721667],[9.405048611,41.935628056],[9.405060278,41.934814444]],[[9.405057222,41.935071111],[9.405638056,41.935815556],[9.405597222,41.935882222],[9.4055025,41.9359475],[9.405420278,41.935970278],[9.405294722,41.935976944],[9.405194167,41.935956389],[9.405118611,41.935913889],[9.4050775,41.935857222],[9.405044167,41.935778333],[9.405038056,41.9357]],[[9.403923611,41.935758611],[9.403914167,41.936161389]],[[9.402621944,41.936056389],[9.402674167,41.936131944],[9.402748333,41.936173611],[9.402820556,41.936183056],[9.403714167,41.936196389],[9.403765,41.936175556],[9.404108333,41.935943889]],[[9.402254722,41.926261111],[9.400116111,41.926230556]],[[9.402815278,41.925845278],[9.402776389,41.925975278],[9.4027,41.926092222],[9.402583889,41.92617],[9.402426944,41.926229722],[9.402249167,41.926262778],[9.402391944,41.926286111],[9.402552222,41.926347778],[9.402665833,41.926443889],[9.402737778,41.926534167],[9.402793056,41.9267075]],[[9.400991389,41.926245278],[9.400889722,41.926269444],[9.400818889,41.926321667],[9.400778333,41.926398333],[9.400768056,41.92651],[9.400680278,41.928638056],[9.400693889,41.928726667],[9.400754167,41.928796111],[9.400896111,41.928871389]],[[9.400627778,41.928869167],[9.400315,41.928871389],[9.400226667,41.928836111],[9.400118056,41.928749167],[9.400091944,41.9286725],[9.400151667,41.926428889],[9.400167222,41.926350833],[9.400219167,41.926290556],[9.400346389,41.926235278]],[[9.400124444,41.926228889],[9.400009444,41.926265],[9.3999275,41.926324167],[9.399899444,41.926427222],[9.399905556,41.926746944],[9.399870556,41.926838333],[9.399835833,41.926926944],[9.399819722,41.927091944],[9.399816944,41.927220833],[9.399784167,41.927343056],[9.399735556,41.927409167],[9.399626389,41.927478889],[9.399536389,41.927543333],[9.399498889,41.927609722],[9.399495556,41.927676944],[9.399443333,41.9289725],[9.399465833,41.929121667],[9.399467222,41.929236667],[9.399463611,41.929743889],[9.399506111,41.929871111],[9.399574444,41.930001944],[9.399624167,41.9301325],[9.399655,41.930265]],[[9.400322778,41.928871667],[9.399863333,41.928866667],[9.399682778,41.928861667],[9.399586944,41.928819722],[9.399518333,41.928761667],[9.399460833,41.928636667]],[[9.399867222,41.928861389],[9.399756944,41.928883333],[9.399625278,41.9289525],[9.3995375,41.929048056],[9.3994675,41.929233889]],[[9.400586667,41.928867778],[9.400482778,41.928909722],[9.400407778,41.928972222],[9.400358333,41.929054722],[9.400334444,41.929155],[9.400295,41.929840278],[9.399960278,41.930119444],[9.399913333,41.930154444],[9.399803889,41.930156944],[9.399713611,41.930154444],[9.399621111,41.930123611]],[[9.400435,41.926238056],[9.400283889,41.926191111],[9.400190833,41.926123056],[9.4001675,41.926066944],[9.400145833,41.925975],[9.40023,41.922800833]],[[9.400123611,41.926228889],[9.399923056,41.926223333],[9.399819444,41.926176667],[9.399743333,41.926098611],[9.399716944,41.926040556],[9.399706389,41.925961667],[9.399761389,41.923500556]],[[9.400373889,41.916965],[9.400246667,41.922266111]],[[9.399733889,41.921940556],[9.399859722,41.917062222]],[[9.399793889,41.919618889],[9.399806389,41.919681389],[9.399836389,41.9197075],[9.399879444,41.91973],[9.399920278,41.919748611],[9.399878333,41.919755278],[9.399816389,41.919790278],[9.399801667,41.919821111],[9.3997875,41.919894444]],[[9.399898611,41.917301944],[9.400273611,41.917306944],[9.400241667,41.919700833],[9.399866667,41.919679444],[9.399845833,41.919653056],[9.399836667,41.919631667],[9.399898611,41.917301944]],[[9.400238056,41.919821389],[9.399888333,41.919795],[9.3998575,41.919798056],[9.399830278,41.919821944],[9.399822778,41.919860833],[9.399763056,41.922056111],[9.400161944,41.922075278],[9.400238056,41.919821389]],[[9.400361667,41.916907222],[9.400530556,41.916801944],[9.4006075,41.916875278],[9.4006425,41.916891389],[9.400690556,41.9169],[9.400695,41.91713],[9.4006925,41.917234444],[9.400667222,41.917308611],[9.400610556,41.917353056],[9.400539444,41.917381667],[9.400425278,41.917396944],[9.400456111,41.916980833],[9.400361667,41.916907222]],[[9.399639444,41.916988889],[9.399778889,41.916899444],[9.399892778,41.916984444],[9.399931111,41.9170025],[9.399784444,41.917101111],[9.399639444,41.916988889]],[[9.401519722,41.912329444],[9.401711667,41.912478889],[9.401674167,41.912520278],[9.401661111,41.91257],[9.401634167,41.912825833],[9.401370556,41.912819444],[9.401264167,41.912762222],[9.401356944,41.912678611],[9.401363056,41.912635278],[9.401325,41.912589722],[9.401253611,41.912531389],[9.401519722,41.912329444]],[[9.399827222,41.923318056],[9.40013,41.923325556],[9.400089167,41.925927222],[9.400021944,41.925933889],[9.399895833,41.925960556],[9.399795833,41.925994722],[9.399764167,41.926031667],[9.399827222,41.923318056]],[[9.400213056,41.926515833],[9.400278889,41.926559722],[9.400419722,41.926616111],[9.400623611,41.926686389],[9.400656667,41.926733333],[9.400621111,41.928727222],[9.400491667,41.928722778],[9.400334167,41.928669167],[9.400192778,41.928589167],[9.400138611,41.9284825],[9.400213056,41.926515833]],[[9.399514444,41.929210278],[9.39956,41.929249444],[9.399630278,41.92927],[9.400204167,41.929316944],[9.400260278,41.929309444],[9.400233056,41.929819444],[9.400151667,41.929871389],[9.399971389,41.929894722],[9.399760833,41.929878889],[9.399585556,41.929837222],[9.399514444,41.929793611],[9.399514444,41.929210278]]]}},{"type":"Feature","id":"LFKS-7257407b45b12cbe7892","properties":{"airport":"LFKS","name":"LFKS Groundlayout","layer":"Guidance lines","category":"Runways","object_type":"Line","style_id":"line.runwayconcrete.555555","source_group":"LFKS Groundlayout","vsmr_group_ids":[],"geometry_role":"linework"},"geometry":{"type":"MultiLineString","coordinates":[[[9.405972222,41.910027778],[9.405972222,41.910527778]],[[9.405444444,41.910027778],[9.405972222,41.910027778]],[[9.405416667,41.910638889],[9.405361111,41.912638889]],[[9.405972222,41.910527778],[9.405916667,41.912777778]],[[9.405361111,41.912916667],[9.405166667,41.920944444]],[[9.405916667,41.912777778],[9.405694444,41.921083333]],[[9.405166667,41.921222222],[9.405,41.927833333]],[[9.405694444,41.921083333],[9.405527778,41.927972222]],[[9.405,41.928111111],[9.404944444,41.929472222]],[[9.405527778,41.927972222],[9.4055,41.929611111]],[[9.404944444,41.929722222],[9.404777778,41.93675]],[[9.4055,41.929611111],[9.405305556,41.936888889]],[[9.404777778,41.937],[9.404722222,41.938555556]],[[9.405305556,41.936888889],[9.405277778,41.938555556]],[[9.404722222,41.938555556],[9.405277778,41.938555556]]]}},{"type":"Feature","id":"LFKS-86681e65c89c272b02fb","properties":{"airport":"LFKS","name":"LFKS Groundlayout","layer":"Guidance lines","category":"Taxiways","object_type":"Line","style_id":"line.taxiway.c0b631","source_group":"LFKS Groundlayout","vsmr_group_ids":[],"geometry_role":"linework"},"geometry":{"type":"MultiLineString","coordinates":[[[9.405416667,41.910361111],[9.405055556,41.910361111]],[[9.405416667,41.910638889],[9.405055556,41.910638889]],[[9.405055556,41.910361111],[9.403944444,41.910361111]],[[9.405055556,41.910638889],[9.404305556,41.910638889]],[[9.403944444,41.910361111],[9.403888889,41.912777778]],[[9.404305556,41.910638889],[9.40425,41.912638889]],[[9.403888889,41.912777778],[9.403666667,41.920944444]],[[9.40425,41.912916667],[9.404027778,41.920944444]],[[9.403666667,41.921222222],[9.403472222,41.927861111]],[[9.404027778,41.921222222],[9.403833333,41.927833333]],[[9.403472222,41.928166667],[9.403444444,41.929416667]],[[9.403833333,41.928083333],[9.403805556,41.929444444]],[[9.403416667,41.929694444],[9.403222222,41.937]],[[9.403777778,41.929722222],[9.403583333,41.936722222]],[[9.403222222,41.937],[9.404416667,41.937]],[[9.403583333,41.936722222],[9.404416667,41.936722222]],[[9.404416667,41.937],[9.404777778,41.937]],[[9.404416667,41.936722222],[9.404777778,41.93675]],[[9.40425,41.912916667],[9.405,41.912916667]],[[9.40425,41.912638889],[9.405,41.912638889]],[[9.405,41.912916667],[9.405361111,41.912916667]],[[9.405,41.912638889],[9.405361111,41.912638889]],[[9.403777778,41.929722222],[9.404583333,41.929722222]],[[9.403805556,41.929444444],[9.404583333,41.929472222]],[[9.404583333,41.929722222],[9.404944444,41.929722222]],[[9.404583333,41.929472222],[9.404944444,41.929472222]],[[9.403833333,41.928083333],[9.404611111,41.928111111]],[[9.403833333,41.927833333],[9.404638889,41.927833333]],[[9.404611111,41.928111111],[9.405,41.928111111]],[[9.404638889,41.927833333],[9.405,41.927833333]],[[9.404027778,41.921222222],[9.404805556,41.921222222]],[[9.404027778,41.920944444],[9.404805556,41.920944444]],[[9.404805556,41.921222222],[9.405166667,41.921222222]],[[9.404805556,41.920944444],[9.405166667,41.920944444]],[[9.403444444,41.929416667],[9.40275,41.92925]],[[9.403416667,41.929694444],[9.402388889,41.929444444]],[[9.40275,41.92925],[9.402722222,41.928444444]],[[9.402388889,41.929444444],[9.402361111,41.928388889]],[[9.402722222,41.928444444],[9.403472222,41.928166667]],[[9.402638889,41.928166667],[9.403472222,41.927861111]],[[9.402444444,41.921222222],[9.403666667,41.921222222]],[[9.402083333,41.920944444],[9.403666667,41.920944444]],[[9.402083333,41.920944444],[9.402083333,41.921416667]],[[9.402444444,41.921222222],[9.402444444,41.921416667]],[[9.402083333,41.921416667],[9.402083333,41.921833333]],[[9.402444444,41.921416667],[9.402444444,41.921833333]],[[9.402083333,41.921833333],[9.402083333,41.922277778]],[[9.402444444,41.921833333],[9.402444444,41.922277778]],[[9.402083333,41.922277778],[9.402083333,41.922833333]],[[9.402444444,41.922277778],[9.402444444,41.922833333]],[[9.402083333,41.922833333],[9.402083333,41.923361111]],[[9.402444444,41.922833333],[9.402444444,41.923361111]],[[9.402083333,41.923361111],[9.402083333,41.923944444]],[[9.402444444,41.923361111],[9.402444444,41.923944444]],[[9.402083333,41.923944444],[9.402083333,41.924416667]],[[9.402444444,41.923944444],[9.402444444,41.924416667]],[[9.402083333,41.924416667],[9.402083333,41.924916667]],[[9.402444444,41.924416667],[9.402444444,41.924916667]],[[9.402083333,41.924916667],[9.402083333,41.925416667]],[[9.402444444,41.924916667],[9.402444444,41.925416667]],[[9.402083333,41.925416667],[9.402083333,41.926055556]],[[9.402444444,41.925416667],[9.402444444,41.926055556]],[[9.402083333,41.926055556],[9.402083333,41.926555556]],[[9.402444444,41.926055556],[9.402444444,41.926555556]],[[9.402083333,41.926555556],[9.402083333,41.927083333]],[[9.402444444,41.926555556],[9.402444444,41.927083333]],[[9.402083333,41.927083333],[9.402083333,41.927583333]],[[9.402444444,41.927083333],[9.402444444,41.927583333]],[[9.402083333,41.927583333],[9.402083333,41.927916667]],[[9.402444444,41.927583333],[9.402444444,41.927861111]],[[9.402083333,41.927916667],[9.402361111,41.928388889]],[[9.402444444,41.927861111],[9.402638889,41.928166667]]]}},{"type":"Feature","id":"LFKS-99c8c6e6a2da204d8da8","properties":{"airport":"LFKS","name":"LFKS Groundlayout","layer":"Guidance lines","category":"Apron Surface","object_type":"Line","style_id":"line.apronsurface.808080","source_group":"LFKS Groundlayout","vsmr_group_ids":[],"geometry_role":"linework"},"geometry":{"type":"MultiLineString","coordinates":[[[9.401,41.930166667],[9.400972222,41.918805556],[9.402472222,41.918805556],[9.4025,41.930166667]],[[9.401,41.930166667],[9.4025,41.930166667]]]}}]}
