{"type":"FeatureCollection","name":"LFLG AVISO","bbox":[5.84079,45.214312778,5.854081667,45.221970278],"metadata":{"schema":"vSMR AVISO","schema_version":2,"geometry_mode":"shared","airport":"LFLG","coordinate_reference_system":"WGS84","coordinate_order":"longitude, latitude","default_color_palette":"dark","color_palettes":["dark","light"],"background_colors":{"dark":"#434A4F","light":"#434A4F"},"runways":[{"ends":["04L","22R"],"headings":[42,222],"thresholds":[[5.842638889,45.215491944],[5.850493889,45.221310833]]},{"ends":["04","22"],"headings":[42,222],"thresholds":[[5.844518889,45.215255833],[5.851705833,45.220577778]]}],"saved_active_runways":[],"saved_active_airport_modes":[],"airport_reference":[5.848610833,45.218055833],"feature_count":91,"style_count":10,"layer_counts":{"Airfield surfaces":11,"Buildings and structures":49,"Guidance lines":1,"Labels":22,"Surface markings":5,"Terrain":3},"category_counts":{"Buildings":49,"Gates":12,"Grass":3,"Grass runways":1,"Hard Surface 2":1,"Hard Surface 3":6,"Runways":3,"Stopbars":5,"Taxiways":11},"geometry_source":"local GNG","geometry_source_url":"","geometry_license":"GPL-3.0"},"styles":{"polygon.grassurface.00512f":{"name":"Grass","layer":"Terrain","object_type":"Area","paint":{"fill":"#010D19","fill-opacity":1,"palette-overrides":{"light":{"fill":"#00512F"}}},"feature_count":3},"polygon.hardsurface3.8a807f":{"name":"Hard Surface 3","layer":"Airfield surfaces","object_type":"Area","paint":{"fill":"#222D3C","fill-opacity":1,"palette-overrides":{"light":{"fill":"#8A807F"}}},"feature_count":6},"polygon.hardsurface2.595e5b":{"name":"Hard Surface 2","layer":"Airfield surfaces","object_type":"Area","paint":{"fill":"#2F3949","fill-opacity":1,"palette-overrides":{"light":{"fill":"#595E5B"}}},"feature_count":1},"polygon.runwayconcrete.555555":{"name":"Runways","layer":"Airfield surfaces","object_type":"Area","paint":{"fill":"#111318","fill-opacity":1,"palette-overrides":{"light":{"fill":"#555555"}}},"feature_count":3},"polygon.runwaygrass.008000":{"name":"Grass runways","layer":"Airfield surfaces","object_type":"Area","paint":{"fill":"#859A77","fill-opacity":1,"palette-overrides":{"light":{"fill":"#008000"}}},"feature_count":1},"polygon.building.394446":{"name":"Buildings","layer":"Buildings and structures","object_type":"Area","paint":{"fill":"#475570","fill-opacity":1,"palette-overrides":{"light":{"fill":"#394446"}}},"feature_count":49},"polygon.stopbar.7e0000":{"name":"Stopbars","layer":"Surface markings","object_type":"Area","paint":{"fill":"#7E0000","fill-opacity":1,"palette-overrides":{"light":{"fill":"#7E0000"}}},"feature_count":5},"line.taxiway.c0b631":{"name":"Taxiways","layer":"Guidance lines","object_type":"Line","paint":{"stroke":"#4E5A69","stroke-opacity":1,"stroke-width":1,"palette-overrides":{"light":{"stroke":"#C0B631"}}},"feature_count":1},"label.gates":{"name":"Gates","layer":"Labels","object_type":"Label","paint":{"text-color":"#CCCCCC","text-font":"Arial","text-size":12,"text-halo-color":"#000000","text-halo-width":1,"text-anchor":"center","zoomLevel":9},"feature_count":12},"label.taxiways":{"name":"Taxiways","layer":"Labels","object_type":"Label","paint":{"text-color":"#CCCCCC","text-font":"Arial","text-size":12,"text-halo-color":"#000000","text-halo-width":1,"text-anchor":"center","zoomLevel":7},"feature_count":10}},"vsmr_groups":[],"features":[{"type":"Feature","id":"LFLG-cb4f0c4f94af179e2fb9","properties":{"airport":"LFLG","name":"LFLG AVISO","layer":"Terrain","category":"Grass","object_type":"Area","style_id":"polygon.grassurface.00512f","source_group":"LFLG AVISO","vsmr_group_ids":[],"geometry_role":"filled_region"},"geometry":{"type":"Polygon","coordinates":[[[5.840936667,45.215382222],[5.841078611,45.215295],[5.841218611,45.215186111],[5.841321389,45.215078611],[5.841451389,45.214928333],[5.841593889,45.214723056],[5.841891111,45.214312778],[5.845164167,45.214343611],[5.845773611,45.214351111],[5.846158889,45.214329722],[5.846490556,45.214350278],[5.846842222,45.214385833],[5.847193889,45.214453333],[5.847556389,45.214594722],[5.847969722,45.214758333],[5.8484075,45.214868889],[5.848896111,45.214955556],[5.849373056,45.215044167],[5.850059444,45.215433889],[5.8499625,45.215483056],[5.849845833,45.215504444],[5.849718889,45.215520833],[5.849621944,45.215537778],[5.849660833,45.215645833],[5.849655556,45.215645278],[5.849617778,45.21571],[5.849658056,45.215798333],[5.849748333,45.215883056],[5.850756944,45.216441667],[5.850872222,45.216528056],[5.850916667,45.216634167],[5.8509225,45.216715833],[5.850883889,45.216833056],[5.850821667,45.216920556],[5.850798056,45.217026944],[5.852348333,45.218131944],[5.853107778,45.217813333],[5.853121667,45.217798889],[5.8531375,45.217791389],[5.853321944,45.217686389],[5.853332222,45.217681389],[5.8534675,45.217665556],[5.853609722,45.217762778],[5.853616389,45.21777],[5.853818611,45.217981111],[5.853938611,45.218187222],[5.854023333,45.218354167],[5.854074167,45.218574167],[5.854073611,45.218576944],[5.854074167,45.218592222],[5.85408,45.218754444],[5.854081667,45.218767222],[5.854034444,45.219078333],[5.853926389,45.219302778],[5.853531389,45.219638333],[5.853106111,45.220778611],[5.853723333,45.221211667],[5.852624167,45.221945833],[5.851326111,45.220981111],[5.851258056,45.221028333],[5.851256389,45.221029167],[5.851166667,45.221091111],[5.851082778,45.221157222],[5.850978333,45.2212475],[5.850911944,45.221323889],[5.850520278,45.221893056],[5.8504725,45.221942222],[5.850412778,45.221963333],[5.850340556,45.221970278],[5.850041944,45.221761389],[5.849945278,45.2217],[5.849805,45.2216],[5.849682778,45.221524722],[5.849599444,45.221466667],[5.849524167,45.221406944],[5.849434444,45.221338056],[5.849356944,45.221275278],[5.849355,45.221273333],[5.849221389,45.221139722],[5.849166111,45.221075833],[5.849141389,45.220966389],[5.846546667,45.219099167],[5.845703333,45.219668056],[5.844046111,45.219636667],[5.844040833,45.219546667],[5.844053611,45.219475833],[5.844065278,45.219394444],[5.8440675,45.219339167],[5.844057778,45.219273611],[5.844049722,45.219227222],[5.844007222,45.219139167],[5.843976944,45.219073333],[5.843959167,45.219016667],[5.843952778,45.218959444],[5.843968333,45.218903056],[5.845083056,45.218528333],[5.845031667,45.218473056],[5.8449525,45.218369722],[5.844828333,45.2182075],[5.844732222,45.218075556],[5.844643333,45.217941389],[5.844558889,45.217820833],[5.844414444,45.217605],[5.844379444,45.217526667],[5.844320833,45.217458056],[5.844274444,45.217415833],[5.844210556,45.217401667],[5.844207778,45.217403333],[5.844123611,45.217426111],[5.844043056,45.217462778],[5.843988333,45.217483056],[5.843930278,45.217505278],[5.843881667,45.217515833],[5.843814444,45.217529722],[5.843725833,45.217517778],[5.843645556,45.217474444],[5.843581389,45.217395],[5.843501944,45.217295556],[5.843384722,45.2171575],[5.843305278,45.217069444],[5.843170278,45.216949167],[5.843028333,45.2168375],[5.842900556,45.216750278],[5.842746667,45.216627222],[5.842535278,45.216476944],[5.842248889,45.216305833],[5.842101667,45.216219167],[5.841878611,45.216083333],[5.841731389,45.216006389],[5.841469444,45.215892778],[5.841325556,45.215838333],[5.841199722,45.215789444],[5.841045278,45.215736111],[5.841037222,45.215735],[5.840980278,45.215713611],[5.840915278,45.2156875],[5.840881111,45.215664722],[5.840854167,45.215636944],[5.840835,45.215606667],[5.84079,45.215449444],[5.840936667,45.215382222]]]}},{"type":"Feature","id":"LFLG-e3d9f722666c5256d349","properties":{"airport":"LFLG","name":"LFLG AVISO","layer":"Airfield surfaces","category":"Hard Surface 3","object_type":"Area","style_id":"polygon.hardsurface3.8a807f","source_group":"LFLG AVISO","vsmr_group_ids":[],"geometry_role":"filled_region"},"geometry":{"type":"Polygon","coordinates":[[[5.846341111,45.219003889],[5.8459,45.219166111],[5.8459675,45.219263056],[5.845526111,45.219553333],[5.845417222,45.219480556],[5.845373056,45.219472222],[5.845324444,45.219474722],[5.845284444,45.219481389],[5.845257222,45.219484722],[5.845260278,45.219527222],[5.844929167,45.219533889],[5.844850556,45.219191667],[5.844653611,45.219202222],[5.844656667,45.219155],[5.844860833,45.219130556],[5.844889444,45.219106111],[5.844941667,45.219043056],[5.845123333,45.2189075],[5.845153611,45.218886667],[5.8452125,45.218922778],[5.845387222,45.218817778],[5.845819722,45.219132778],[5.845864444,45.219122222],[5.84632,45.218971667],[5.846341111,45.219003889]]]}},{"type":"Feature","id":"LFLG-b94e5a215c67e10b168f","properties":{"airport":"LFLG","name":"LFLG AVISO","layer":"Airfield surfaces","category":"Hard Surface 3","object_type":"Area","style_id":"polygon.hardsurface3.8a807f","source_group":"LFLG AVISO","vsmr_group_ids":[],"geometry_role":"filled_region"},"geometry":{"type":"Polygon","coordinates":[[[5.847556389,45.215220278],[5.847058056,45.215565],[5.846630278,45.215247778],[5.846596944,45.215269722],[5.846329444,45.215078611],[5.846345556,45.215063056],[5.846327222,45.215046944],[5.84634,45.215038611],[5.84597,45.214761667],[5.845950278,45.214751944],[5.845921667,45.214739444],[5.845896389,45.214731667],[5.845868889,45.214723611],[5.845836944,45.214714722],[5.845793611,45.214703889],[5.845787778,45.214697778],[5.845788889,45.214688333],[5.845859167,45.214534167],[5.8458625,45.214524444],[5.845873333,45.214525556],[5.845896111,45.214527778],[5.845914444,45.214529722],[5.845949722,45.214530833],[5.845978333,45.214523889],[5.846000278,45.214515833],[5.846028611,45.214503889],[5.846048056,45.214488611],[5.846066389,45.214470278],[5.846079444,45.214455278],[5.846098333,45.214441389],[5.846122222,45.21443],[5.846953056,45.215089167],[5.847186389,45.214946111],[5.847556389,45.215220278]]]}},{"type":"Feature","id":"LFLG-c99c92d242adcd01a158","properties":{"airport":"LFLG","name":"LFLG AVISO","layer":"Airfield surfaces","category":"Hard Surface 3","object_type":"Area","style_id":"polygon.hardsurface3.8a807f","source_group":"LFLG AVISO","vsmr_group_ids":[],"geometry_role":"filled_region"},"geometry":{"type":"Polygon","coordinates":[[[5.850088333,45.216916389],[5.849051944,45.216143611],[5.849312778,45.215955833],[5.850511111,45.216841944],[5.850313333,45.216962778],[5.850088333,45.216916389]]]}},{"type":"Feature","id":"LFLG-c9fa049f7d69adb3a592","properties":{"airport":"LFLG","name":"LFLG AVISO","layer":"Airfield surfaces","category":"Hard Surface 3","object_type":"Area","style_id":"polygon.hardsurface3.8a807f","source_group":"LFLG AVISO","vsmr_group_ids":[],"geometry_role":"filled_region"},"geometry":{"type":"Polygon","coordinates":[[[5.850616667,45.218056667],[5.850776389,45.217933611],[5.851649444,45.218556944],[5.851776667,45.218473333],[5.851948056,45.218606667],[5.851815556,45.218689444],[5.852034167,45.218851111],[5.852256667,45.218684167],[5.852393889,45.218786389],[5.852318611,45.218821667],[5.852474722,45.218948056],[5.852391667,45.219002222],[5.852298889,45.218924167],[5.852251389,45.218896667],[5.852223333,45.218889167],[5.852169722,45.218926944],[5.852194444,45.218951389],[5.8522025,45.218974167],[5.852276111,45.219025278],[5.852336944,45.218988333],[5.8524025,45.219031111],[5.852479167,45.218971944],[5.852588889,45.219048333],[5.852631667,45.219014722],[5.852864444,45.218846944],[5.853086944,45.219008333],[5.852983056,45.219046667],[5.852448611,45.219413889],[5.850616667,45.218056667]]]}},{"type":"Feature","id":"LFLG-74df1341b3728b5fe5f5","properties":{"airport":"LFLG","name":"LFLG AVISO","layer":"Airfield surfaces","category":"Hard Surface 3","object_type":"Area","style_id":"polygon.hardsurface3.8a807f","source_group":"LFLG AVISO","vsmr_group_ids":[],"geometry_role":"filled_region"},"geometry":{"type":"Polygon","coordinates":[[[5.848946389,45.217053056],[5.84901,45.217004444],[5.849029722,45.216995833],[5.849045556,45.216995556],[5.849061944,45.216995833],[5.849080556,45.217004722],[5.849370556,45.217211389],[5.849408889,45.217241667],[5.849423611,45.2172725],[5.849430278,45.217323889],[5.849421389,45.217361667],[5.849406111,45.217391389],[5.849370556,45.217427222],[5.849333611,45.2174525],[5.849334167,45.217415556],[5.849331389,45.217389722],[5.849321667,45.217355556],[5.849310833,45.217331111],[5.849291389,45.217303889],[5.848946389,45.217053056]]]}},{"type":"Feature","id":"LFLG-77d3ca8399ace29f0d01","properties":{"airport":"LFLG","name":"LFLG AVISO","layer":"Airfield surfaces","category":"Hard Surface 3","object_type":"Area","style_id":"polygon.hardsurface3.8a807f","source_group":"LFLG AVISO","vsmr_group_ids":[],"geometry_role":"filled_region"},"geometry":{"type":"Polygon","coordinates":[[[5.847282222,45.215849722],[5.847377222,45.215787778],[5.847396944,45.215779444],[5.847413056,45.215777778],[5.847429167,45.215779722],[5.847452222,45.215789722],[5.848167778,45.2163125],[5.848835556,45.216818889],[5.848846667,45.216830556],[5.848853056,45.21684],[5.848854444,45.216848889],[5.848850556,45.216858889],[5.848844167,45.216870556],[5.848771667,45.216922222],[5.847282222,45.215849722]]]}},{"type":"Feature","id":"LFLG-70d46ffd177f39d7d062","properties":{"airport":"LFLG","name":"LFLG AVISO","layer":"Airfield surfaces","category":"Hard Surface 2","object_type":"Area","style_id":"polygon.hardsurface2.595e5b","source_group":"LFLG AVISO","vsmr_group_ids":[],"geometry_role":"filled_region"},"geometry":{"type":"Polygon","coordinates":[[[5.845085556,45.215023889],[5.845294444,45.214884722],[5.845333611,45.214863056],[5.8453625,45.214848611],[5.845392778,45.214836389],[5.845417222,45.214827778],[5.845448056,45.214819722],[5.845479167,45.214814444],[5.845515278,45.214809167],[5.845549167,45.214807778],[5.845585278,45.214809722],[5.845616389,45.214813611],[5.845641111,45.214819444],[5.845668889,45.214826389],[5.845693889,45.214833056],[5.845715833,45.214840278],[5.845746667,45.214853056],[5.8457875,45.214871944],[5.845823333,45.214894444],[5.845856389,45.214918611],[5.846545,45.215419722],[5.846712222,45.215308333],[5.846760556,45.215343889],[5.846593333,45.215458611],[5.846950556,45.215725833],[5.846981389,45.215733611],[5.847021944,45.215737778],[5.847076667,45.215744167],[5.847109444,45.215745833],[5.847124444,45.215731944],[5.847135556,45.215707222],[5.847144444,45.215677778],[5.847145556,45.215658889],[5.847142778,45.215634167],[5.847058056,45.215565],[5.847321944,45.215385833],[5.849813889,45.217213333],[5.850082778,45.217030556],[5.850098611,45.217004444],[5.850103056,45.2169825],[5.850105278,45.216962222],[5.850098056,45.216938333],[5.850084167,45.216913056],[5.850296111,45.2169175],[5.850305,45.216942778],[5.850308333,45.216971111],[5.850302222,45.216998611],[5.850293611,45.217022778],[5.850281111,45.21705],[5.850264722,45.217065556],[5.850232222,45.217088056],[5.849873056,45.217327778],[5.84976,45.217414167],[5.852285833,45.219289722],[5.852439444,45.219200278],[5.852536667,45.219306389],[5.852548333,45.219346944],[5.8525575,45.219392778],[5.852551389,45.219420833],[5.852540278,45.219441389],[5.852533611,45.219451389],[5.852527222,45.219459444],[5.852517778,45.219475833],[5.852504444,45.219489167],[5.852495,45.219499167],[5.852484722,45.219511667],[5.85247,45.219525556],[5.852446111,45.219543333],[5.852426111,45.219556667],[5.852404444,45.219569444],[5.852382222,45.219584444],[5.8523725,45.219602222],[5.8523625,45.219619444],[5.852357222,45.219640278],[5.852357778,45.219665278],[5.852359444,45.219686667],[5.8523675,45.219708889],[5.852383056,45.219731111],[5.852398611,45.219746389],[5.852430833,45.219768889],[5.852911389,45.220143889],[5.852954722,45.220178889],[5.852975278,45.220205],[5.852986944,45.220224722],[5.853005833,45.220255556],[5.853013889,45.220278889],[5.853022778,45.220306389],[5.8530275,45.220331111],[5.853028056,45.220354444],[5.853023889,45.220378889],[5.8530175,45.220408889],[5.853006111,45.220445278],[5.852951389,45.220600556],[5.852916389,45.220679444],[5.852900278,45.220715],[5.852876389,45.220750833],[5.852784444,45.220699722],[5.852806944,45.220665556],[5.852820833,45.220631111],[5.852835556,45.220589444],[5.852855556,45.220536944],[5.852884444,45.220465833],[5.852905,45.220402222],[5.852911111,45.220372222],[5.852911667,45.220337778],[5.852906944,45.220309167],[5.852896389,45.220275],[5.852876111,45.220244444],[5.852858611,45.220216944],[5.851318056,45.219081111],[5.851265556,45.219045833],[5.850853056,45.219303056],[5.850763889,45.219233611],[5.851184444,45.218978333],[5.851183056,45.218975],[5.851181389,45.218970833],[5.85118,45.218967778],[5.851175556,45.218965833],[5.851172778,45.218965556],[5.851101667,45.218917222],[5.849496389,45.217740278],[5.849438056,45.217712222],[5.849399444,45.217704444],[5.849360556,45.217705278],[5.849321667,45.217705278],[5.849295556,45.21771],[5.849269167,45.217722222],[5.848996667,45.217916944],[5.848898333,45.217847222],[5.848898333,45.217847222],[5.849260556,45.21761],[5.849301944,45.217569444],[5.849325,45.217525556],[5.849333889,45.217487778],[5.849334167,45.217448056],[5.849333333,45.217400556],[5.849318333,45.217345],[5.8492925,45.217304167],[5.849266389,45.217283333],[5.847340833,45.215869444],[5.847297222,45.215851111],[5.847253333,45.215843611],[5.8472025,45.215841111],[5.847170833,45.215845833],[5.846645833,45.216188333],[5.846568889,45.216120556],[5.846891944,45.2159],[5.846894722,45.215864722],[5.846883889,45.215830556],[5.846868611,45.215803611],[5.846848333,45.2157775],[5.846502778,45.215532778],[5.846412222,45.215588889],[5.846348333,45.215542222],[5.846436944,45.215485278],[5.845805278,45.215005],[5.8457575,45.214972778],[5.845725,45.214948333],[5.8456975,45.214933333],[5.845663889,45.214919167],[5.845618333,45.214905278],[5.84558,45.214897222],[5.845534722,45.214894444],[5.845479722,45.214902778],[5.845478333,45.2149025],[5.845415833,45.214925556],[5.845335278,45.214976389],[5.845176111,45.215086667],[5.845085556,45.215023889]]]}},{"type":"Feature","id":"LFLG-75f32da52346af912d11","properties":{"airport":"LFLG","name":"LFLG AVISO","layer":"Airfield surfaces","category":"Runways","object_type":"Area","style_id":"polygon.runwayconcrete.555555","source_group":"LFLG AVISO","vsmr_group_ids":[],"geometry_role":"filled_region"},"geometry":{"type":"Polygon","coordinates":[[[5.845176667,45.215086667],[5.844996944,45.215212778],[5.844971111,45.215230833],[5.844953611,45.215259444],[5.844938333,45.215289722],[5.844935833,45.215334444],[5.844937222,45.215372778],[5.846139722,45.216250833],[5.846173056,45.216259722],[5.846194444,45.216260556],[5.846214722,45.216264444],[5.846256389,45.216267778],[5.846300556,45.216261667],[5.8463525,45.21625],[5.846396667,45.216234722],[5.846568333,45.21612],[5.846648889,45.216187778],[5.846526389,45.216274722],[5.846488611,45.216305],[5.846464167,45.216332222],[5.846436667,45.216364167],[5.846419722,45.2163975],[5.846411389,45.216438333],[5.846421944,45.216468889],[5.848493333,45.217993333],[5.848513611,45.218004167],[5.848537778,45.218007222],[5.848563333,45.218009167],[5.848600833,45.2180075],[5.848638056,45.218005556],[5.8486725,45.217997778],[5.848708056,45.217976389],[5.848900278,45.2178475],[5.848997778,45.217916944],[5.848781389,45.218068056],[5.848761667,45.2180875],[5.848752222,45.218116389],[5.848750278,45.218151667],[5.848751111,45.218169444],[5.848759167,45.2181925],[5.850323611,45.219368889],[5.850354444,45.219386667],[5.850404444,45.219394444],[5.850468056,45.2193925],[5.850503333,45.219388056],[5.850537778,45.219378889],[5.850570278,45.219358056],[5.850615556,45.219328056],[5.850763333,45.2192325],[5.850853889,45.219303333],[5.850695278,45.219402778],[5.850674167,45.219417778],[5.850651944,45.219433889],[5.850635278,45.219450833],[5.850621667,45.219469722],[5.850608889,45.219494167],[5.850606667,45.219518056],[5.850611667,45.219538889],[5.850621667,45.219568056],[5.850656944,45.219614444],[5.852346389,45.220848056],[5.852379444,45.220871111],[5.852417222,45.220877778],[5.852484167,45.220881667],[5.8525125,45.220880278],[5.852541944,45.220876389],[5.85257,45.220868333],[5.852611111,45.220851111],[5.852667778,45.220816389],[5.852708056,45.220788056],[5.852744722,45.220749722],[5.852785,45.220698889],[5.852877778,45.220749444],[5.852840833,45.220788056],[5.852806944,45.220823056],[5.852768611,45.220857222],[5.852716389,45.220897222],[5.852669722,45.220926111],[5.852615278,45.220963889],[5.852589722,45.220983611],[5.852570556,45.221003333],[5.852568889,45.221021389],[5.852614167,45.221049444],[5.852362778,45.221240556],[5.844386667,45.2153575],[5.844414722,45.215338333],[5.844462222,45.215303611],[5.844527778,45.215250833],[5.844576111,45.2152225],[5.844626667,45.215193889],[5.844670833,45.215169444],[5.844681944,45.215175],[5.844733611,45.215214722],[5.844745278,45.215221389],[5.844758889,45.21522],[5.84479,45.215211944],[5.84481,45.215198611],[5.845083333,45.215024167],[5.845176667,45.215086667]]]}},{"type":"Feature","id":"LFLG-3748bf34244afec90397","properties":{"airport":"LFLG","name":"LFLG AVISO","layer":"Airfield surfaces","category":"Runways","object_type":"Area","style_id":"polygon.runwayconcrete.555555","source_group":"LFLG AVISO","vsmr_group_ids":[],"geometry_role":"filled_region"},"geometry":{"type":"Polygon","coordinates":[[[5.846273611,45.215489167],[5.846493333,45.215649722],[5.846269167,45.215798611],[5.846053056,45.215641111],[5.846273611,45.215489167]]]}},{"type":"Feature","id":"LFLG-45921b9df02a2959cc65","properties":{"airport":"LFLG","name":"LFLG AVISO","layer":"Airfield surfaces","category":"Runways","object_type":"Area","style_id":"polygon.runwayconcrete.555555","source_group":"LFLG AVISO","vsmr_group_ids":[],"geometry_role":"filled_region"},"geometry":{"type":"Polygon","coordinates":[[[5.850738889,45.219161111],[5.8511075,45.218917222],[5.851318611,45.2190775],[5.850954722,45.219319722],[5.850738889,45.219161111]]]}},{"type":"Feature","id":"LFLG-2fa7fdbe05689b239904","properties":{"airport":"LFLG","name":"LFLG AVISO","layer":"Airfield surfaces","category":"Grass runways","object_type":"Area","style_id":"polygon.runwaygrass.008000","source_group":"LFLG AVISO","vsmr_group_ids":[],"geometry_role":"filled_region"},"geometry":{"type":"Polygon","coordinates":[[[5.842299722,45.2157525],[5.843066111,45.215246389],[5.8508775,45.221056389],[5.8501525,45.221565556],[5.842299722,45.2157525]]]}},{"type":"Feature","id":"LFLG-878ba2e631d90f8a9dbf","properties":{"airport":"LFLG","name":"LFLG AVISO","layer":"Terrain","category":"Grass","object_type":"Area","style_id":"polygon.grassurface.00512f","source_group":"LFLG AVISO","vsmr_group_ids":[],"geometry_role":"filled_region"},"geometry":{"type":"Polygon","coordinates":[[[5.8514125,45.219026389],[5.8514,45.219006111],[5.851402222,45.218983333],[5.851416667,45.218960833],[5.851439444,45.218934167],[5.851459167,45.218919167],[5.851480556,45.218904722],[5.851499444,45.218894167],[5.851520556,45.21889],[5.851535833,45.218892778],[5.851557222,45.218891111],[5.851571389,45.218901111],[5.852294722,45.219423889],[5.852313611,45.219446667],[5.852328889,45.219468611],[5.852332778,45.219490556],[5.85232,45.219513056],[5.852296667,45.219530833],[5.852267222,45.219547222],[5.852230556,45.219560833],[5.852196111,45.219564444],[5.852152778,45.219554722],[5.852095278,45.219524167],[5.852013611,45.219466944],[5.851948333,45.219419167],[5.851903056,45.219384444],[5.851846667,45.219346667],[5.851441111,45.219048611],[5.8514125,45.219026389]]]}},{"type":"Feature","id":"LFLG-8f0c2bc859ff62b422b9","properties":{"airport":"LFLG","name":"LFLG AVISO","layer":"Terrain","category":"Grass","object_type":"Area","style_id":"polygon.grassurface.00512f","source_group":"LFLG AVISO","vsmr_group_ids":[],"geometry_role":"filled_region"},"geometry":{"type":"Polygon","coordinates":[[[5.851330556,45.218713611],[5.851381944,45.218753333],[5.851385556,45.218779167],[5.8513775,45.218795556],[5.851359722,45.218813611],[5.851295556,45.218859722],[5.851258611,45.218863056],[5.851227222,45.218863333],[5.851198333,45.218859444],[5.851170278,45.2188425],[5.849614444,45.217703611],[5.849586389,45.217677222],[5.849561667,45.217646111],[5.849543611,45.217618611],[5.849537778,45.217592778],[5.849537222,45.217566667],[5.849550556,45.217534722],[5.849571389,45.2175175],[5.849615278,45.217491944],[5.849645556,45.217480833],[5.849675556,45.217488611],[5.851330556,45.218713611]]]}},{"type":"Feature","id":"LFLG-1b1ef262c7e1901e6b56","properties":{"airport":"LFLG","name":"LFLG AVISO","layer":"Buildings and structures","category":"Buildings","object_type":"Area","style_id":"polygon.building.394446","source_group":"LFLG AVISO","vsmr_group_ids":[],"geometry_role":"filled_region"},"geometry":{"type":"Polygon","coordinates":[[[5.844546389,45.218747222],[5.844648056,45.218737778],[5.844719444,45.219023889],[5.844606111,45.219038611],[5.844546389,45.218747222]]]}},{"type":"Feature","id":"LFLG-c499139ca942284ce393","properties":{"airport":"LFLG","name":"LFLG AVISO","layer":"Buildings and structures","category":"Buildings","object_type":"Area","style_id":"polygon.building.394446","source_group":"LFLG AVISO","vsmr_group_ids":[],"geometry_role":"filled_region"},"geometry":{"type":"Polygon","coordinates":[[[5.844919722,45.219505833],[5.844614722,45.219531389],[5.844563056,45.2192675],[5.844583056,45.219259167],[5.844577778,45.219213611],[5.844847778,45.219194167],[5.844919722,45.219505833]]]}},{"type":"Feature","id":"LFLG-b9fa2f185e6dc66e90ea","properties":{"airport":"LFLG","name":"LFLG AVISO","layer":"Buildings and structures","category":"Buildings","object_type":"Area","style_id":"polygon.building.394446","source_group":"LFLG AVISO","vsmr_group_ids":[],"geometry_role":"filled_region"},"geometry":{"type":"Polygon","coordinates":[[[5.845258333,45.219524722],[5.845263333,45.219666944],[5.844924167,45.219670278],[5.844917778,45.219539444],[5.845258333,45.219524722]]]}},{"type":"Feature","id":"LFLG-dff9be493474fa273222","properties":{"airport":"LFLG","name":"LFLG AVISO","layer":"Buildings and structures","category":"Buildings","object_type":"Area","style_id":"polygon.building.394446","source_group":"LFLG AVISO","vsmr_group_ids":[],"geometry_role":"filled_region"},"geometry":{"type":"Polygon","coordinates":[[[5.845519444,45.218915278],[5.845138889,45.219183611],[5.844997778,45.219073611],[5.8453875,45.218818056],[5.845519444,45.218915278]]]}},{"type":"Feature","id":"LFLG-da1c3d36cfdbac8d5a7e","properties":{"airport":"LFLG","name":"LFLG AVISO","layer":"Buildings and structures","category":"Buildings","object_type":"Area","style_id":"polygon.building.394446","source_group":"LFLG AVISO","vsmr_group_ids":[],"geometry_role":"filled_region"},"geometry":{"type":"Polygon","coordinates":[[[5.846064444,45.219388333],[5.845690556,45.219648056],[5.845546389,45.219537222],[5.845929167,45.219287222],[5.846064444,45.219388333]]]}},{"type":"Feature","id":"LFLG-c147cc9d2bb2021c86c6","properties":{"airport":"LFLG","name":"LFLG AVISO","layer":"Buildings and structures","category":"Buildings","object_type":"Area","style_id":"polygon.building.394446","source_group":"LFLG AVISO","vsmr_group_ids":[],"geometry_role":"filled_region"},"geometry":{"type":"Polygon","coordinates":[[[5.846358333,45.214376111],[5.846393889,45.214400556],[5.846435278,45.214384444],[5.846627778,45.214545833],[5.846591944,45.2145675],[5.8466125,45.214582222],[5.8464,45.214716389],[5.846140278,45.214506667],[5.846358333,45.214376111]]]}},{"type":"Feature","id":"LFLG-46067444345c8a5bdf57","properties":{"airport":"LFLG","name":"LFLG AVISO","layer":"Buildings and structures","category":"Buildings","object_type":"Area","style_id":"polygon.building.394446","source_group":"LFLG AVISO","vsmr_group_ids":[],"geometry_role":"filled_region"},"geometry":{"type":"Polygon","coordinates":[[[5.846629444,45.214585],[5.846781389,45.2147],[5.846561389,45.214825833],[5.846415,45.214716111],[5.846629444,45.214585]]]}},{"type":"Feature","id":"LFLG-88ba596f3bc12df02c8a","properties":{"airport":"LFLG","name":"LFLG AVISO","layer":"Buildings and structures","category":"Buildings","object_type":"Area","style_id":"polygon.building.394446","source_group":"LFLG AVISO","vsmr_group_ids":[],"geometry_role":"filled_region"},"geometry":{"type":"Polygon","coordinates":[[[5.846554444,45.2148375],[5.846838889,45.214674444],[5.847189167,45.214941667],[5.846913333,45.215099444],[5.846554444,45.2148375]]]}},{"type":"Feature","id":"LFLG-eaa25167d147ebeb36a4","properties":{"airport":"LFLG","name":"LFLG AVISO","layer":"Buildings and structures","category":"Buildings","object_type":"Area","style_id":"polygon.building.394446","source_group":"LFLG AVISO","vsmr_group_ids":[],"geometry_role":"filled_region"},"geometry":{"type":"Polygon","coordinates":[[[5.847209167,45.215240556],[5.847194444,45.215249722],[5.847181389,45.215236111],[5.847196111,45.215226944],[5.847209167,45.215240556]]]}},{"type":"Feature","id":"LFLG-bf8caffb86c170d301b0","properties":{"airport":"LFLG","name":"LFLG AVISO","layer":"Buildings and structures","category":"Buildings","object_type":"Area","style_id":"polygon.building.394446","source_group":"LFLG AVISO","vsmr_group_ids":[],"geometry_role":"filled_region"},"geometry":{"type":"Polygon","coordinates":[[[5.847167778,45.215220278],[5.847154444,45.215229444],[5.847141944,45.215218889],[5.847155833,45.215207778],[5.847167778,45.215220278]]]}},{"type":"Feature","id":"LFLG-1f1fb2133f281b014853","properties":{"airport":"LFLG","name":"LFLG AVISO","layer":"Buildings and structures","category":"Buildings","object_type":"Area","style_id":"polygon.building.394446","source_group":"LFLG AVISO","vsmr_group_ids":[],"geometry_role":"filled_region"},"geometry":{"type":"Polygon","coordinates":[[[5.847331389,45.215342778],[5.847301389,45.215365],[5.8472625,45.215334167],[5.847295,45.215312778],[5.847331389,45.215342778]]]}},{"type":"Feature","id":"LFLG-a10bdb5bb0fda7998509","properties":{"airport":"LFLG","name":"LFLG AVISO","layer":"Buildings and structures","category":"Buildings","object_type":"Area","style_id":"polygon.building.394446","source_group":"LFLG AVISO","vsmr_group_ids":[],"geometry_role":"filled_region"},"geometry":{"type":"Polygon","coordinates":[[[5.847293056,45.215379444],[5.847559444,45.215213611],[5.848071944,45.215584167],[5.847794722,45.215752222],[5.847293056,45.215379444]]]}},{"type":"Feature","id":"LFLG-ae7fc141b2715a29b841","properties":{"airport":"LFLG","name":"LFLG AVISO","layer":"Buildings and structures","category":"Buildings","object_type":"Area","style_id":"polygon.building.394446","source_group":"LFLG AVISO","vsmr_group_ids":[],"geometry_role":"filled_region"},"geometry":{"type":"Polygon","coordinates":[[[5.847983889,45.215879722],[5.848075556,45.215815556],[5.848063333,45.215800833],[5.848133056,45.215764167],[5.848201944,45.215817222],[5.848165833,45.215836389],[5.848143889,45.21585],[5.848239444,45.215911944],[5.848312778,45.215868056],[5.848403611,45.215937222],[5.848224722,45.216049167],[5.847983889,45.215879722]]]}},{"type":"Feature","id":"LFLG-ee446377bc1000f9a188","properties":{"airport":"LFLG","name":"LFLG AVISO","layer":"Buildings and structures","category":"Buildings","object_type":"Area","style_id":"polygon.building.394446","source_group":"LFLG AVISO","vsmr_group_ids":[],"geometry_role":"filled_region"},"geometry":{"type":"Polygon","coordinates":[[[5.848414167,45.21608],[5.8484925,45.216147222],[5.848410556,45.216192778],[5.848331667,45.216129722],[5.848414167,45.21608]]]}},{"type":"Feature","id":"LFLG-5484d1596404c0568060","properties":{"airport":"LFLG","name":"LFLG AVISO","layer":"Buildings and structures","category":"Buildings","object_type":"Area","style_id":"polygon.building.394446","source_group":"LFLG AVISO","vsmr_group_ids":[],"geometry_role":"filled_region"},"geometry":{"type":"Polygon","coordinates":[[[5.84954,45.216830556],[5.849393611,45.216926667],[5.8485225,45.216270833],[5.848673056,45.21617],[5.84954,45.216830556]]]}},{"type":"Feature","id":"LFLG-ad3c83dc5cfd29eb195d","properties":{"airport":"LFLG","name":"LFLG AVISO","layer":"Buildings and structures","category":"Buildings","object_type":"Area","style_id":"polygon.building.394446","source_group":"LFLG AVISO","vsmr_group_ids":[],"geometry_role":"filled_region"},"geometry":{"type":"Polygon","coordinates":[[[5.848816944,45.216218333],[5.848763333,45.216176667],[5.848860556,45.216118889],[5.848911111,45.216157778],[5.848816944,45.216218333]]]}},{"type":"Feature","id":"LFLG-22b72e4c2b329a4d9911","properties":{"airport":"LFLG","name":"LFLG AVISO","layer":"Buildings and structures","category":"Buildings","object_type":"Area","style_id":"polygon.building.394446","source_group":"LFLG AVISO","vsmr_group_ids":[],"geometry_role":"filled_region"},"geometry":{"type":"Polygon","coordinates":[[[5.8489275,45.216139444],[5.848881111,45.216102778],[5.8489925,45.216021667],[5.8490475,45.216056944],[5.8489275,45.216139444]]]}},{"type":"Feature","id":"LFLG-9497ff80a363882a1ab7","properties":{"airport":"LFLG","name":"LFLG AVISO","layer":"Buildings and structures","category":"Buildings","object_type":"Area","style_id":"polygon.building.394446","source_group":"LFLG AVISO","vsmr_group_ids":[],"geometry_role":"filled_region"},"geometry":{"type":"Polygon","coordinates":[[[5.850020556,45.216882778],[5.849816944,45.217021389],[5.848866944,45.2163125],[5.849086944,45.216182222],[5.850020556,45.216882778]]]}},{"type":"Feature","id":"LFLG-ca4f23eea03e51eb4fa3","properties":{"airport":"LFLG","name":"LFLG AVISO","layer":"Buildings and structures","category":"Buildings","object_type":"Area","style_id":"polygon.building.394446","source_group":"LFLG AVISO","vsmr_group_ids":[],"geometry_role":"filled_region"},"geometry":{"type":"Polygon","coordinates":[[[5.849624722,45.2168925],[5.849809167,45.217023889],[5.8496625,45.217125],[5.849481667,45.216988333],[5.849624722,45.2168925]]]}},{"type":"Feature","id":"LFLG-4ae384254546a37109e5","properties":{"airport":"LFLG","name":"LFLG AVISO","layer":"Buildings and structures","category":"Buildings","object_type":"Area","style_id":"polygon.building.394446","source_group":"LFLG AVISO","vsmr_group_ids":[],"geometry_role":"filled_region"},"geometry":{"type":"Polygon","coordinates":[[[5.848648333,45.215451389],[5.848738889,45.215391667],[5.848848611,45.215469722],[5.848758889,45.215531944],[5.848648333,45.215451389]]]}},{"type":"Feature","id":"LFLG-2b84fcee384824de66d6","properties":{"airport":"LFLG","name":"LFLG AVISO","layer":"Buildings and structures","category":"Buildings","object_type":"Area","style_id":"polygon.building.394446","source_group":"LFLG AVISO","vsmr_group_ids":[],"geometry_role":"filled_region"},"geometry":{"type":"Polygon","coordinates":[[[5.848879722,45.215498889],[5.8489275,45.215531389],[5.848840833,45.215585833],[5.848795278,45.215554167],[5.848879722,45.215498889]]]}},{"type":"Feature","id":"LFLG-a6b6b0707cda248f479b","properties":{"airport":"LFLG","name":"LFLG AVISO","layer":"Buildings and structures","category":"Buildings","object_type":"Area","style_id":"polygon.building.394446","source_group":"LFLG AVISO","vsmr_group_ids":[],"geometry_role":"filled_region"},"geometry":{"type":"Polygon","coordinates":[[[5.849641111,45.215924167],[5.849445556,45.216054444],[5.849206944,45.215878611],[5.849422222,45.215755833],[5.849641111,45.215924167]]]}},{"type":"Feature","id":"LFLG-540b3e1d9ec807464de2","properties":{"airport":"LFLG","name":"LFLG AVISO","layer":"Buildings and structures","category":"Buildings","object_type":"Area","style_id":"polygon.building.394446","source_group":"LFLG AVISO","vsmr_group_ids":[],"geometry_role":"filled_region"},"geometry":{"type":"Polygon","coordinates":[[[5.849453889,45.216070833],[5.849663333,45.215940278],[5.849855833,45.216088333],[5.849898611,45.216069722],[5.850003611,45.216151944],[5.850046389,45.216130556],[5.850164444,45.216222222],[5.849896944,45.216401667],[5.849453889,45.216070833]]]}},{"type":"Feature","id":"LFLG-c2f686edbb1ca0210b65","properties":{"airport":"LFLG","name":"LFLG AVISO","layer":"Buildings and structures","category":"Buildings","object_type":"Area","style_id":"polygon.building.394446","source_group":"LFLG AVISO","vsmr_group_ids":[],"geometry_role":"filled_region"},"geometry":{"type":"Polygon","coordinates":[[[5.849890833,45.216428611],[5.8502,45.216235833],[5.850574444,45.216513333],[5.850589167,45.216508889],[5.850605278,45.216523056],[5.850591389,45.216539444],[5.850773611,45.216667778],[5.850471667,45.21686],[5.849890833,45.216428611]]]}},{"type":"Feature","id":"LFLG-833c1bdc785fa31fb5be","properties":{"airport":"LFLG","name":"LFLG AVISO","layer":"Buildings and structures","category":"Buildings","object_type":"Area","style_id":"polygon.building.394446","source_group":"LFLG AVISO","vsmr_group_ids":[],"geometry_role":"filled_region"},"geometry":{"type":"Polygon","coordinates":[[[5.850128611,45.217335278],[5.850028611,45.217403333],[5.849961944,45.217351944],[5.849979444,45.217341667],[5.849940556,45.2173175],[5.850002222,45.217275556],[5.850041389,45.217297778],[5.850066667,45.217287778],[5.850128611,45.217335278]]]}},{"type":"Feature","id":"LFLG-13e05e448f2dcbed361a","properties":{"airport":"LFLG","name":"LFLG AVISO","layer":"Buildings and structures","category":"Buildings","object_type":"Area","style_id":"polygon.building.394446","source_group":"LFLG AVISO","vsmr_group_ids":[],"geometry_role":"filled_region"},"geometry":{"type":"Polygon","coordinates":[[[5.850864167,45.217325],[5.85081,45.217362222],[5.850730278,45.217305556],[5.850788333,45.217266389],[5.850864167,45.217325]]]}},{"type":"Feature","id":"LFLG-4636dde830fcc52b420e","properties":{"airport":"LFLG","name":"LFLG AVISO","layer":"Buildings and structures","category":"Buildings","object_type":"Area","style_id":"polygon.building.394446","source_group":"LFLG AVISO","vsmr_group_ids":[],"geometry_role":"filled_region"},"geometry":{"type":"Polygon","coordinates":[[[5.851133889,45.217465556],[5.851066667,45.217510833],[5.851022778,45.217476944],[5.851095,45.217432778],[5.851133889,45.217465556]]]}},{"type":"Feature","id":"LFLG-c0da91ab5aa7d8974459","properties":{"airport":"LFLG","name":"LFLG AVISO","layer":"Buildings and structures","category":"Buildings","object_type":"Area","style_id":"polygon.building.394446","source_group":"LFLG AVISO","vsmr_group_ids":[],"geometry_role":"filled_region"},"geometry":{"type":"Polygon","coordinates":[[[5.851323333,45.217565833],[5.851243611,45.217627222],[5.851221667,45.217611389],[5.851126944,45.217673333],[5.851036389,45.2176025],[5.8512125,45.217485278],[5.851323333,45.217565833]]]}},{"type":"Feature","id":"LFLG-eeea5dafccd64eacc2d9","properties":{"airport":"LFLG","name":"LFLG AVISO","layer":"Buildings and structures","category":"Buildings","object_type":"Area","style_id":"polygon.building.394446","source_group":"LFLG AVISO","vsmr_group_ids":[],"geometry_role":"filled_region"},"geometry":{"type":"Polygon","coordinates":[[[5.85114,45.217850833],[5.851378333,45.218030278],[5.851128611,45.218193889],[5.850879444,45.218018056],[5.85114,45.217850833]]]}},{"type":"Feature","id":"LFLG-c54a528e62dc8469cd72","properties":{"airport":"LFLG","name":"LFLG AVISO","layer":"Buildings and structures","category":"Buildings","object_type":"Area","style_id":"polygon.building.394446","source_group":"LFLG AVISO","vsmr_group_ids":[],"geometry_role":"filled_region"},"geometry":{"type":"Polygon","coordinates":[[[5.851401944,45.218045],[5.851678056,45.218251389],[5.851424444,45.218421111],[5.851135,45.218208889],[5.851401944,45.218045]]]}},{"type":"Feature","id":"LFLG-e294801db3bced30e658","properties":{"airport":"LFLG","name":"LFLG AVISO","layer":"Buildings and structures","category":"Buildings","object_type":"Area","style_id":"polygon.building.394446","source_group":"LFLG AVISO","vsmr_group_ids":[],"geometry_role":"filled_region"},"geometry":{"type":"Polygon","coordinates":[[[5.851706389,45.218265278],[5.851881111,45.218399167],[5.851625833,45.218561944],[5.851455,45.218434167],[5.851706389,45.218265278]]]}},{"type":"Feature","id":"LFLG-eac34388ad26a12ac1e6","properties":{"airport":"LFLG","name":"LFLG AVISO","layer":"Buildings and structures","category":"Buildings","object_type":"Area","style_id":"polygon.building.394446","source_group":"LFLG AVISO","vsmr_group_ids":[],"geometry_role":"filled_region"},"geometry":{"type":"Polygon","coordinates":[[[5.852016944,45.2188525],[5.851837778,45.218722778],[5.852090556,45.218553889],[5.85226,45.218680833],[5.852016944,45.2188525]]]}},{"type":"Feature","id":"LFLG-e59d234402f7a8d3bda3","properties":{"airport":"LFLG","name":"LFLG AVISO","layer":"Buildings and structures","category":"Buildings","object_type":"Area","style_id":"polygon.building.394446","source_group":"LFLG AVISO","vsmr_group_ids":[],"geometry_role":"filled_region"},"geometry":{"type":"Polygon","coordinates":[[[5.852703333,45.219273611],[5.852760833,45.219301667],[5.852728333,45.219338611],[5.852671111,45.219308056],[5.852703333,45.219273611]]]}},{"type":"Feature","id":"LFLG-5bc7e7619dfc5fcf510d","properties":{"airport":"LFLG","name":"LFLG AVISO","layer":"Buildings and structures","category":"Buildings","object_type":"Area","style_id":"polygon.building.394446","source_group":"LFLG AVISO","vsmr_group_ids":[],"geometry_role":"filled_region"},"geometry":{"type":"Polygon","coordinates":[[[5.852565833,45.218900278],[5.8525,45.218943889],[5.852344444,45.218831389],[5.852414167,45.218786111],[5.852565833,45.218900278]]]}},{"type":"Feature","id":"LFLG-c6ad90c1b1176eb31815","properties":{"airport":"LFLG","name":"LFLG AVISO","layer":"Buildings and structures","category":"Buildings","object_type":"Area","style_id":"polygon.building.394446","source_group":"LFLG AVISO","vsmr_group_ids":[],"geometry_role":"filled_region"},"geometry":{"type":"Polygon","coordinates":[[[5.852662222,45.218938889],[5.852631111,45.218959722],[5.852568889,45.2189175],[5.852599722,45.218898889],[5.852662222,45.218938889]]]}},{"type":"Feature","id":"LFLG-2da128dfd2fdc34d338d","properties":{"airport":"LFLG","name":"LFLG AVISO","layer":"Buildings and structures","category":"Buildings","object_type":"Area","style_id":"polygon.building.394446","source_group":"LFLG AVISO","vsmr_group_ids":[],"geometry_role":"filled_region"},"geometry":{"type":"Polygon","coordinates":[[[5.851687222,45.218003611],[5.851849444,45.217904167],[5.852347222,45.218273611],[5.852256944,45.218324722],[5.852208611,45.218299167],[5.852096389,45.2183525],[5.851972222,45.218263611],[5.852006667,45.218233333],[5.851687222,45.218003611]]]}},{"type":"Feature","id":"LFLG-5cd7496bc6f096da0d8f","properties":{"airport":"LFLG","name":"LFLG AVISO","layer":"Buildings and structures","category":"Buildings","object_type":"Area","style_id":"polygon.building.394446","source_group":"LFLG AVISO","vsmr_group_ids":[],"geometry_role":"filled_region"},"geometry":{"type":"Polygon","coordinates":[[[5.853244722,45.218877778],[5.853075833,45.218998611],[5.852745556,45.218757222],[5.852923333,45.218633611],[5.853244722,45.218877778]]]}},{"type":"Feature","id":"LFLG-2656b1b7762dfcdacd3c","properties":{"airport":"LFLG","name":"LFLG AVISO","layer":"Buildings and structures","category":"Buildings","object_type":"Area","style_id":"polygon.building.394446","source_group":"LFLG AVISO","vsmr_group_ids":[],"geometry_role":"filled_region"},"geometry":{"type":"Polygon","coordinates":[[[5.852818056,45.218681389],[5.852750278,45.218726944],[5.852589444,45.218617222],[5.852564444,45.218630278],[5.852530278,45.218594444],[5.852570278,45.218561944],[5.852619722,45.218544722],[5.852818056,45.218681389]]]}},{"type":"Feature","id":"LFLG-a2deb2ef79d0d4bd2bc2","properties":{"airport":"LFLG","name":"LFLG AVISO","layer":"Buildings and structures","category":"Buildings","object_type":"Area","style_id":"polygon.building.394446","source_group":"LFLG AVISO","vsmr_group_ids":[],"geometry_role":"filled_region"},"geometry":{"type":"Polygon","coordinates":[[[5.85267,45.218443889],[5.852725278,45.218485278],[5.852644167,45.218538333],[5.852586667,45.218497778],[5.85267,45.218443889]]]}},{"type":"Feature","id":"LFLG-f2563b850fe696f53994","properties":{"airport":"LFLG","name":"LFLG AVISO","layer":"Buildings and structures","category":"Buildings","object_type":"Area","style_id":"polygon.building.394446","source_group":"LFLG AVISO","vsmr_group_ids":[],"geometry_role":"filled_region"},"geometry":{"type":"Polygon","coordinates":[[[5.852135,45.218379167],[5.852194167,45.218422778],[5.852158889,45.218438056],[5.852107222,45.218398889],[5.852135,45.218379167]]]}},{"type":"Feature","id":"LFLG-a0bacd771fcdca10c522","properties":{"airport":"LFLG","name":"LFLG AVISO","layer":"Buildings and structures","category":"Buildings","object_type":"Area","style_id":"polygon.building.394446","source_group":"LFLG AVISO","vsmr_group_ids":[],"geometry_role":"filled_region"},"geometry":{"type":"Polygon","coordinates":[[[5.852199167,45.218425833],[5.852245556,45.218460278],[5.852219167,45.218483889],[5.852164722,45.218444167],[5.852199167,45.218425833]]]}},{"type":"Feature","id":"LFLG-19615c6e8f82b90ba5b7","properties":{"airport":"LFLG","name":"LFLG AVISO","layer":"Buildings and structures","category":"Buildings","object_type":"Area","style_id":"polygon.building.394446","source_group":"LFLG AVISO","vsmr_group_ids":[],"geometry_role":"filled_region"},"geometry":{"type":"Polygon","coordinates":[[[5.852265278,45.2184725],[5.852319444,45.218510556],[5.852286111,45.218533889],[5.852233333,45.21849],[5.852265278,45.2184725]]]}},{"type":"Feature","id":"LFLG-17a391be67c6f53e618f","properties":{"airport":"LFLG","name":"LFLG AVISO","layer":"Buildings and structures","category":"Buildings","object_type":"Area","style_id":"polygon.building.394446","source_group":"LFLG AVISO","vsmr_group_ids":[],"geometry_role":"filled_region"},"geometry":{"type":"Polygon","coordinates":[[[5.852190556,45.218338333],[5.852218889,45.218371944],[5.852188889,45.2183875],[5.852149167,45.218352778],[5.852190556,45.218338333]]]}},{"type":"Feature","id":"LFLG-30c195efcdfd88a667d7","properties":{"airport":"LFLG","name":"LFLG AVISO","layer":"Buildings and structures","category":"Buildings","object_type":"Area","style_id":"polygon.building.394446","source_group":"LFLG AVISO","vsmr_group_ids":[],"geometry_role":"filled_region"},"geometry":{"type":"Polygon","coordinates":[[[5.852244444,45.218388889],[5.852372222,45.218481667],[5.852340833,45.218501389],[5.852214722,45.218408889],[5.852244444,45.218388889]]]}},{"type":"Feature","id":"LFLG-5c95cc5afb7b64baf145","properties":{"airport":"LFLG","name":"LFLG AVISO","layer":"Buildings and structures","category":"Buildings","object_type":"Area","style_id":"polygon.building.394446","source_group":"LFLG AVISO","vsmr_group_ids":[],"geometry_role":"filled_region"},"geometry":{"type":"Polygon","coordinates":[[[5.852289167,45.218361389],[5.852411667,45.21845],[5.852378611,45.218473056],[5.852260278,45.218385556],[5.852289167,45.218361389]]]}},{"type":"Feature","id":"LFLG-3285ad306626d89d3a3f","properties":{"airport":"LFLG","name":"LFLG AVISO","layer":"Buildings and structures","category":"Buildings","object_type":"Area","style_id":"polygon.building.394446","source_group":"LFLG AVISO","vsmr_group_ids":[],"geometry_role":"filled_region"},"geometry":{"type":"Polygon","coordinates":[[[5.852423889,45.218453333],[5.852468333,45.218486389],[5.852383333,45.218541389],[5.8523425,45.218508611],[5.852423889,45.218453333]]]}},{"type":"Feature","id":"LFLG-720b1b6b0b09d8271076","properties":{"airport":"LFLG","name":"LFLG AVISO","layer":"Buildings and structures","category":"Buildings","object_type":"Area","style_id":"polygon.building.394446","source_group":"LFLG AVISO","vsmr_group_ids":[],"geometry_role":"filled_region"},"geometry":{"type":"Polygon","coordinates":[[[5.842245278,45.216194167],[5.842203889,45.216170278],[5.842227222,45.216151111],[5.842268056,45.216176389],[5.842245278,45.216194167]]]}},{"type":"Feature","id":"LFLG-449924e68df0db7801a7","properties":{"airport":"LFLG","name":"LFLG AVISO","layer":"Buildings and structures","category":"Buildings","object_type":"Area","style_id":"polygon.building.394446","source_group":"LFLG AVISO","vsmr_group_ids":[],"geometry_role":"filled_region"},"geometry":{"type":"Polygon","coordinates":[[[5.842171944,45.21614],[5.84215,45.216126944],[5.842163611,45.216113611],[5.842187778,45.216125],[5.842171944,45.21614]]]}},{"type":"Feature","id":"LFLG-c40f29c7a91007a15072","properties":{"airport":"LFLG","name":"LFLG AVISO","layer":"Buildings and structures","category":"Buildings","object_type":"Area","style_id":"polygon.building.394446","source_group":"LFLG AVISO","vsmr_group_ids":[],"geometry_role":"filled_region"},"geometry":{"type":"Polygon","coordinates":[[[5.844185833,45.219365556],[5.844188611,45.219389722],[5.844116944,45.219389444],[5.844116389,45.219368889],[5.844185833,45.219365556]]]}},{"type":"Feature","id":"LFLG-65f4e96e374dd915b9f9","properties":{"airport":"LFLG","name":"LFLG AVISO","layer":"Surface markings","category":"Stopbars","object_type":"Area","style_id":"polygon.stopbar.7e0000","source_group":"LFLG AVISO","vsmr_group_ids":[],"geometry_role":"filled_region"},"geometry":{"type":"Polygon","coordinates":[[[5.845075,45.215031389],[5.845088611,45.215022222],[5.845180833,45.215086111],[5.8451675,45.215095278],[5.845075,45.215031389]]]}},{"type":"Feature","id":"LFLG-f8ecc45961881f51883a","properties":{"airport":"LFLG","name":"LFLG AVISO","layer":"Surface markings","category":"Stopbars","object_type":"Area","style_id":"polygon.stopbar.7e0000","source_group":"LFLG AVISO","vsmr_group_ids":[],"geometry_role":"filled_region"},"geometry":{"type":"Polygon","coordinates":[[[5.846653333,45.216185556],[5.846639444,45.216195556],[5.846557778,45.216127778],[5.846570278,45.216118889],[5.846653333,45.216185556]]]}},{"type":"Feature","id":"LFLG-cb0216be80ede0f6552a","properties":{"airport":"LFLG","name":"LFLG AVISO","layer":"Surface markings","category":"Stopbars","object_type":"Area","style_id":"polygon.stopbar.7e0000","source_group":"LFLG AVISO","vsmr_group_ids":[],"geometry_role":"filled_region"},"geometry":{"type":"Polygon","coordinates":[[[5.849004444,45.217910556],[5.848990278,45.217921389],[5.848893056,45.217852222],[5.848906667,45.2178425],[5.849004444,45.217910556]]]}},{"type":"Feature","id":"LFLG-1ead8a35042dbabaca90","properties":{"airport":"LFLG","name":"LFLG AVISO","layer":"Surface markings","category":"Stopbars","object_type":"Area","style_id":"polygon.stopbar.7e0000","source_group":"LFLG AVISO","vsmr_group_ids":[],"geometry_role":"filled_region"},"geometry":{"type":"Polygon","coordinates":[[[5.8508575,45.219298056],[5.850847222,45.219306667],[5.850754444,45.219239722],[5.850766667,45.219231111],[5.8508575,45.219298056]]]}},{"type":"Feature","id":"LFLG-4ae5494446293ffa2028","properties":{"airport":"LFLG","name":"LFLG AVISO","layer":"Surface markings","category":"Stopbars","object_type":"Area","style_id":"polygon.stopbar.7e0000","source_group":"LFLG AVISO","vsmr_group_ids":[],"geometry_role":"filled_region"},"geometry":{"type":"Polygon","coordinates":[[[5.852878056,45.220748056],[5.852867778,45.220759167],[5.85278,45.220705278],[5.8527875,45.220694444],[5.852878056,45.220748056]]]}},{"type":"Feature","id":"LFLG-1b223d912e898b1f69cc","properties":{"airport":"LFLG","name":"H","layer":"Labels","category":"Gates","object_type":"Label","style_id":"label.gates","source_group":"LFLG Gates","vsmr_group_ids":[],"geometry_role":"text_label","text-field":"H"},"geometry":{"type":"Point","coordinates":[5.846249167,45.215645]}},{"type":"Feature","id":"LFLG-8c98ddfff190263875ac","properties":{"airport":"LFLG","name":"P-HEL","layer":"Labels","category":"Gates","object_type":"Label","style_id":"label.gates","source_group":"LFLG Gates","vsmr_group_ids":[],"geometry_role":"text_label","text-field":"P-HEL"},"geometry":{"type":"Point","coordinates":[5.846098889,45.214674167]}},{"type":"Feature","id":"LFLG-9bf9236353a7e6550044","properties":{"airport":"LFLG","name":"Terminal","layer":"Labels","category":"Gates","object_type":"Label","style_id":"label.gates","source_group":"LFLG Gates","vsmr_group_ids":[],"geometry_role":"text_label","text-field":"Terminal"},"geometry":{"type":"Point","coordinates":[5.848309167,45.215816389]}},{"type":"Feature","id":"LFLG-1fed94f28e41f06e5234","properties":{"airport":"LFLG","name":"Hangar","layer":"Labels","category":"Gates","object_type":"Label","style_id":"label.gates","source_group":"LFLG Gates","vsmr_group_ids":[],"geometry_role":"text_label","text-field":"Hangar"},"geometry":{"type":"Point","coordinates":[5.8493125,45.216621667]}},{"type":"Feature","id":"LFLG-7fd09d212a55b66adfaf","properties":{"airport":"LFLG","name":"P-Herbe","layer":"Labels","category":"Gates","object_type":"Label","style_id":"label.gates","source_group":"LFLG Gates","vsmr_group_ids":[],"geometry_role":"text_label","text-field":"P-Herbe"},"geometry":{"type":"Point","coordinates":[5.847871111,45.216555278]}},{"type":"Feature","id":"LFLG-08f428a286a9280eaa49","properties":{"airport":"LFLG","name":"TWR","layer":"Labels","category":"Gates","object_type":"Label","style_id":"label.gates","source_group":"LFLG Gates","vsmr_group_ids":[],"geometry_role":"text_label","text-field":"TWR"},"geometry":{"type":"Point","coordinates":[5.850129722,45.217388611]}},{"type":"Feature","id":"LFLG-d9f05c60d1bad02fae0c","properties":{"airport":"LFLG","name":"P","layer":"Labels","category":"Gates","object_type":"Label","style_id":"label.gates","source_group":"LFLG Gates","vsmr_group_ids":[],"geometry_role":"text_label","text-field":"P"},"geometry":{"type":"Point","coordinates":[5.84812,45.216193056]}},{"type":"Feature","id":"LFLG-977fc8a1fba59edad9d1","properties":{"airport":"LFLG","name":"P","layer":"Labels","category":"Gates","object_type":"Label","style_id":"label.gates","source_group":"LFLG Gates","vsmr_group_ids":[],"geometry_role":"text_label","text-field":"P"},"geometry":{"type":"Point","coordinates":[5.8512775,45.218503333]}},{"type":"Feature","id":"LFLG-efef2a2ffdc38d28048b","properties":{"airport":"LFLG","name":"Hangars Planeurs","layer":"Labels","category":"Gates","object_type":"Label","style_id":"label.gates","source_group":"LFLG Gates","vsmr_group_ids":[],"geometry_role":"text_label","text-field":"Hangars Planeurs"},"geometry":{"type":"Point","coordinates":[5.845145278,45.219268333]}},{"type":"Feature","id":"LFLG-2ac40aba703b8e4f3ce4","properties":{"airport":"LFLG","name":"Hangars","layer":"Labels","category":"Gates","object_type":"Label","style_id":"label.gates","source_group":"LFLG Gates","vsmr_group_ids":[],"geometry_role":"text_label","text-field":"Hangars"},"geometry":{"type":"Point","coordinates":[5.852454444,45.218654167]}},{"type":"Feature","id":"LFLG-c48f3a5ee9b5bdb40f0e","properties":{"airport":"LFLG","name":"AVT","layer":"Labels","category":"Gates","object_type":"Label","style_id":"label.gates","source_group":"LFLG Gates","vsmr_group_ids":[],"geometry_role":"text_label","text-field":"AVT"},"geometry":{"type":"Point","coordinates":[5.85235,45.219086389]}},{"type":"Feature","id":"LFLG-aecd1093a46b7c9168f6","properties":{"airport":"LFLG","name":"AVT","layer":"Labels","category":"Gates","object_type":"Label","style_id":"label.gates","source_group":"LFLG Gates","vsmr_group_ids":[],"geometry_role":"text_label","text-field":"AVT"},"geometry":{"type":"Point","coordinates":[5.847119722,45.215036389]}},{"type":"Feature","id":"LFLG-fde01edd9d0ba0dcf983","properties":{"airport":"LFLG","name":"LFLG Groundlayout AVISO","layer":"Guidance lines","category":"Taxiways","object_type":"Line","style_id":"line.taxiway.c0b631","source_group":"LFLG Groundlayout AVISO","vsmr_group_ids":[],"geometry_role":"linework"},"geometry":{"type":"MultiLineString","coordinates":[[[5.8448425,45.215294167],[5.844851944,45.215275278],[5.844863889,45.215253611],[5.844883889,45.21523],[5.8449125,45.215203889],[5.844956111,45.215172778],[5.845001944,45.215141389],[5.845061944,45.215105278],[5.84533,45.214921111],[5.845397222,45.214883611],[5.845453056,45.214862222],[5.845506389,45.214854444],[5.845552222,45.214854444],[5.845591944,45.214856389],[5.845640278,45.214863333],[5.845681389,45.2148775],[5.845741389,45.214903611],[5.845779722,45.214926389],[5.8458425,45.214970833],[5.846897778,45.215752222],[5.846936389,45.215771667],[5.846976111,45.215784444],[5.847012778,45.21579],[5.847045,45.215793889],[5.847083056,45.215795],[5.847120556,45.215793056],[5.847156111,45.215787222]],[[5.846736389,45.215325556],[5.846382222,45.215566944]],[[5.846182222,45.214774167],[5.846196389,45.214779444],[5.846206111,45.21479],[5.846206111,45.214800556],[5.846200833,45.214814444],[5.846194167,45.214824167],[5.846182778,45.214831389],[5.846165556,45.214836944],[5.846148333,45.214836389],[5.846131667,45.214825833],[5.846125278,45.214816667],[5.846118889,45.214800278],[5.846127778,45.214783889],[5.846144444,45.214773056],[5.84616,45.214770833],[5.846182222,45.214774167]],[[5.845969722,45.214612222],[5.845886111,45.214664444]],[[5.846218889,45.214765556],[5.846131111,45.214821944]],[[5.846385278,45.214915],[5.846388056,45.214929444],[5.846386111,45.214945833],[5.846374722,45.214956667],[5.846359167,45.214963611],[5.846345833,45.214965556],[5.846331111,45.214963611],[5.846320833,45.214960278],[5.846310833,45.214954167],[5.846302778,45.214943056],[5.846299444,45.214931667],[5.846302778,45.214919444],[5.846313056,45.214909444],[5.846328333,45.214901389],[5.846343333,45.214900556],[5.846366667,45.214903333],[5.846385278,45.214915]],[[5.846312778,45.214955556],[5.846380278,45.214910833]],[[5.846517778,45.215067222],[5.846514167,45.215065],[5.846529444,45.215079444],[5.846531667,45.215091944],[5.846526944,45.215103611],[5.846517222,45.215113056],[5.846503056,45.21512],[5.846493056,45.215122222],[5.846481389,45.215121111],[5.846471111,45.215119167],[5.846456667,45.215116944],[5.846446944,45.215108333],[5.84644,45.215098889],[5.846438611,45.215088611],[5.846441944,45.21508],[5.846451944,45.21507],[5.846465556,45.2150625],[5.846478889,45.215058611],[5.846495,45.215059167],[5.846517778,45.215067222]],[[5.846452222,45.215113333],[5.8465175,45.215069722]],[[5.846695833,45.2151975],[5.846715556,45.2152125],[5.846719444,45.215227222],[5.846712778,45.215242222],[5.846698056,45.215252778],[5.846678333,45.215257222],[5.8466625,45.215255278],[5.846649722,45.215253056],[5.846635556,45.215243889],[5.846626389,45.215231667],[5.846626944,45.215221389],[5.8466325,45.215212222],[5.846645278,45.215201389],[5.846664444,45.215194444],[5.846680556,45.215193889],[5.846695833,45.2151975]],[[5.846640278,45.215245278],[5.846705,45.215205556]],[[5.84557,45.216012222],[5.845835833,45.216214167],[5.845899167,45.216256111],[5.845954722,45.216285833],[5.845996667,45.216306667],[5.846036111,45.216322222],[5.846072778,45.216331944],[5.846117778,45.216341389],[5.846156389,45.216349167],[5.846195,45.216348611],[5.846245833,45.216345278],[5.846294167,45.216333611],[5.846348333,45.216309167],[5.846399444,45.216285833],[5.846448333,45.216260556],[5.8464775,45.216245833],[5.8465225,45.216216111]],[[5.846685833,45.2168575],[5.846376667,45.21663],[5.846338611,45.216598056],[5.846310556,45.216566111],[5.846296944,45.216541111],[5.846287778,45.216515556],[5.846286389,45.216474722],[5.846290556,45.216448056],[5.846304167,45.2164175],[5.846318611,45.216392778],[5.846347778,45.216353889],[5.846370278,45.216328889],[5.8464025,45.2163],[5.846431667,45.216276944],[5.846457222,45.216255]],[[5.846523611,45.216216111],[5.847283056,45.215700833]],[[5.847128611,45.215806389],[5.847116389,45.215824722],[5.847107222,45.215847222],[5.847108333,45.215863333],[5.847108333,45.215877222],[5.8470925,45.215875556],[5.847074167,45.215875],[5.847052778,45.215875833],[5.847033333,45.215877778],[5.847011944,45.215886389]],[[5.847284167,45.215700833],[5.847312778,45.215685278],[5.847343611,45.215674444],[5.847373056,45.215670556],[5.847403056,45.215666111],[5.847430833,45.215666389],[5.847466667,45.215670278],[5.847493333,45.215677778],[5.847530833,45.215692778],[5.847568889,45.2157175],[5.849536667,45.217175833],[5.849587222,45.217211667],[5.849628056,45.217239167],[5.849660278,45.217250833],[5.849698889,45.217260278],[5.8497325,45.217260833],[5.8497625,45.217260556],[5.849794167,45.217253889],[5.849822222,45.217244167],[5.849858611,45.217227778],[5.850220556,45.216991667],[5.850234167,45.216980278],[5.850244167,45.216964167],[5.850245833,45.216944444],[5.850243889,45.216930278],[5.850238056,45.216914444]],[[5.847398333,45.215858611],[5.847450556,45.215823056]],[[5.847423889,45.215801389],[5.847483056,45.215844167]],[[5.847525,45.215950278],[5.847581944,45.215911667]],[[5.847546944,45.215892778],[5.847604444,45.215930556]],[[5.847654167,45.216040556],[5.847708056,45.216004722]],[[5.847681389,45.215987222],[5.847739167,45.216028056]],[[5.847779722,45.216129722],[5.847836111,45.216094722]],[[5.847804444,45.216074444],[5.847859722,45.216115556]],[[5.8478975,45.216221389],[5.8479525,45.216186389]],[[5.847923056,45.216166111],[5.847985556,45.216209444]],[[5.848018333,45.216312222],[5.848072222,45.216276111],[5.848044167,45.216257222],[5.848103056,45.216297778]],[[5.848145278,45.2164],[5.848195278,45.216366389],[5.848165278,45.216342778],[5.848224167,45.216388611]],[[5.848261667,45.2164925],[5.848311944,45.216458333],[5.848278889,45.216433056],[5.848344167,45.216480278]],[[5.848378611,45.216584444],[5.848434167,45.216548889],[5.848405278,45.216529444],[5.848464167,45.216568611]],[[5.848495278,45.216676944],[5.848550833,45.2166375],[5.8485225,45.216615556],[5.848578611,45.216657222]],[[5.8486175,45.216763333],[5.848671111,45.216728056],[5.848643889,45.216706111],[5.848702222,45.216750833]],[[5.848739444,45.216853889],[5.848791944,45.216817222],[5.848759167,45.216794167],[5.8488275,45.216841667]],[[5.8488525,45.216989444],[5.848951389,45.216921111],[5.848973889,45.216893611],[5.848986944,45.216873056],[5.848991389,45.216853611],[5.848993611,45.216831667],[5.848987778,45.216809444],[5.848979167,45.216786944],[5.848965278,45.216766667],[5.848940833,45.216736111],[5.848923889,45.2167225]],[[5.848951389,45.216921111],[5.848980556,45.216908889],[5.849006389,45.2169025],[5.849035833,45.216896667],[5.849061667,45.216896667],[5.849083611,45.2168975],[5.849111944,45.216900833],[5.849141389,45.216906944],[5.849171667,45.216917778],[5.849200833,45.216931111],[5.849234722,45.2169525]],[[5.849035278,45.217074444],[5.849086944,45.217037222],[5.849058333,45.217017778],[5.849116667,45.2170575]],[[5.849149167,45.21717],[5.849208611,45.217129444],[5.849179167,45.217106389],[5.849241111,45.217151389]],[[5.849282222,45.217255278],[5.849333333,45.2172175],[5.849306111,45.217195556],[5.849364722,45.217239722]],[[5.849860556,45.217226944],[5.8495725,45.217422778],[5.849489722,45.217490278],[5.849376111,45.217585556],[5.849220556,45.217694444],[5.848760278,45.218011667],[5.84868,45.218067222],[5.848643333,45.218107778],[5.848621111,45.218142778],[5.848611111,45.218177222],[5.848612778,45.218223611],[5.848625556,45.218254444],[5.848655556,45.218297222]],[[5.848257222,45.218001944],[5.848299167,45.218029167],[5.848336944,45.218051389],[5.848379722,45.218071111],[5.848412222,45.218084722],[5.848445,45.218093611],[5.848483333,45.218097778],[5.848523056,45.218096389],[5.848555278,45.218090556],[5.848593889,45.218082222],[5.848633056,45.218070556],[5.848683056,45.218049444],[5.848721111,45.218030833],[5.848770833,45.218003333]],[[5.849548611,45.217185556],[5.849577778,45.217219167],[5.8496075,45.21726],[5.849613611,45.217298333],[5.849613611,45.217346667],[5.849604167,45.217383056],[5.849588056,45.2174125]],[[5.849568889,45.21773],[5.849536667,45.217707222],[5.849498056,45.217678889],[5.849465,45.217663611],[5.849428333,45.21765],[5.849388333,45.217646667],[5.849349444,45.217646944],[5.849313056,45.217652778],[5.849287778,45.21766],[5.8492425,45.217679167]],[[5.849727222,45.217459722],[5.849686389,45.217433889],[5.849649444,45.217422222],[5.849614722,45.217418056],[5.849587222,45.217420556],[5.849558333,45.217434444]],[[5.849726944,45.217458333],[5.849709722,45.217432778],[5.849698889,45.217396667],[5.849703611,45.217366389],[5.849709722,45.217345278],[5.849726389,45.217325556],[5.849750278,45.217301111]],[[5.849612778,45.217291944],[5.849634167,45.217326667],[5.849687222,45.217413889],[5.849698333,45.217430833],[5.849728333,45.217461667]],[[5.849568056,45.217730833],[5.849537778,45.2177075],[5.849512778,45.217680833],[5.849496944,45.217662778],[5.849487222,45.217643333],[5.849481111,45.217621111],[5.849476667,45.2176],[5.849474444,45.217574167],[5.849476667,45.217550556],[5.849479167,45.217528333],[5.849489167,45.217507222],[5.849498611,45.217490833],[5.849515556,45.217470833]],[[5.849728611,45.21746],[5.852383333,45.219422222],[5.852411944,45.219445833],[5.852416944,45.219454722],[5.85242,45.219465556],[5.852417222,45.219485278],[5.852404722,45.219513611],[5.852383056,45.219532222],[5.852269167,45.219612222],[5.852249167,45.219626944],[5.852216111,45.219635],[5.852186944,45.219634722],[5.852160833,45.219628611],[5.852134444,45.219619444],[5.852114167,45.2196075],[5.852086389,45.219586667],[5.849567222,45.217729167]],[[5.849970833,45.219288611],[5.850221667,45.219470833],[5.850254444,45.219489444],[5.850281389,45.219502778],[5.850314444,45.219507222],[5.850349722,45.219511667],[5.850383889,45.219511667],[5.85042,45.219504722],[5.850453333,45.219492778],[5.850488611,45.219478611],[5.850517222,45.219461389],[5.850554167,45.219436667],[5.851461111,45.218830556],[5.851476389,45.218806667],[5.85148,45.2187875],[5.851476667,45.218768333],[5.851469444,45.218751111],[5.8514575,45.218737778]],[[5.850768611,45.21987],[5.850512222,45.219685278],[5.850476389,45.219657778],[5.8504575,45.219631667],[5.850443889,45.219607778],[5.850437222,45.2195825],[5.850441389,45.219561389],[5.850448056,45.219538333],[5.850460556,45.219513889],[5.850473333,45.219498333],[5.850500278,45.2194725]],[[5.851175833,45.219022222],[5.851211667,45.219013056],[5.85124,45.219010556],[5.8512675,45.219014167],[5.851301389,45.219020556],[5.851331111,45.219030833],[5.851344444,45.219038056]],[[5.851177778,45.219020556],[5.851189444,45.219005556],[5.851199444,45.218988333],[5.851199444,45.21897],[5.851196667,45.218952222],[5.851194167,45.218939167],[5.851177222,45.218916111]],[[5.851333889,45.218917222],[5.851317222,45.218925833],[5.851287222,45.218933611],[5.851263889,45.218934167],[5.851243333,45.218932222],[5.851225278,45.218927222],[5.851202778,45.218921944],[5.8511825,45.218914167],[5.851157778,45.218901389]],[[5.8513375,45.219034722],[5.851321111,45.219016944],[5.851304444,45.2189975],[5.851298333,45.218988611],[5.851293056,45.218971667],[5.851296389,45.218956389],[5.851303056,45.218944444],[5.851315556,45.218929722],[5.851325,45.218921667]],[[5.851596944,45.218840278],[5.851567222,45.2188275],[5.851539167,45.218820833],[5.851506944,45.218820833],[5.851484444,45.218824167],[5.851461389,45.21883]],[[5.851851667,45.219034444],[5.851888056,45.219049444],[5.851930278,45.219053333],[5.851970556,45.219052778],[5.852121111,45.219043611],[5.852146389,45.2190475],[5.852165833,45.219054722],[5.852196111,45.219069444],[5.852241111,45.219098611],[5.852270278,45.21912],[5.852469444,45.219278056],[5.852485556,45.219304167],[5.852494167,45.219329167],[5.852497222,45.219354722],[5.852500556,45.219375833],[5.852493333,45.219405],[5.852483611,45.219438056],[5.85246,45.219473611],[5.852421667,45.219505833],[5.852396111,45.219523333],[5.852385556,45.219531111]],[[5.852105833,45.219601389],[5.852863333,45.22016],[5.8529175,45.220213889],[5.852943333,45.220249722],[5.852960278,45.220287778],[5.852968611,45.220319444],[5.852968889,45.220350833],[5.852967778,45.220380278],[5.852955556,45.220426667],[5.852934167,45.220483333],[5.852860833,45.220665278],[5.852831111,45.220716667],[5.852803611,45.220755],[5.852774722,45.220785556],[5.8527325,45.220825278],[5.852682778,45.220860556],[5.852644167,45.220887222],[5.852594722,45.220921944],[5.8525475,45.220945278],[5.852513056,45.220959167],[5.852458611,45.220974444],[5.852418611,45.220981944],[5.852378333,45.220986389],[5.8523425,45.220986389],[5.852300556,45.220981111],[5.852263611,45.220968611],[5.852236111,45.220953333],[5.852203333,45.22093],[5.852045556,45.220813611]],[[5.852249444,45.219627222],[5.852241944,45.219639167],[5.852236944,45.219653333],[5.852236944,45.219670833],[5.852242778,45.219684722],[5.852250556,45.219698056],[5.852256111,45.219708056],[5.852261944,45.219716944]],[[5.850928333,45.218126667],[5.850872778,45.218163611],[5.850843333,45.218142778],[5.850904444,45.218186389]],[[5.851055,45.218219167],[5.851,45.218254444],[5.850970833,45.218232778],[5.851028889,45.218275]],[[5.851178889,45.218309167],[5.851125833,45.218343889],[5.851095,45.218322222],[5.851153611,45.218363889]],[[5.851307778,45.218398056],[5.8512475,45.218434722],[5.851221111,45.218415833],[5.851279167,45.218456944]],[[5.852261944,45.219112778],[5.851305,45.218398611],[5.850725278,45.217979444],[5.850724722,45.217979167]],[[5.845943056,45.214618333],[5.845949167,45.214621667],[5.845950833,45.214623611],[5.845952222,45.214624722],[5.845954444,45.214626944],[5.845958889,45.214632222],[5.8459625,45.214641389],[5.845961111,45.214650833],[5.845955556,45.214659722],[5.845948611,45.214667778],[5.845938611,45.214673056],[5.8459275,45.214676389],[5.845914722,45.214678056],[5.845901944,45.214676111],[5.845886667,45.214670556],[5.845877222,45.214663889],[5.845871944,45.214652778],[5.845870833,45.214644167],[5.845874722,45.214635833],[5.845874722,45.214635278],[5.845875278,45.214633333],[5.845878056,45.21463],[5.845879167,45.214627222],[5.845883611,45.214623611],[5.845895833,45.2146175],[5.845914167,45.214614167],[5.84593,45.214615],[5.845943056,45.214618333]]]}},{"type":"Feature","id":"LFLG-c9c77d888914417d2dee","properties":{"airport":"LFLG","name":"E1","layer":"Labels","category":"Taxiways","object_type":"Label","style_id":"label.taxiways","source_group":"LFLG Taxiways","vsmr_group_ids":[],"geometry_role":"text_label","text-field":"E1"},"geometry":{"type":"Point","coordinates":[5.844963889,45.21497]}},{"type":"Feature","id":"LFLG-127135e2e38a1fc85126","properties":{"airport":"LFLG","name":"E2","layer":"Labels","category":"Taxiways","object_type":"Label","style_id":"label.taxiways","source_group":"LFLG Taxiways","vsmr_group_ids":[],"geometry_role":"text_label","text-field":"E2"},"geometry":{"type":"Point","coordinates":[5.846438333,45.216065833]}},{"type":"Feature","id":"LFLG-8e1a583c6572e2924bf0","properties":{"airport":"LFLG","name":"W1","layer":"Labels","category":"Taxiways","object_type":"Label","style_id":"label.taxiways","source_group":"LFLG Taxiways","vsmr_group_ids":[],"geometry_role":"text_label","text-field":"W1"},"geometry":{"type":"Point","coordinates":[5.845385556,45.216646667]}},{"type":"Feature","id":"LFLG-d9e56bbc9035b592856f","properties":{"airport":"LFLG","name":"E3","layer":"Labels","category":"Taxiways","object_type":"Label","style_id":"label.taxiways","source_group":"LFLG Taxiways","vsmr_group_ids":[],"geometry_role":"text_label","text-field":"E3"},"geometry":{"type":"Point","coordinates":[5.848763056,45.217804444]}},{"type":"Feature","id":"LFLG-fef1ffacc7695cf30f64","properties":{"airport":"LFLG","name":"W2","layer":"Labels","category":"Taxiways","object_type":"Label","style_id":"label.taxiways","source_group":"LFLG Taxiways","vsmr_group_ids":[],"geometry_role":"text_label","text-field":"W2"},"geometry":{"type":"Point","coordinates":[5.8477175,45.218383056]}},{"type":"Feature","id":"LFLG-952845851a0b3e384600","properties":{"airport":"LFLG","name":"E4","layer":"Labels","category":"Taxiways","object_type":"Label","style_id":"label.taxiways","source_group":"LFLG Taxiways","vsmr_group_ids":[],"geometry_role":"text_label","text-field":"E4"},"geometry":{"type":"Point","coordinates":[5.850595556,45.219193611]}},{"type":"Feature","id":"LFLG-8daedd050d02f029834e","properties":{"airport":"LFLG","name":"W3","layer":"Labels","category":"Taxiways","object_type":"Label","style_id":"label.taxiways","source_group":"LFLG Taxiways","vsmr_group_ids":[],"geometry_role":"text_label","text-field":"W3"},"geometry":{"type":"Point","coordinates":[5.849632778,45.219768056]}},{"type":"Feature","id":"LFLG-16e52e28cbd1f29fff66","properties":{"airport":"LFLG","name":"E5","layer":"Labels","category":"Taxiways","object_type":"Label","style_id":"label.taxiways","source_group":"LFLG Taxiways","vsmr_group_ids":[],"geometry_role":"text_label","text-field":"E5"},"geometry":{"type":"Point","coordinates":[5.852603056,45.220674444]}},{"type":"Feature","id":"LFLG-186949f9ba010d71cf47","properties":{"airport":"LFLG","name":"F","layer":"Labels","category":"Taxiways","object_type":"Label","style_id":"label.taxiways","source_group":"LFLG Taxiways","vsmr_group_ids":[],"geometry_role":"text_label","text-field":"F"},"geometry":{"type":"Point","coordinates":[5.850347778,45.217755]}},{"type":"Feature","id":"LFLG-4e9dc5269d0a6e2bf2f6","properties":{"airport":"LFLG","name":"E","layer":"Labels","category":"Taxiways","object_type":"Label","style_id":"label.taxiways","source_group":"LFLG Taxiways","vsmr_group_ids":[],"geometry_role":"text_label","text-field":"E"},"geometry":{"type":"Point","coordinates":[5.850225833,45.217146667]}}]}
