{"type":"FeatureCollection","name":"LFLJ AVISO","bbox":[6.623305556,45.39281,6.640958889,45.401565278],"metadata":{"schema":"vSMR AVISO","schema_version":2,"geometry_mode":"shared","airport":"LFLJ","coordinate_reference_system":"WGS84","coordinate_order":"longitude, latitude","default_color_palette":"dark","color_palettes":["dark","light"],"background_colors":{"dark":"#434A4F","light":"#434A4F"},"runways":[{"ends":["04","22"],"headings":[42,222],"thresholds":[[6.632602778,45.395807778],[6.637324722,45.399230833]]}],"saved_active_runways":[],"saved_active_airport_modes":[],"airport_reference":[6.6325,45.395832778],"feature_count":70,"style_count":14,"layer_counts":{"Airfield surfaces":11,"Buildings and structures":32,"Guidance lines":6,"Labels":5,"Surface markings":3,"Terrain":13},"category_counts":{"Apron Surface":1,"Buildings":32,"Gates":5,"Grass":13,"Grass runways":1,"Hard Surface 2":5,"Hard Surface 3":4,"Red taxiway guidance lines":1,"Red taxiway markings":1,"Runways":2,"Stopbars":2,"Taxiways":2,"gate":1},"geometry_source":"local GNG","geometry_source_url":"","geometry_license":"GPL-3.0"},"styles":{"line.taxiway.c0b631":{"name":"Taxiways","layer":"Guidance lines","object_type":"Line","paint":{"stroke":"#4E5A69","stroke-opacity":1,"stroke-width":1,"palette-overrides":{"light":{"stroke":"#C0B631"}}},"feature_count":2},"line.runwayconcrete.555555":{"name":"Runways","layer":"Guidance lines","object_type":"Line","paint":{"stroke":"#111318","stroke-opacity":1,"stroke-width":1,"palette-overrides":{"light":{"stroke":"#555555"}}},"feature_count":1},"line.apronsurface.808080":{"name":"Apron Surface","layer":"Guidance lines","object_type":"Line","paint":{"stroke":"#808080","stroke-opacity":1,"stroke-width":1,"palette-overrides":{"light":{"stroke":"#808080"}}},"feature_count":1},"label.gates":{"name":"Gates","layer":"Labels","object_type":"Label","paint":{"text-color":"#CCCCCC","text-font":"Arial","text-size":12,"text-halo-color":"#000000","text-halo-width":1,"text-anchor":"center","zoomLevel":9},"feature_count":5},"polygon.grassurface.00512f":{"name":"Grass","layer":"Terrain","object_type":"Area","paint":{"fill":"#010D19","fill-opacity":1,"palette-overrides":{"light":{"fill":"#00512F"}}},"feature_count":13},"polygon.hardsurface3.8a807f":{"name":"Hard Surface 3","layer":"Airfield surfaces","object_type":"Area","paint":{"fill":"#222D3C","fill-opacity":1,"palette-overrides":{"light":{"fill":"#8A807F"}}},"feature_count":4},"polygon.hardsurface2.595e5b":{"name":"Hard Surface 2","layer":"Airfield surfaces","object_type":"Area","paint":{"fill":"#2F3949","fill-opacity":1,"palette-overrides":{"light":{"fill":"#595E5B"}}},"feature_count":5},"polygon.building.394446":{"name":"Buildings","layer":"Buildings and structures","object_type":"Area","paint":{"fill":"#475570","fill-opacity":1,"palette-overrides":{"light":{"fill":"#394446"}}},"feature_count":32},"polygon.taxiwayred":{"name":"Red taxiway markings","layer":"Surface markings","object_type":"Area","paint":{"fill":"#E60000","fill-opacity":1,"stroke":"#E60000","stroke-opacity":1,"stroke-width":0.5,"palette-overrides":{"light":{}}},"feature_count":1},"polygon.stopbar.7e0000":{"name":"Stopbars","layer":"Surface markings","object_type":"Area","paint":{"fill":"#7E0000","fill-opacity":1,"palette-overrides":{"light":{"fill":"#7E0000"}}},"feature_count":2},"polygon.runwaygrass.008000":{"name":"Grass runways","layer":"Airfield surfaces","object_type":"Area","paint":{"fill":"#859A77","fill-opacity":1,"palette-overrides":{"light":{"fill":"#008000"}}},"feature_count":1},"polygon.runwayconcrete.555555":{"name":"Runways","layer":"Airfield surfaces","object_type":"Area","paint":{"fill":"#111318","fill-opacity":1,"palette-overrides":{"light":{"fill":"#555555"}}},"feature_count":1},"line.gate":{"name":"gate","layer":"Guidance lines","object_type":"Line","paint":{"stroke":"#A8A8A8","stroke-width":1,"stroke-opacity":1},"feature_count":1},"line.taxiwayred":{"name":"Red taxiway guidance lines","layer":"Guidance lines","object_type":"Line","paint":{"stroke":"#E60000","stroke-opacity":1,"stroke-width":0.75,"palette-overrides":{"light":{}}},"feature_count":1}},"vsmr_groups":[],"features":[{"type":"Feature","id":"LFLJ-b088a40c614f04059c8d","properties":{"airport":"LFLJ","name":"LFLJ AVISO","layer":"Terrain","category":"Grass","object_type":"Area","style_id":"polygon.grassurface.00512f","source_group":"LFLJ AVISO","vsmr_group_ids":[],"geometry_role":"filled_region"},"geometry":{"type":"Polygon","coordinates":[[[6.634463889,45.396885],[6.633949444,45.396513889],[6.633931111,45.396480278],[6.633935278,45.396443611],[6.634324722,45.396190833],[6.634519167,45.3963325],[6.634544167,45.396336944],[6.634648333,45.396258889],[6.634619167,45.396246389],[6.634774444,45.396135278],[6.63457,45.395980278],[6.634451944,45.39605],[6.634449444,45.396025],[6.634454167,45.395991944],[6.634470833,45.395973889],[6.634508611,45.395937222],[6.634534444,45.395924167],[6.634614722,45.395943889],[6.634683056,45.395988611],[6.634716111,45.396038333],[6.634711389,45.396069722],[6.634831667,45.396141111],[6.634850556,45.396136111],[6.635036944,45.395781667],[6.635084167,45.395683889],[6.635088889,45.395662222],[6.635065278,45.395639167],[6.634966111,45.395571111],[6.634956667,45.395553056],[6.635018056,45.395505],[6.635072222,45.395475],[6.63511,45.395470278],[6.635164444,45.395485],[6.635185556,45.39551],[6.635195,45.395549722],[6.635176111,45.395869444],[6.635204444,45.395882778],[6.635225833,45.395980278],[6.635258889,45.396008611],[6.635086667,45.396243889],[6.634975556,45.396353056],[6.634893056,45.396419444],[6.634808056,45.396480556],[6.634706667,45.396646389],[6.634628889,45.396753889],[6.634463889,45.396885]]]}},{"type":"Feature","id":"LFLJ-8e3cddc28f70858a08f7","properties":{"airport":"LFLJ","name":"LFLJ AVISO","layer":"Terrain","category":"Grass","object_type":"Area","style_id":"polygon.grassurface.00512f","source_group":"LFLJ AVISO","vsmr_group_ids":[],"geometry_role":"filled_region"},"geometry":{"type":"Polygon","coordinates":[[[6.63443,45.400086111],[6.634756389,45.400013056],[6.634996944,45.399966111],[6.635141389,45.399934167],[6.635055833,45.400039167],[6.634986389,45.400086111],[6.634919444,45.4000975],[6.634873889,45.4000975],[6.634887222,45.400140556],[6.634972778,45.4001275],[6.635031667,45.400095556],[6.635063889,45.400091667],[6.635066389,45.400153889],[6.635095833,45.400206389],[6.635149444,45.400234444],[6.635259167,45.400258889],[6.635331389,45.400256944],[6.635374167,45.400226944],[6.635299167,45.400011111],[6.635259167,45.399992222],[6.635208333,45.399996111],[6.63512,45.400028056],[6.635117222,45.4000525],[6.635090556,45.400056111],[6.635069167,45.400054167],[6.635146667,45.399967778],[6.635184167,45.399937778],[6.635221667,45.399919167],[6.635307222,45.399909722],[6.635371389,45.399907778],[6.635462222,45.399926667],[6.635507778,45.399973611],[6.635523889,45.400018611],[6.635537222,45.400063611],[6.635606667,45.4000675],[6.635676111,45.400048611],[6.6357325,45.400024167],[6.635769722,45.399999722],[6.635748333,45.399975278],[6.6358125,45.399898333],[6.6358475,45.399866389],[6.635898056,45.399845833],[6.635994444,45.399855278],[6.636256667,45.399888889],[6.636285833,45.399894722],[6.636275278,45.399915278],[6.6362325,45.399926389],[6.636155,45.399937778],[6.6360425,45.399977222],[6.635983889,45.400018611],[6.635884722,45.400101111],[6.635804722,45.400168889],[6.635753889,45.400198889],[6.635686944,45.400225],[6.635432778,45.400266389],[6.635491667,45.400371667],[6.635328611,45.400399722],[6.635251111,45.400426111],[6.635178889,45.400463611],[6.635114722,45.400493611],[6.634999722,45.400523611],[6.634922222,45.400529444],[6.6348525,45.400518056],[6.6347725,45.4004825],[6.634681389,45.400437222],[6.63443,45.400086111]]]}},{"type":"Feature","id":"LFLJ-edd78f179fe231990cd7","properties":{"airport":"LFLJ","name":"LFLJ AVISO","layer":"Terrain","category":"Grass","object_type":"Area","style_id":"polygon.grassurface.00512f","source_group":"LFLJ AVISO","vsmr_group_ids":[],"geometry_role":"filled_region"},"geometry":{"type":"Polygon","coordinates":[[[6.634828889,45.4005525],[6.634891944,45.400573611],[6.634941667,45.400580556],[6.634988056,45.400571111],[6.634888611,45.400725],[6.6347525,45.40052],[6.634828889,45.4005525]]]}},{"type":"Feature","id":"LFLJ-f4ad18c65465ee1d580d","properties":{"airport":"LFLJ","name":"LFLJ AVISO","layer":"Terrain","category":"Grass","object_type":"Area","style_id":"polygon.grassurface.00512f","source_group":"LFLJ AVISO","vsmr_group_ids":[],"geometry_role":"filled_region"},"geometry":{"type":"Polygon","coordinates":[[[6.632900556,45.400849444],[6.633002778,45.400639722],[6.63305,45.400576111],[6.633191667,45.400440833],[6.633329167,45.400327778],[6.63351,45.400217222],[6.633643611,45.400159444],[6.633848056,45.400128889],[6.634040833,45.400118056],[6.634182222,45.400120556],[6.634304167,45.400120556],[6.6344025,45.400109722],[6.634776111,45.4006425],[6.634697222,45.400664444],[6.634603056,45.400700278],[6.634422222,45.400805278],[6.634260833,45.400874167],[6.634154722,45.400876944],[6.634076111,45.400871667],[6.633911111,45.400863333],[6.6337775,45.400871667],[6.633667222,45.400910278],[6.633513889,45.400970833],[6.633352778,45.400995833],[6.633215278,45.401006944],[6.633065833,45.401012222],[6.633018611,45.401001389],[6.63294,45.400962778],[6.632876944,45.400929444],[6.632900556,45.400849444]]]}},{"type":"Feature","id":"LFLJ-3d2637634bec5f58df8e","properties":{"airport":"LFLJ","name":"LFLJ AVISO","layer":"Terrain","category":"Grass","object_type":"Area","style_id":"polygon.grassurface.00512f","source_group":"LFLJ AVISO","vsmr_group_ids":[],"geometry_role":"filled_region"},"geometry":{"type":"Polygon","coordinates":[[[6.634948889,45.400708611],[6.635043333,45.400570556],[6.635157222,45.400512778],[6.635251667,45.400476667],[6.635318611,45.400446389],[6.635428611,45.400435278],[6.635507222,45.400424444],[6.635585833,45.400396667],[6.635648611,45.400366389],[6.635723333,45.400316667],[6.635758889,45.400269722],[6.635849167,45.400189722],[6.635939722,45.400126111],[6.6360025,45.400065556],[6.636053611,45.400018611],[6.6361125,45.399996389],[6.636179444,45.399979722],[6.636285556,45.399955],[6.636435,45.399930278],[6.636690556,45.399988056],[6.636875278,45.400032222],[6.636973611,45.40006],[6.637123056,45.400076389],[6.637248889,45.400095833],[6.637351111,45.400104167],[6.637429722,45.400123333],[6.637476944,45.400153611],[6.637500556,45.400192222],[6.637476944,45.400244722],[6.637425833,45.400280833],[6.637331389,45.400316667],[6.637048333,45.400377222],[6.636836111,45.4004325],[6.636678889,45.400496111],[6.636556944,45.400526389],[6.636466389,45.400576111],[6.636419444,45.400628611],[6.636387778,45.400694722],[6.636403611,45.400752778],[6.636399722,45.400783056],[6.636383889,45.400841111],[6.636273889,45.400976389],[6.6362425,45.401053611],[6.636167778,45.401136389],[6.636116667,45.401216667],[6.636069444,45.401299444],[6.636030278,45.401368333],[6.636010556,45.401390556],[6.635975,45.401453889],[6.635523889,45.401565278],[6.635134722,45.401035278],[6.634986667,45.4008175],[6.634945,45.400775278],[6.634948889,45.400708611]]]}},{"type":"Feature","id":"LFLJ-ebf5b8b7014c72b0e64c","properties":{"airport":"LFLJ","name":"LFLJ AVISO","layer":"Terrain","category":"Grass","object_type":"Area","style_id":"polygon.grassurface.00512f","source_group":"LFLJ AVISO","vsmr_group_ids":[],"geometry_role":"filled_region"},"geometry":{"type":"Polygon","coordinates":[[[6.634614167,45.395631111],[6.634506944,45.395716111],[6.634478611,45.395721944],[6.634456389,45.395703333],[6.634468611,45.395655278],[6.634549444,45.395535833],[6.634662778,45.3953925],[6.634765833,45.395278889],[6.634836389,45.395227778],[6.634945833,45.395149722],[6.6350125,45.395078611],[6.635052778,45.395014722],[6.635066944,45.394915556],[6.635075,45.394793333],[6.635099444,45.394705278],[6.635143889,45.394664167],[6.635168056,45.394642778],[6.635161944,45.3945875],[6.635145833,45.394546389],[6.635059722,45.394524167],[6.635011111,45.394507222],[6.6349325,45.394497222],[6.634829167,45.394508611],[6.634756389,45.394531389],[6.634703889,45.394571111],[6.634631111,45.394646389],[6.634556389,45.394735833],[6.634483611,45.394778333],[6.634398611,45.394806667],[6.634285278,45.394826667],[6.634178333,45.394833611],[6.634050833,45.394820833],[6.633885,45.3948025],[6.633654444,45.394798333],[6.633581667,45.394809444],[6.633492778,45.394813889],[6.633436111,45.3948125],[6.633410556,45.394799444],[6.633410556,45.3947725],[6.633461111,45.394719722],[6.633529722,45.394658889],[6.633635,45.394665833],[6.633767778,45.394646389],[6.633819444,45.394425833],[6.633733611,45.3943875],[6.633851944,45.394174167],[6.633891389,45.394130833],[6.633970278,45.394128333],[6.634038889,45.394115],[6.634050833,45.394081389],[6.633949722,45.394098333],[6.633889722,45.394096944],[6.633829722,45.394123611],[6.633726667,45.3941875],[6.633558611,45.394101944],[6.633536111,45.394076389],[6.633519167,45.394076389],[6.633433333,45.39422],[6.633435,45.394275278],[6.633433333,45.394286111],[6.633438333,45.394375278],[6.633446944,45.394389722],[6.633503611,45.394338056],[6.633630556,45.394410278],[6.633580833,45.394513889],[6.633515556,45.394574167],[6.6334625,45.394611389],[6.633410833,45.394612778],[6.633349167,45.394580278],[6.633355,45.394500278],[6.633367778,45.394436667],[6.633364722,45.394334444],[6.633367778,45.394282222],[6.633393889,45.394186667],[6.63341,45.394093333],[6.633422778,45.394043333],[6.633426111,45.394011667],[6.633387222,45.3939525],[6.633367778,45.393895833],[6.633439167,45.393918333],[6.633529722,45.3939775],[6.6336075,45.394000278],[6.633746667,45.393991111],[6.633846944,45.393979722],[6.633889167,45.393970833],[6.633918056,45.393941111],[6.633915,45.393904722],[6.6340275,45.393890278],[6.634211944,45.393933333],[6.634289722,45.393978889],[6.634383611,45.394008333],[6.634467778,45.394035556],[6.634360833,45.3939425],[6.634244444,45.393840278],[6.634179722,45.393790278],[6.634085833,45.393712778],[6.633998333,45.393610556],[6.6341925,45.393674167],[6.634296111,45.39369],[6.6344225,45.393719722],[6.634432222,45.393728889],[6.634535833,45.393781111],[6.634564722,45.393790278],[6.634555,45.393703889],[6.6344775,45.393628889],[6.634409444,45.393606111],[6.634399722,45.393606111],[6.634263889,45.393594722],[6.634289722,45.393524167],[6.634396389,45.393485556],[6.634370556,45.393456111],[6.634276667,45.393376389],[6.634208611,45.393371944],[6.634115,45.393324167],[6.634056667,45.393271944],[6.634076111,45.393239444],[6.635368056,45.393020556],[6.635733333,45.392899167],[6.635956389,45.39281],[6.636021667,45.392815278],[6.636171667,45.392831667],[6.636190833,45.392831667],[6.636325278,45.39281],[6.636383056,45.392815278],[6.636502222,45.392831667],[6.636698333,45.392934167],[6.636786944,45.393023333],[6.636883056,45.393120556],[6.636941944,45.393156667],[6.636961389,45.393216944],[6.636976111,45.393284167],[6.636956667,45.393275556],[6.636895278,45.393175833],[6.6367875,45.393141389],[6.6366775,45.393143056],[6.636574722,45.393136111],[6.636459444,45.3931275],[6.6363225,45.393112222],[6.636182778,45.393134444],[6.636050556,45.393168889],[6.636011389,45.393230833],[6.6359575,45.393284167],[6.635854722,45.393347778],[6.635810833,45.393380278],[6.635830278,45.393416389],[6.635808333,45.393440556],[6.635663889,45.393471389],[6.635592778,45.393497222],[6.635556111,45.393541944],[6.635558611,45.393586667],[6.635597778,45.393610833],[6.635627222,45.393643333],[6.63561,45.393670833],[6.635580556,45.393701944],[6.635553333,45.393711389],[6.635475278,45.393739444],[6.635441667,45.393763056],[6.635401667,45.393785278],[6.635363611,45.393808889],[6.635336389,45.3938],[6.635315278,45.393792778],[6.635279444,45.393813333],[6.635231111,45.393876944],[6.635228889,45.393883056],[6.635193056,45.39392],[6.635190833,45.393924444],[6.635110833,45.393985],[6.635024722,45.394027778],[6.6349825,45.394081111],[6.634965556,45.394155],[6.634969722,45.394245278],[6.635003611,45.394304444],[6.635005556,45.394310278],[6.635033056,45.394399167],[6.635070833,45.394439167],[6.635108889,45.394476111],[6.635159167,45.394506389],[6.635165556,45.394513611],[6.635178333,45.3945375],[6.635224722,45.394563889],[6.635260278,45.394608333],[6.635268889,45.394638056],[6.635270833,45.394643889],[6.635296111,45.394664722],[6.635363611,45.3947],[6.635397222,45.394689722],[6.635401389,45.394689722],[6.635483611,45.394682222],[6.635527778,45.394683889],[6.635563611,45.394680833],[6.635616389,45.394692778],[6.635645833,45.3947],[6.635694167,45.394692778],[6.635673333,45.394680833],[6.635608056,45.394651389],[6.635548889,45.394626111],[6.635605833,45.394596667],[6.63565,45.394581667],[6.635688056,45.394592222],[6.6357175,45.394606944],[6.635753333,45.3946275],[6.635776389,45.394649722],[6.6357975,45.394655833],[6.635825,45.394658611],[6.635831111,45.394620278],[6.635860556,45.39457],[6.635890278,45.3945225],[6.6359175,45.394516667],[6.635940833,45.394766667],[6.635852222,45.394846389],[6.635654167,45.394991389],[6.635447778,45.395137778],[6.6352575,45.395236944],[6.635107778,45.395301944],[6.634971111,45.395356667],[6.634861389,45.3954025],[6.634737222,45.395461667],[6.634657222,45.395516389],[6.634587778,45.395575556],[6.634564444,45.395600833],[6.634614167,45.395631111]]]}},{"type":"Feature","id":"LFLJ-35817ac8961a93036dcb","properties":{"airport":"LFLJ","name":"LFLJ AVISO","layer":"Terrain","category":"Grass","object_type":"Area","style_id":"polygon.grassurface.00512f","source_group":"LFLJ AVISO","vsmr_group_ids":[],"geometry_role":"filled_region"},"geometry":{"type":"Polygon","coordinates":[[[6.636049444,45.394680278],[6.636028056,45.394672778],[6.636026111,45.39466],[6.6360225,45.394638611],[6.636013611,45.394604444],[6.636096389,45.394590556],[6.636123333,45.394558889],[6.636163056,45.394503056],[6.636191944,45.394473889],[6.636255,45.394453889],[6.636307222,45.394414444],[6.636312778,45.394410833],[6.636363056,45.3943575],[6.636395556,45.394324722],[6.636428056,45.394334722],[6.636413611,45.394353889],[6.6363775,45.394385556],[6.636301944,45.394455],[6.636220833,45.394510833],[6.636159444,45.3945625],[6.636126944,45.394615833],[6.636114444,45.3946475],[6.636091111,45.394665],[6.636062222,45.394681667],[6.636049444,45.394680278]]]}},{"type":"Feature","id":"LFLJ-fded6c99f5cd12213ea0","properties":{"airport":"LFLJ","name":"LFLJ AVISO","layer":"Terrain","category":"Grass","object_type":"Area","style_id":"polygon.grassurface.00512f","source_group":"LFLJ AVISO","vsmr_group_ids":[],"geometry_role":"filled_region"},"geometry":{"type":"Polygon","coordinates":[[[6.636195556,45.394595556],[6.6362225,45.394553889],[6.636273056,45.394515833],[6.63632,45.394481667],[6.636390278,45.394458889],[6.636455,45.394438611],[6.636514444,45.394427222],[6.636570278,45.394418333],[6.636615556,45.394385278],[6.636646111,45.394299444],[6.636629722,45.394291667],[6.636613611,45.3941425],[6.637080556,45.394320833],[6.637129167,45.394324722],[6.637132778,45.394372778],[6.637145278,45.394405556],[6.637179444,45.394468889],[6.637206667,45.394520833],[6.637208333,45.394525833],[6.637231944,45.394568889],[6.637240833,45.394616944],[6.637244444,45.3946625],[6.637246389,45.3946675],[6.637255278,45.394709444],[6.637257222,45.394718333],[6.637276944,45.394763889],[6.637298611,45.394801667],[6.637316667,45.394830833],[6.637321944,45.3948675],[6.637321944,45.394895556],[6.637313056,45.394928333],[6.637293056,45.394939722],[6.637257222,45.39487],[6.637201111,45.394791667],[6.637148889,45.394732222],[6.637080556,45.394665],[6.636990278,45.394598056],[6.636871389,45.394539722],[6.636728889,45.394501944],[6.636608333,45.394488056],[6.636516389,45.394489167],[6.6364225,45.394503056],[6.636312778,45.394542222],[6.636195556,45.394595556]]]}},{"type":"Feature","id":"LFLJ-ca653254aab5755ce835","properties":{"airport":"LFLJ","name":"LFLJ AVISO","layer":"Terrain","category":"Grass","object_type":"Area","style_id":"polygon.grassurface.00512f","source_group":"LFLJ AVISO","vsmr_group_ids":[],"geometry_role":"filled_region"},"geometry":{"type":"Polygon","coordinates":[[[6.635535278,45.395596111],[6.635366944,45.395517778],[6.635339722,45.395563611],[6.635331389,45.3956125],[6.635326944,45.395655278],[6.635299722,45.3957025],[6.635274444,45.395721667],[6.635242778,45.395708611],[6.635242778,45.395680278],[6.635247222,45.395624167],[6.635253333,45.395560833],[6.635242778,45.395501667],[6.635221944,45.395458889],[6.635207222,45.3954175],[6.635209167,45.395380556],[6.635573333,45.395120278],[6.635672222,45.395036111],[6.635726944,45.3950125],[6.635777222,45.394993333],[6.635834167,45.394956389],[6.6358825,45.394917778],[6.635920556,45.394888333],[6.63595,45.394857222],[6.635975278,45.394851389],[6.635996111,45.394857222],[6.635996111,45.394873611],[6.635928889,45.394928333],[6.635924722,45.394932778],[6.635871944,45.394988889],[6.635857222,45.395016944],[6.635781667,45.3950375],[6.635720556,45.395068611],[6.635705833,45.395083333],[6.635792222,45.395321389],[6.635752222,45.395348056],[6.635558611,45.395231111],[6.635362778,45.3954025],[6.63555,45.395510556],[6.635566944,45.395591667],[6.635535278,45.395596111]]]}},{"type":"Feature","id":"LFLJ-9370d4f31395fb2cbe86","properties":{"airport":"LFLJ","name":"LFLJ AVISO","layer":"Terrain","category":"Grass","object_type":"Area","style_id":"polygon.grassurface.00512f","source_group":"LFLJ AVISO","vsmr_group_ids":[],"geometry_role":"filled_region"},"geometry":{"type":"Polygon","coordinates":[[[6.634227222,45.395909167],[6.634187222,45.395885556],[6.634275,45.395805556],[6.634205278,45.395715833],[6.633628333,45.395376667],[6.633718333,45.395379444],[6.633794167,45.395390833],[6.633863889,45.395410278],[6.633961667,45.395453889],[6.6340075,45.395488889],[6.634281111,45.395717222],[6.634333056,45.395753611],[6.634356944,45.395778889],[6.634355,45.395798611],[6.634336944,45.395818056],[6.634305,45.3958475],[6.634227222,45.395909167]]]}},{"type":"Feature","id":"LFLJ-21705834b2fcc25e5c74","properties":{"airport":"LFLJ","name":"LFLJ AVISO","layer":"Terrain","category":"Grass","object_type":"Area","style_id":"polygon.grassurface.00512f","source_group":"LFLJ AVISO","vsmr_group_ids":[],"geometry_role":"filled_region"},"geometry":{"type":"Polygon","coordinates":[[[6.636172778,45.394719167],[6.636280556,45.394643333],[6.636377778,45.394593333],[6.636503056,45.394565833],[6.636623889,45.394565833],[6.636751389,45.394590278],[6.636855,45.394620556],[6.636928333,45.394663056],[6.637012778,45.394718889],[6.637079722,45.394787222],[6.637150833,45.394882778],[6.637245833,45.395066111],[6.637276111,45.39518],[6.637291111,45.395349722],[6.637291389,45.395478611],[6.637256667,45.395625833],[6.637221389,45.395775833],[6.637186944,45.395918333],[6.637171667,45.396068333],[6.637168333,45.396243611],[6.637181389,45.396452778],[6.637200833,45.396637778],[6.637233056,45.396818056],[6.637280556,45.396998611],[6.6373325,45.397151667],[6.637474722,45.3973275],[6.637576111,45.397466944],[6.637664722,45.397603333],[6.637714444,45.397735278],[6.637729444,45.397852222],[6.637697222,45.397996111],[6.637638889,45.398114444],[6.637551111,45.398221111],[6.637454167,45.398345278],[6.637404444,45.398415],[6.637346111,45.398475833],[6.637303056,45.398548611],[6.637261944,45.398581944],[6.637251111,45.398604722],[6.637255556,45.398625833],[6.637266111,45.398639444],[6.637292222,45.398646944],[6.637324444,45.398636389],[6.637354722,45.398621389],[6.637376389,45.398585],[6.637441111,45.398537778],[6.637516667,45.398433333],[6.637594444,45.398333056],[6.637674444,45.39823],[6.637695833,45.398199722],[6.637726111,45.398199722],[6.637734722,45.398221111],[6.637719722,45.398268056],[6.637691667,45.398263333],[6.6376375,45.398351389],[6.637624722,45.398393889],[6.637598889,45.398436389],[6.637566389,45.398496944],[6.637499444,45.398589444],[6.637523333,45.398610556],[6.637555556,45.398613611],[6.637598889,45.398609167],[6.637641944,45.398596944],[6.637659167,45.398574167],[6.637687222,45.398530278],[6.637708889,45.398443889],[6.637751944,45.398304444],[6.637765,45.398268056],[6.637793056,45.398231667],[6.6378125,45.398195278],[6.637814722,45.398114722],[6.637793056,45.398052778],[6.637804722,45.397992222],[6.637830556,45.397896944],[6.637843611,45.397826667],[6.637824167,45.397715278],[6.637778889,45.3975975],[6.637736944,45.397499722],[6.637691667,45.397440833],[6.63764,45.397397778],[6.637517222,45.397231944],[6.637446111,45.397127778],[6.637384722,45.3969825],[6.6373425,45.396830556],[6.63732,45.396716944],[6.63732,45.396660278],[6.637384722,45.396605833],[6.637416944,45.396567222],[6.637455556,45.396553056],[6.637500833,45.396550833],[6.637523333,45.396578056],[6.637555833,45.396616667],[6.637636667,45.396621111],[6.637710833,45.396584722],[6.637888611,45.396496389],[6.637911111,45.396419167],[6.637959722,45.396403333],[6.637982222,45.396373889],[6.638001667,45.3963125],[6.637933889,45.396298889],[6.637953056,45.396219444],[6.637843333,45.396162778],[6.637811111,45.396183333],[6.637785278,45.396237778],[6.637723889,45.3962875],[6.637655833,45.396294444],[6.637610556,45.396265],[6.637578333,45.396226389],[6.637487778,45.396208056],[6.637471667,45.396310278],[6.637400556,45.396351111],[6.637365,45.396391944],[6.637339167,45.396410278],[6.637297222,45.396351111],[6.637293889,45.396187778],[6.637290833,45.396081111],[6.637300556,45.395967778],[6.637323056,45.395790556],[6.637351389,45.395695833],[6.637395556,45.395591111],[6.637403611,45.395471944],[6.637399722,45.395389722],[6.6373875,45.395330278],[6.637407778,45.395284722],[6.637484444,45.395239444],[6.637548889,45.395143056],[6.637581389,45.395041111],[6.637548889,45.394975833],[6.637468333,45.394907778],[6.637419722,45.394853889],[6.637383611,45.3948],[6.637335,45.394740556],[6.637314722,45.394683889],[6.637314722,45.394624444],[6.637306667,45.394553611],[6.637242222,45.394485556],[6.637193611,45.394411944],[6.637213889,45.394318333],[6.637238056,45.394230278],[6.637286667,45.394148056],[6.637322778,45.394105556],[6.637558056,45.393827222],[6.637445,45.3936175],[6.637364167,45.393472778],[6.637299722,45.393353889],[6.640958889,45.395545833],[6.640748333,45.3957675],[6.640570556,45.395850833],[6.640419444,45.3960725],[6.640189167,45.396298889],[6.639991667,45.396636389],[6.639778056,45.396932222],[6.639620278,45.397144722],[6.639468889,45.397255556],[6.639396667,45.397325],[6.63939,45.397454167],[6.63939,45.397472778],[6.639370278,45.397634444],[6.639284722,45.397759167],[6.639179444,45.397958056],[6.639172778,45.397967222],[6.639107222,45.398133611],[6.638909722,45.398336944],[6.638771667,45.398526389],[6.638666389,45.398669444],[6.638547778,45.398849722],[6.638416667,45.399099444],[6.638212778,45.399362778],[6.638048333,45.399552222],[6.637896944,45.3997325],[6.637765278,45.399834167],[6.637673333,45.399917222],[6.637581111,45.400000556],[6.637508611,45.4000375],[6.637403333,45.4000375],[6.637178889,45.400019722],[6.636922778,45.39997],[6.636623056,45.399900833],[6.636481389,45.399864722],[6.6363275,45.399823333],[6.636130556,45.399787222],[6.636016111,45.399776389],[6.635897778,45.399770833],[6.635826944,45.399759722],[6.635767778,45.3997375],[6.635767778,45.399704444],[6.635803333,45.39966],[6.635842778,45.399635],[6.6359175,45.399610278],[6.636051667,45.399574167],[6.6362525,45.39953],[6.636418056,45.399496667],[6.63656,45.399463611],[6.636658611,45.399424722],[6.636678333,45.399388889],[6.636583611,45.399336111],[6.636520556,45.399375],[6.636414167,45.399433056],[6.636276389,45.399466389],[6.636161944,45.399485556],[6.636079167,45.399499444],[6.6359175,45.399527222],[6.635834722,45.399552222],[6.635724444,45.399585278],[6.635661389,45.3996325],[6.635629722,45.399696111],[6.635625833,45.399770833],[6.635625833,45.399792778],[6.63561,45.399831667],[6.635487778,45.399853889],[6.635389444,45.399862222],[6.6353025,45.399856667],[6.635231667,45.399715278],[6.635306667,45.399651667],[6.6353775,45.399610278],[6.635448333,45.399541111],[6.635448333,45.399505],[6.635361667,45.399543889],[6.6352475,45.399593611],[6.635215833,45.399618611],[6.635204167,45.399701667],[6.635156667,45.399673889],[6.635129167,45.399648889],[6.635129167,45.399687778],[6.635141111,45.399748611],[6.635129167,45.3997875],[6.634987222,45.399812222],[6.634947778,45.399865],[6.634932222,45.399900833],[6.6351175,45.399865],[6.635136944,45.399886944],[6.634407778,45.400036389],[6.634053333,45.399553611],[6.633677778,45.3990225],[6.633286389,45.398383889],[6.633138333,45.398123889],[6.633106667,45.398079167],[6.633037778,45.398056944],[6.632985,45.398053333],[6.632921389,45.398097778],[6.633408056,45.398781111],[6.634074722,45.399653889],[6.634318056,45.399995556],[6.634323333,45.4000625],[6.634275556,45.400073611],[6.634148611,45.400066111],[6.633979444,45.400058889],[6.633820833,45.40007],[6.633656667,45.400095833],[6.633519167,45.400162778],[6.633365833,45.400255556],[6.633154167,45.400415278],[6.633048611,45.400491389],[6.632932222,45.400673333],[6.632852778,45.400799722],[6.632842222,45.400851667],[6.632773611,45.400870278],[6.632704722,45.400833056],[6.632636111,45.400784722],[6.632477222,45.400610278],[6.632350278,45.400446667],[6.632271111,45.400353889],[6.632186389,45.400283333],[6.632133611,45.400082778],[6.632054167,45.399975],[6.632027778,45.399856111],[6.632001389,45.399648333],[6.631974722,45.399410556],[6.631953611,45.399213611],[6.631916667,45.399083611],[6.631869167,45.3989575],[6.631861111,45.398858889],[6.631887778,45.398706389],[6.631887778,45.398565278],[6.631893056,45.398364722],[6.631908889,45.398193889],[6.631966944,45.398034167],[6.632046389,45.397856111],[6.632109722,45.397625833],[6.632146944,45.397525556],[6.632215556,45.397332222],[6.632263333,45.397183889],[6.6323425,45.397083611],[6.632396667,45.397040278],[6.63248,45.397054167],[6.632523611,45.397090278],[6.632586944,45.397120833],[6.632690278,45.397154444],[6.632868889,45.397212778],[6.632995833,45.397187778],[6.633305278,45.397012222],[6.633378056,45.396935278],[6.633425833,45.396832222],[6.633501111,45.396734722],[6.633596389,45.396756944],[6.637234444,45.399389444],[6.637563889,45.399160833],[6.634555,45.3969825],[6.634900278,45.396514444],[6.634967778,45.396483611],[6.634943889,45.396536667],[6.634900278,45.396645278],[6.634852778,45.396731667],[6.634840833,45.396795833],[6.634896389,45.396834722],[6.634979722,45.396845833],[6.635019167,45.396918333],[6.635110556,45.396988056],[6.635209722,45.397054722],[6.635328889,45.397135556],[6.635412222,45.397183056],[6.635511389,45.397221944],[6.635693889,45.397283333],[6.635848611,45.397341667],[6.636066944,45.397433611],[6.636257222,45.397586944],[6.636408056,45.397731944],[6.636590556,45.397882222],[6.636725556,45.397985278],[6.636824722,45.398071667],[6.636900278,45.398099722],[6.637027222,45.398099722],[6.6371225,45.398077222],[6.637166111,45.397999167],[6.637197778,45.397832222],[6.637205556,45.397748611],[6.637253333,45.397717778],[6.637296944,45.397698333],[6.637277222,45.397564722],[6.637209722,45.397433611],[6.637161944,45.397400278],[6.637046944,45.397001944],[6.636983333,45.396815278],[6.636983333,45.396600556],[6.637015,45.396263611],[6.6369575,45.396265833],[6.636893889,45.396288056],[6.636806667,45.396235],[6.6367075,45.396115278],[6.636691389,45.396012222],[6.636774722,45.395847778],[6.636909722,45.395728056],[6.636996944,45.395641667],[6.637116111,45.395482778],[6.6371675,45.395340556],[6.637203333,45.395223611],[6.637227222,45.395165278],[6.637231111,45.395106667],[6.6371675,45.394961667],[6.637108056,45.394925556],[6.637040556,45.394864167],[6.6369375,45.394830833],[6.636897778,45.394850278],[6.636790556,45.394864167],[6.636762778,45.394881111],[6.636663611,45.394861389],[6.636715278,45.394808611],[6.636465278,45.394713889],[6.636409722,45.394727778],[6.636413611,45.394763889],[6.636172778,45.394719167]]]}},{"type":"Feature","id":"LFLJ-f47496d44518718de2a1","properties":{"airport":"LFLJ","name":"LFLJ AVISO","layer":"Terrain","category":"Grass","object_type":"Area","style_id":"polygon.grassurface.00512f","source_group":"LFLJ AVISO","vsmr_group_ids":[],"geometry_role":"filled_region"},"geometry":{"type":"Polygon","coordinates":[[[6.636191389,45.395300556],[6.636115278,45.395272222],[6.6360975,45.395087222],[6.636150833,45.395067778],[6.636120278,45.394868611],[6.636095,45.3947975],[6.636325556,45.394792222],[6.636462222,45.394799167],[6.636454444,45.394871667],[6.636548056,45.394882222],[6.636558333,45.394916111],[6.636591111,45.394958611],[6.636624167,45.394969444],[6.636631667,45.395001389],[6.636619167,45.395013889],[6.636560833,45.39506],[6.636535556,45.395115],[6.636459444,45.3951525],[6.636403889,45.3951525],[6.636368333,45.395145278],[6.636315278,45.395131111],[6.636295,45.395157778],[6.636246944,45.395203889],[6.636239444,45.395248333],[6.636269722,45.395282222],[6.636267222,45.395339167],[6.636251944,45.395435278],[6.636191111,45.395525833],[6.636186111,45.395593333],[6.636214167,45.395660833],[6.636163333,45.395707222],[6.636120278,45.395744444],[6.636085,45.395803056],[6.6360875,45.395858333],[6.636049444,45.39586],[6.635988611,45.395883056],[6.635920278,45.395883056],[6.635839444,45.395893889],[6.635803889,45.395916944],[6.635776111,45.395948889],[6.635717778,45.395959722],[6.635656944,45.395993333],[6.635621667,45.396021944],[6.635573611,45.396008333],[6.636191389,45.395300556]]]}},{"type":"Feature","id":"LFLJ-3442cd8a4b0910696ced","properties":{"airport":"LFLJ","name":"LFLJ AVISO","layer":"Terrain","category":"Grass","object_type":"Area","style_id":"polygon.grassurface.00512f","source_group":"LFLJ AVISO","vsmr_group_ids":[],"geometry_role":"filled_region"},"geometry":{"type":"Polygon","coordinates":[[[6.633314167,45.395476667],[6.633263889,45.3954675],[6.633068056,45.395532778],[6.632950556,45.395610278],[6.632478611,45.3959375],[6.632771389,45.396159167],[6.632840556,45.396210278],[6.632855278,45.396286111],[6.632851667,45.396355556],[6.632724722,45.396608333],[6.632661111,45.3966825],[6.632528611,45.396826667],[6.632455833,45.396915556],[6.632424167,45.396938056],[6.632349444,45.397029722],[6.632288056,45.3970925],[6.632261944,45.397139722],[6.632211667,45.397186667],[6.632200278,45.397219444],[6.632187222,45.397265278],[6.632170556,45.397285],[6.632151944,45.397249722],[6.632105278,45.397223611],[6.632030556,45.397182778],[6.631950278,45.397155278],[6.631858889,45.397108333],[6.631763889,45.397050556],[6.631693056,45.396993056],[6.631622222,45.396936667],[6.631549444,45.396867222],[6.631480278,45.396776944],[6.6314225,45.396695556],[6.631375833,45.39657],[6.631336667,45.396444167],[6.631317222,45.39632],[6.631319167,45.396245278],[6.631337778,45.396144444],[6.631375,45.396042222],[6.631427222,45.395931111],[6.631488889,45.395811944],[6.631536944,45.395729722],[6.631581389,45.395581667],[6.631598056,45.395460833],[6.631609167,45.395342222],[6.631609167,45.395180556],[6.6315925,45.395069444],[6.631559167,45.394913611],[6.631500556,45.394743056],[6.631350833,45.394295],[6.6312925,45.3940925],[6.631281389,45.394008611],[6.631270278,45.393965833],[6.6312925,45.393917222],[6.631345278,45.393958056],[6.631483889,45.394024167],[6.6316475,45.394111944],[6.631844444,45.394201667],[6.631852778,45.394267778],[6.631886111,45.394283333],[6.631894444,45.394219167],[6.632038611,45.394261944],[6.632152222,45.394302778],[6.632301944,45.394345556],[6.632396389,45.394382778],[6.632482222,45.394396389],[6.632523889,45.394423611],[6.632399167,45.394470278],[6.632351944,45.3944275],[6.632313056,45.394446944],[6.632351944,45.394495556],[6.632304722,45.394528611],[6.632249444,45.394587222],[6.632196667,45.394653333],[6.632191111,45.394701944],[6.632196667,45.394760556],[6.632224444,45.394785833],[6.632263056,45.394789722],[6.632290833,45.394785833],[6.632304722,45.394748889],[6.632480278,45.394903611],[6.632536944,45.394895],[6.632607778,45.394940556],[6.632642222,45.394926389],[6.632654444,45.394937778],[6.632595833,45.394959167],[6.632678889,45.395013333],[6.632705278,45.394998889],[6.632765833,45.395048889],[6.632978889,45.394946389],[6.632993056,45.394966389],[6.6331125,45.394932222],[6.633122778,45.394955],[6.633248333,45.394925],[6.633333333,45.394900833],[6.633392222,45.394885278],[6.633430833,45.394885278],[6.633542222,45.394865278],[6.633609167,45.394866667],[6.633713056,45.394878333],[6.633806389,45.394859722],[6.633978611,45.394868333],[6.634051667,45.394879722],[6.634132778,45.394952222],[6.634207778,45.394975],[6.634246111,45.394967778],[6.634329167,45.394990556],[6.634369722,45.394995],[6.634438611,45.394985],[6.634458889,45.394975],[6.634479167,45.394949444],[6.634465,45.394936667],[6.634458889,45.394913889],[6.634448889,45.394903889],[6.634408333,45.394903889],[6.634355556,45.394906667],[6.634292778,45.394911111],[6.634254444,45.394911111],[6.63423,45.394909444],[6.634211667,45.394899722],[6.634209722,45.394886667],[6.634270556,45.394888333],[6.634319167,45.3948925],[6.634353611,45.394888333],[6.634416389,45.394875278],[6.634467222,45.394856944],[6.634505556,45.394838333],[6.634560278,45.39482],[6.634619167,45.394805556],[6.634669722,45.394805556],[6.634696111,45.394805556],[6.634661667,45.39478],[6.634649444,45.394754444],[6.634667778,45.394713056],[6.634708333,45.394659167],[6.634765,45.394610556],[6.634827778,45.394583611],[6.634880556,45.394565],[6.634931111,45.394562222],[6.634985833,45.394583611],[6.635020278,45.394610556],[6.6350325,45.394656111],[6.635034722,45.394696111],[6.635028611,45.394782778],[6.635010278,45.394885278],[6.635004167,45.394966389],[6.634975833,45.395040556],[6.634916944,45.395110278],[6.634870556,45.395154444],[6.634775556,45.395217778],[6.634694444,45.395291944],[6.634613333,45.395374444],[6.634536389,45.395456944],[6.634495833,45.395519444],[6.634436944,45.395592222],[6.634420833,45.395633333],[6.634400556,45.395666111],[6.634376111,45.395680278],[6.634364167,45.395683333],[6.634339722,45.395676111],[6.634293056,45.395644722],[6.634232222,45.395585],[6.634133056,45.395503889],[6.634041944,45.395426944],[6.633972778,45.395373056],[6.633800556,45.395334444],[6.633656667,45.395316111],[6.6334925,45.395326111],[6.633354722,45.395345833],[6.633190556,45.395375833],[6.633054722,45.39542],[6.632923333,45.395479167],[6.632805833,45.395545],[6.632371389,45.395802778],[6.632183611,45.395903611],[6.632107222,45.395988333],[6.632080833,45.396064444],[6.632098333,45.396146944],[6.632121944,45.396198611],[6.632171944,45.396248056],[6.632242222,45.396311944],[6.632336389,45.396376389],[6.632351389,45.39639],[6.632333333,45.396396389],[6.632299167,45.396391111],[6.632243889,45.396379444],[6.632201944,45.396368889],[6.632169167,45.396360556],[6.632139167,45.3963575],[6.632040556,45.396255556],[6.631973333,45.396202222],[6.631963056,45.396228333],[6.631994444,45.396247222],[6.631964444,45.396303889],[6.632115278,45.396355278],[6.632140833,45.396427778],[6.632161667,45.396419444],[6.632164722,45.396399444],[6.632170556,45.396388889],[6.632201944,45.396393056],[6.632261667,45.396407778],[6.63229,45.396417222],[6.632313333,45.396435833],[6.632113056,45.396574444],[6.632281944,45.3966825],[6.632331111,45.396646667],[6.632395556,45.396687778],[6.632441667,45.396653056],[6.632483611,45.396620556],[6.632519444,45.396581667],[6.632541944,45.396549167],[6.632546389,45.396510278],[6.632526944,45.396456944],[6.632482222,45.3964075],[6.632419444,45.396358333],[6.632340278,45.396302778],[6.632283333,45.3962575],[6.632241667,45.396215556],[6.632204167,45.396181111],[6.632181944,45.396132778],[6.632178889,45.396086667],[6.632192222,45.39603],[6.632239167,45.395968889],[6.632331667,45.3958975],[6.632516944,45.395789444],[6.632766389,45.395634167],[6.632845556,45.395583889],[6.632932222,45.395539722],[6.633032222,45.395496667],[6.633130833,45.395464167],[6.6332025,45.395445278],[6.633248889,45.395436944],[6.633295278,45.395425556],[6.633314722,45.395425556],[6.6333325,45.395435278],[6.633316111,45.395454167],[6.633314167,45.395476667]]]}},{"type":"Feature","id":"LFLJ-2b93972fd08acae5cf9b","properties":{"airport":"LFLJ","name":"LFLJ AVISO","layer":"Airfield surfaces","category":"Hard Surface 3","object_type":"Area","style_id":"polygon.hardsurface3.8a807f","source_group":"LFLJ AVISO","vsmr_group_ids":[],"geometry_role":"filled_region"},"geometry":{"type":"Polygon","coordinates":[[[6.635808611,45.396780556],[6.635934444,45.396903889],[6.636049444,45.39698],[6.636209722,45.397058056],[6.636348611,45.397108611],[6.636447778,45.397138611],[6.636495,45.397150278],[6.636540833,45.397142778],[6.636571389,45.397113889],[6.636573889,45.397075833],[6.63647,45.396390833],[6.636563056,45.396220278],[6.63704,45.396228056],[6.637024722,45.396282778],[6.637018333,45.396369444],[6.637009722,45.396535556],[6.637011944,45.396686111],[6.637018333,45.396824722],[6.637031389,45.39691],[6.637066111,45.397021111],[6.637094167,45.397123056],[6.637146389,45.397261667],[6.637183056,45.397393889],[6.636695278,45.397435],[6.636584722,45.397433611],[6.636489444,45.3974],[6.636374444,45.397337778],[6.636279167,45.397285833],[6.63616,45.397241944],[6.636073333,45.397202222],[6.635904167,45.397180833],[6.635782778,45.397173333],[6.635576667,45.3971125],[6.635808611,45.396780556]]]}},{"type":"Feature","id":"LFLJ-b020d7e0d316d044c644","properties":{"airport":"LFLJ","name":"LFLJ AVISO","layer":"Airfield surfaces","category":"Hard Surface 3","object_type":"Area","style_id":"polygon.hardsurface3.8a807f","source_group":"LFLJ AVISO","vsmr_group_ids":[],"geometry_role":"filled_region"},"geometry":{"type":"Polygon","coordinates":[[[6.634881389,45.396829444],[6.634755833,45.396780833],[6.634972222,45.396483611],[6.634936111,45.396468056],[6.635205833,45.396075278],[6.63553,45.395594722],[6.635566111,45.395591667],[6.635555833,45.395567222],[6.635543333,45.395514444],[6.635783889,45.395317222],[6.635746389,45.395228333],[6.636099722,45.395203889],[6.636183056,45.395251667],[6.636160833,45.395277222],[6.636204167,45.395298056],[6.634881389,45.396829444]]]}},{"type":"Feature","id":"LFLJ-dd097f9412bb9a884dff","properties":{"airport":"LFLJ","name":"LFLJ AVISO","layer":"Airfield surfaces","category":"Hard Surface 3","object_type":"Area","style_id":"polygon.hardsurface3.8a807f","source_group":"LFLJ AVISO","vsmr_group_ids":[],"geometry_role":"filled_region"},"geometry":{"type":"Polygon","coordinates":[[[6.632910556,45.395626667],[6.632933611,45.395602778],[6.632990278,45.395569722],[6.633048333,45.395534167],[6.633118611,45.3955025],[6.633189722,45.395476389],[6.633261111,45.395459444],[6.6332975,45.395448333],[6.633335,45.395435556],[6.63344,45.395460278],[6.633448611,45.395433889],[6.633466667,45.395413611],[6.633475278,45.3954075],[6.633654167,45.395399167],[6.6342175,45.3957225],[6.634275556,45.395798056],[6.634198056,45.395882222],[6.634658611,45.396258889],[6.634534167,45.396356667],[6.6343275,45.396198611],[6.633991389,45.396411667],[6.632910556,45.395626667]]]}},{"type":"Feature","id":"LFLJ-fc679253357140fad416","properties":{"airport":"LFLJ","name":"LFLJ AVISO","layer":"Airfield surfaces","category":"Hard Surface 3","object_type":"Area","style_id":"polygon.hardsurface3.8a807f","source_group":"LFLJ AVISO","vsmr_group_ids":[],"geometry_role":"filled_region"},"geometry":{"type":"Polygon","coordinates":[[[6.633479167,45.396802778],[6.633474444,45.396809722],[6.633462778,45.396819167],[6.633453056,45.396836944],[6.633441389,45.396870556],[6.6334325,45.396896389],[6.633412222,45.396923611],[6.633391667,45.396950278],[6.633365833,45.396971389],[6.633078889,45.397173611],[6.633039167,45.397206389],[6.633000278,45.397222778],[6.632948611,45.397234444],[6.632903056,45.3972425],[6.632861111,45.397239167],[6.632815556,45.397229444],[6.632785278,45.397218056],[6.632745556,45.397203611],[6.632702778,45.397178889],[6.632509444,45.397042778],[6.632493889,45.397031111],[6.632456111,45.396986111],[6.632425,45.396942222],[6.632436667,45.396912222],[6.632467778,45.396867222],[6.6325125,45.396816667],[6.632571667,45.396756667],[6.632600278,45.396729167],[6.632637222,45.396696389],[6.632673333,45.396649444],[6.632716111,45.396603056],[6.632825,45.3963425],[6.632834722,45.396337778],[6.633479167,45.396802778]]]}},{"type":"Feature","id":"LFLJ-6bd99ce4880ff61e4927","properties":{"airport":"LFLJ","name":"LFLJ AVISO","layer":"Airfield surfaces","category":"Hard Surface 2","object_type":"Area","style_id":"polygon.hardsurface2.595e5b","source_group":"LFLJ AVISO","vsmr_group_ids":[],"geometry_role":"filled_region"},"geometry":{"type":"Polygon","coordinates":[[[6.633227222,45.3957025],[6.633285,45.395744444],[6.633242778,45.3957775],[6.633185,45.395736389],[6.633227222,45.3957025]]]}},{"type":"Feature","id":"LFLJ-21c9bc0f5f564a82fff6","properties":{"airport":"LFLJ","name":"LFLJ AVISO","layer":"Airfield surfaces","category":"Hard Surface 2","object_type":"Area","style_id":"polygon.hardsurface2.595e5b","source_group":"LFLJ AVISO","vsmr_group_ids":[],"geometry_role":"filled_region"},"geometry":{"type":"Polygon","coordinates":[[[6.633394167,45.395819444],[6.633440556,45.395855],[6.633396111,45.395886667],[6.633346667,45.395848611],[6.633394167,45.395819444]]]}},{"type":"Feature","id":"LFLJ-b6f8d946adc85a1255e5","properties":{"airport":"LFLJ","name":"LFLJ AVISO","layer":"Airfield surfaces","category":"Hard Surface 2","object_type":"Area","style_id":"polygon.hardsurface2.595e5b","source_group":"LFLJ AVISO","vsmr_group_ids":[],"geometry_role":"filled_region"},"geometry":{"type":"Polygon","coordinates":[[[6.633554722,45.395936667],[6.6336,45.39597],[6.633556944,45.396001111],[6.633509444,45.395968611],[6.633554722,45.395936667]]]}},{"type":"Feature","id":"LFLJ-9020abc0958491f908a8","properties":{"airport":"LFLJ","name":"LFLJ AVISO","layer":"Airfield surfaces","category":"Hard Surface 2","object_type":"Area","style_id":"polygon.hardsurface2.595e5b","source_group":"LFLJ AVISO","vsmr_group_ids":[],"geometry_role":"filled_region"},"geometry":{"type":"Polygon","coordinates":[[[6.633715556,45.396054444],[6.633764722,45.396085556],[6.6337175,45.396116667],[6.633669167,45.396084167],[6.633715556,45.396054444]]]}},{"type":"Feature","id":"LFLJ-e78c0850c74a34e1a9c4","properties":{"airport":"LFLJ","name":"LFLJ AVISO","layer":"Airfield surfaces","category":"Hard Surface 2","object_type":"Area","style_id":"polygon.hardsurface2.595e5b","source_group":"LFLJ AVISO","vsmr_group_ids":[],"geometry_role":"filled_region"},"geometry":{"type":"Polygon","coordinates":[[[6.633864722,45.396163889],[6.633930556,45.396210833],[6.633889444,45.396241944],[6.633820556,45.396193333],[6.633864722,45.396163889]]]}},{"type":"Feature","id":"LFLJ-91039da836663b9bc3a8","properties":{"airport":"LFLJ","name":"LFLJ AVISO","layer":"Buildings and structures","category":"Buildings","object_type":"Area","style_id":"polygon.building.394446","source_group":"LFLJ AVISO","vsmr_group_ids":[],"geometry_role":"filled_region"},"geometry":{"type":"Polygon","coordinates":[[[6.631864722,45.396621667],[6.631873611,45.396626667],[6.632158611,45.396410278],[6.632164444,45.396415278],[6.632177778,45.396416667],[6.632199722,45.396416111],[6.63222,45.396404722],[6.632279444,45.396446389],[6.632124444,45.396568056],[6.632274722,45.396676667],[6.632336111,45.396639722],[6.632418056,45.396688889],[6.632406111,45.396698056],[6.632458611,45.396728056],[6.632437778,45.396742778],[6.632483889,45.396765],[6.6325125,45.396740556],[6.632540833,45.396754444],[6.632447778,45.396825],[6.632400556,45.396792778],[6.63236,45.396768056],[6.632304167,45.396808056],[6.632233056,45.396758889],[6.6321125,45.396845],[6.632001667,45.3967775],[6.631826389,45.396654167],[6.631864722,45.396621667]]]}},{"type":"Feature","id":"LFLJ-3d3c5d385524c3d72628","properties":{"airport":"LFLJ","name":"LFLJ AVISO","layer":"Buildings and structures","category":"Buildings","object_type":"Area","style_id":"polygon.building.394446","source_group":"LFLJ AVISO","vsmr_group_ids":[],"geometry_role":"filled_region"},"geometry":{"type":"Polygon","coordinates":[[[6.632121389,45.396365],[6.632110278,45.396360833],[6.631947222,45.3963],[6.631983333,45.396245],[6.631949167,45.39623],[6.631969444,45.396185556],[6.632055,45.396257778],[6.632139444,45.3963425],[6.6321525,45.396361667],[6.632121389,45.396365]]]}},{"type":"Feature","id":"LFLJ-22c8a51c078a2b432b61","properties":{"airport":"LFLJ","name":"LFLJ AVISO","layer":"Buildings and structures","category":"Buildings","object_type":"Area","style_id":"polygon.building.394446","source_group":"LFLJ AVISO","vsmr_group_ids":[],"geometry_role":"filled_region"},"geometry":{"type":"Polygon","coordinates":[[[6.632571389,45.396677778],[6.632590278,45.396651111],[6.6326125,45.396634167],[6.632647222,45.396651111],[6.632614444,45.396690833],[6.632571389,45.396677778]]]}},{"type":"Feature","id":"LFLJ-f4c6b76e1662628c64dc","properties":{"airport":"LFLJ","name":"LFLJ AVISO","layer":"Buildings and structures","category":"Buildings","object_type":"Area","style_id":"polygon.building.394446","source_group":"LFLJ AVISO","vsmr_group_ids":[],"geometry_role":"filled_region"},"geometry":{"type":"Polygon","coordinates":[[[6.633499167,45.395536944],[6.633657778,45.395400278],[6.634211389,45.395716389],[6.634062222,45.395844722],[6.633499167,45.395536944]]]}},{"type":"Feature","id":"LFLJ-092e39dc84162e720579","properties":{"airport":"LFLJ","name":"LFLJ AVISO","layer":"Buildings and structures","category":"Buildings","object_type":"Area","style_id":"polygon.building.394446","source_group":"LFLJ AVISO","vsmr_group_ids":[],"geometry_role":"filled_region"},"geometry":{"type":"Polygon","coordinates":[[[6.634575833,45.396227778],[6.634572778,45.396201944],[6.634617778,45.396168056],[6.634661944,45.396203333],[6.634663056,45.396227778],[6.634633611,45.396247778],[6.634601111,45.396246111],[6.634575833,45.396227778]]]}},{"type":"Feature","id":"LFLJ-107a02a0ea06dfe1e13f","properties":{"airport":"LFLJ","name":"LFLJ AVISO","layer":"Buildings and structures","category":"Buildings","object_type":"Area","style_id":"polygon.building.394446","source_group":"LFLJ AVISO","vsmr_group_ids":[],"geometry_role":"filled_region"},"geometry":{"type":"Polygon","coordinates":[[[6.634458333,45.396115556],[6.634493889,45.396085556],[6.634450833,45.396051667],[6.634568611,45.395974167],[6.634786944,45.396136944],[6.634668333,45.396213056],[6.634670278,45.396204167],[6.634621111,45.396165833],[6.634589444,45.396183611],[6.634576944,45.396183611],[6.634566389,45.396179722],[6.634550556,45.396188056],[6.634458333,45.396115556]]]}},{"type":"Feature","id":"LFLJ-eac0c62feddcada609da","properties":{"airport":"LFLJ","name":"LFLJ AVISO","layer":"Buildings and structures","category":"Buildings","object_type":"Area","style_id":"polygon.building.394446","source_group":"LFLJ AVISO","vsmr_group_ids":[],"geometry_role":"filled_region"},"geometry":{"type":"Polygon","coordinates":[[[6.635353056,45.395397778],[6.635557778,45.395229444],[6.6357475,45.3953475],[6.635544444,45.395517222],[6.635353056,45.395397778]]]}},{"type":"Feature","id":"LFLJ-247aedcd3e7f4ba267bd","properties":{"airport":"LFLJ","name":"LFLJ AVISO","layer":"Buildings and structures","category":"Buildings","object_type":"Area","style_id":"polygon.building.394446","source_group":"LFLJ AVISO","vsmr_group_ids":[],"geometry_role":"filled_region"},"geometry":{"type":"Polygon","coordinates":[[[6.6356425,45.395236389],[6.635594444,45.3952225],[6.635622778,45.395175833],[6.635674167,45.3951875],[6.6356425,45.395236389]]]}},{"type":"Feature","id":"LFLJ-2372f6ea500dcf916299","properties":{"airport":"LFLJ","name":"LFLJ AVISO","layer":"Buildings and structures","category":"Buildings","object_type":"Area","style_id":"polygon.building.394446","source_group":"LFLJ AVISO","vsmr_group_ids":[],"geometry_role":"filled_region"},"geometry":{"type":"Polygon","coordinates":[[[6.6357175,45.395244722],[6.635704167,45.395171111],[6.6357025,45.395101944],[6.635869167,45.395099722],[6.635884167,45.395173333],[6.635900833,45.395235278],[6.635839167,45.39524],[6.6358375,45.395252778],[6.635735833,45.3952575],[6.6357375,45.395246944],[6.6357175,45.395244722]]]}},{"type":"Feature","id":"LFLJ-05fd868c8d49de97b172","properties":{"airport":"LFLJ","name":"LFLJ AVISO","layer":"Buildings and structures","category":"Buildings","object_type":"Area","style_id":"polygon.building.394446","source_group":"LFLJ AVISO","vsmr_group_ids":[],"geometry_role":"filled_region"},"geometry":{"type":"Polygon","coordinates":[[[6.636190278,45.394746667],[6.636278611,45.394704444],[6.636306944,45.394736111],[6.636226944,45.3947725],[6.636190278,45.394746667]]]}},{"type":"Feature","id":"LFLJ-d37f268daef4ab9cf79f","properties":{"airport":"LFLJ","name":"LFLJ AVISO","layer":"Buildings and structures","category":"Buildings","object_type":"Area","style_id":"polygon.building.394446","source_group":"LFLJ AVISO","vsmr_group_ids":[],"geometry_role":"filled_region"},"geometry":{"type":"Polygon","coordinates":[[[6.637379167,45.395086944],[6.637370833,45.395064722],[6.637369167,45.395041389],[6.637350833,45.395020278],[6.637339167,45.394989722],[6.637399167,45.3949875],[6.6374175,45.395036667],[6.6374375,45.395076389],[6.637379167,45.395086944]]]}},{"type":"Feature","id":"LFLJ-8b7910f9afcbfa5396fa","properties":{"airport":"LFLJ","name":"LFLJ AVISO","layer":"Buildings and structures","category":"Buildings","object_type":"Area","style_id":"polygon.building.394446","source_group":"LFLJ AVISO","vsmr_group_ids":[],"geometry_role":"filled_region"},"geometry":{"type":"Polygon","coordinates":[[[6.6357475,45.394598333],[6.635683889,45.394586944],[6.6356875,45.394573889],[6.635753056,45.394584167],[6.6357475,45.394598333]]]}},{"type":"Feature","id":"LFLJ-00afcc7d20d60e63fde8","properties":{"airport":"LFLJ","name":"LFLJ AVISO","layer":"Buildings and structures","category":"Buildings","object_type":"Area","style_id":"polygon.building.394446","source_group":"LFLJ AVISO","vsmr_group_ids":[],"geometry_role":"filled_region"},"geometry":{"type":"Polygon","coordinates":[[[6.635593333,45.394591389],[6.635533056,45.394542778],[6.635496667,45.394426667],[6.635431111,45.394440556],[6.635300833,45.3940875],[6.635501111,45.393834444],[6.635592222,45.393853611],[6.635677778,45.393746389],[6.635954444,45.393861389],[6.636178333,45.393610833],[6.636559444,45.393776389],[6.63635,45.394026944],[6.636625,45.394153611],[6.636645,45.394304444],[6.636572222,45.394407778],[6.636390278,45.394323611],[6.636443056,45.394267222],[6.636317222,45.394218611],[6.636219167,45.39433],[6.635809444,45.394150833],[6.635926111,45.394007778],[6.635693056,45.393908056],[6.635498333,45.394118889],[6.635676667,45.394577778],[6.635593333,45.394591389]]]}},{"type":"Feature","id":"LFLJ-24a126b8863b3c11e9e9","properties":{"airport":"LFLJ","name":"LFLJ AVISO","layer":"Buildings and structures","category":"Buildings","object_type":"Area","style_id":"polygon.building.394446","source_group":"LFLJ AVISO","vsmr_group_ids":[],"geometry_role":"filled_region"},"geometry":{"type":"Polygon","coordinates":[[[6.633585,45.394455],[6.633526389,45.394426667],[6.633553333,45.3943975],[6.633615556,45.394426667],[6.633585,45.394455]]]}},{"type":"Feature","id":"LFLJ-dee7a71753b9dae99229","properties":{"airport":"LFLJ","name":"LFLJ AVISO","layer":"Buildings and structures","category":"Buildings","object_type":"Area","style_id":"polygon.building.394446","source_group":"LFLJ AVISO","vsmr_group_ids":[],"geometry_role":"filled_region"},"geometry":{"type":"Polygon","coordinates":[[[6.6335375,45.394303056],[6.633548333,45.394283333],[6.633563056,45.394283333],[6.633570278,45.394276389],[6.633561944,45.394271389],[6.633635,45.3941975],[6.633636389,45.394194167],[6.633693611,45.394228611],[6.633600833,45.394331389],[6.6335375,45.394303056]]]}},{"type":"Feature","id":"LFLJ-8d1a1aabb41a546b205c","properties":{"airport":"LFLJ","name":"LFLJ AVISO","layer":"Buildings and structures","category":"Buildings","object_type":"Area","style_id":"polygon.building.394446","source_group":"LFLJ AVISO","vsmr_group_ids":[],"geometry_role":"filled_region"},"geometry":{"type":"Polygon","coordinates":[[[6.633975833,45.394082778],[6.634006389,45.394066389],[6.634056389,45.394104167],[6.634029722,45.394122222],[6.633975833,45.394082778]]]}},{"type":"Feature","id":"LFLJ-fc3c6d5b341c0ed5baf0","properties":{"airport":"LFLJ","name":"LFLJ AVISO","layer":"Buildings and structures","category":"Buildings","object_type":"Area","style_id":"polygon.building.394446","source_group":"LFLJ AVISO","vsmr_group_ids":[],"geometry_role":"filled_region"},"geometry":{"type":"Polygon","coordinates":[[[6.634140833,45.394033056],[6.634157778,45.394054444],[6.634190833,45.394068889],[6.634143056,45.39411],[6.634108889,45.394094722],[6.634082222,45.394073333],[6.634140833,45.394033056]]]}},{"type":"Feature","id":"LFLJ-22389efebe9bb2f27613","properties":{"airport":"LFLJ","name":"LFLJ AVISO","layer":"Buildings and structures","category":"Buildings","object_type":"Area","style_id":"polygon.building.394446","source_group":"LFLJ AVISO","vsmr_group_ids":[],"geometry_role":"filled_region"},"geometry":{"type":"Polygon","coordinates":[[[6.633012222,45.394348611],[6.633086667,45.394325278],[6.633117222,45.39437],[6.63305,45.394392222],[6.633012222,45.394348611]]]}},{"type":"Feature","id":"LFLJ-3498863958676f4a70dd","properties":{"airport":"LFLJ","name":"LFLJ AVISO","layer":"Buildings and structures","category":"Buildings","object_type":"Area","style_id":"polygon.building.394446","source_group":"LFLJ AVISO","vsmr_group_ids":[],"geometry_role":"filled_region"},"geometry":{"type":"Polygon","coordinates":[[[6.633013333,45.394318611],[6.632941389,45.394255833],[6.632858333,45.394188056],[6.632910833,45.394138333],[6.632992778,45.394210556],[6.633083056,45.394298056],[6.633013333,45.394318611]]]}},{"type":"Feature","id":"LFLJ-0ec26f788d7c215c8776","properties":{"airport":"LFLJ","name":"LFLJ AVISO","layer":"Buildings and structures","category":"Buildings","object_type":"Area","style_id":"polygon.building.394446","source_group":"LFLJ AVISO","vsmr_group_ids":[],"geometry_role":"filled_region"},"geometry":{"type":"Polygon","coordinates":[[[6.632535833,45.394791944],[6.632599444,45.394761111],[6.632678889,45.394836667],[6.63289,45.394726667],[6.632984167,45.394694167],[6.633040278,45.394749167],[6.633024444,45.394751667],[6.633075833,45.394832222],[6.633095278,45.394828056],[6.633097778,45.394836667],[6.633111111,45.394839167],[6.633124444,45.394858056],[6.633055,45.394883611],[6.633074444,45.394901667],[6.633135556,45.39487],[6.633175833,45.394906944],[6.633101389,45.394941111],[6.633091667,45.3949325],[6.632992778,45.394964444],[6.632975556,45.394948889],[6.632760556,45.395048333],[6.632714167,45.394998611],[6.632671389,45.395010556],[6.632604167,45.394956667],[6.632653056,45.39493],[6.632609167,45.394901667],[6.632584722,45.394912778],[6.632537222,45.394887222],[6.632485833,45.3948975],[6.632460278,45.394875278],[6.632451667,45.394879444],[6.6323075,45.394755],[6.632434444,45.394688333],[6.632535833,45.394791944]]]}},{"type":"Feature","id":"LFLJ-6001e951e2f538c3dfac","properties":{"airport":"LFLJ","name":"LFLJ AVISO","layer":"Buildings and structures","category":"Buildings","object_type":"Area","style_id":"polygon.building.394446","source_group":"LFLJ AVISO","vsmr_group_ids":[],"geometry_role":"filled_region"},"geometry":{"type":"Polygon","coordinates":[[[6.632796111,45.394706111],[6.632886389,45.394661667],[6.632923056,45.394688056],[6.632849722,45.394728611],[6.632796111,45.394706111]]]}},{"type":"Feature","id":"LFLJ-ed705b05a371d3d29174","properties":{"airport":"LFLJ","name":"LFLJ AVISO","layer":"Buildings and structures","category":"Buildings","object_type":"Area","style_id":"polygon.building.394446","source_group":"LFLJ AVISO","vsmr_group_ids":[],"geometry_role":"filled_region"},"geometry":{"type":"Polygon","coordinates":[[[6.632742222,45.394613611],[6.632728889,45.394617778],[6.632699444,45.394597222],[6.632750833,45.394573333],[6.6327875,45.394599722],[6.632776389,45.394616111],[6.632836389,45.394659167],[6.632805833,45.394676944],[6.632742222,45.394613611]]]}},{"type":"Feature","id":"LFLJ-19c9121f44623e16a825","properties":{"airport":"LFLJ","name":"LFLJ AVISO","layer":"Buildings and structures","category":"Buildings","object_type":"Area","style_id":"polygon.building.394446","source_group":"LFLJ AVISO","vsmr_group_ids":[],"geometry_role":"filled_region"},"geometry":{"type":"Polygon","coordinates":[[[6.633200556,45.394720556],[6.633293333,45.394758056],[6.633254167,45.394789722],[6.633173056,45.394746944],[6.633200556,45.394720556]]]}},{"type":"Feature","id":"LFLJ-ee1ed9ba24c1d1bdce20","properties":{"airport":"LFLJ","name":"LFLJ AVISO","layer":"Buildings and structures","category":"Buildings","object_type":"Area","style_id":"polygon.building.394446","source_group":"LFLJ AVISO","vsmr_group_ids":[],"geometry_role":"filled_region"},"geometry":{"type":"Polygon","coordinates":[[[6.6332875,45.394695],[6.633317778,45.394708333],[6.633294722,45.394738889],[6.633262778,45.394729722],[6.6332875,45.394695]]]}},{"type":"Feature","id":"LFLJ-c8d97ca2853e023bf107","properties":{"airport":"LFLJ","name":"LFLJ AVISO","layer":"Buildings and structures","category":"Buildings","object_type":"Area","style_id":"polygon.building.394446","source_group":"LFLJ AVISO","vsmr_group_ids":[],"geometry_role":"filled_region"},"geometry":{"type":"Polygon","coordinates":[[[6.634461944,45.394986111],[6.634534444,45.394997222],[6.634520278,45.395022778],[6.634455556,45.395010556],[6.634461944,45.394986111]]]}},{"type":"Feature","id":"LFLJ-d15fe1a50d5a76997719","properties":{"airport":"LFLJ","name":"LFLJ AVISO","layer":"Buildings and structures","category":"Buildings","object_type":"Area","style_id":"polygon.building.394446","source_group":"LFLJ AVISO","vsmr_group_ids":[],"geometry_role":"filled_region"},"geometry":{"type":"Polygon","coordinates":[[[6.634930833,45.399891667],[6.634862778,45.399914444],[6.634836667,45.399867778],[6.634912778,45.399849722],[6.634930833,45.399891667]]]}},{"type":"Feature","id":"LFLJ-1d1adc13d3a3bfc4edb9","properties":{"airport":"LFLJ","name":"LFLJ AVISO","layer":"Buildings and structures","category":"Buildings","object_type":"Area","style_id":"polygon.building.394446","source_group":"LFLJ AVISO","vsmr_group_ids":[],"geometry_role":"filled_region"},"geometry":{"type":"Polygon","coordinates":[[[6.634926944,45.399701944],[6.635093056,45.399679444],[6.635119167,45.399766667],[6.634970833,45.399793333],[6.634926944,45.399701944]]]}},{"type":"Feature","id":"LFLJ-2a5ec8ccce8d338c3082","properties":{"airport":"LFLJ","name":"LFLJ AVISO","layer":"Buildings and structures","category":"Buildings","object_type":"Area","style_id":"polygon.building.394446","source_group":"LFLJ AVISO","vsmr_group_ids":[],"geometry_role":"filled_region"},"geometry":{"type":"Polygon","coordinates":[[[6.635313611,45.399862222],[6.635269444,45.399818611],[6.635311667,45.399803056],[6.635253611,45.399739722],[6.635361667,45.399706111],[6.635417778,45.399810278],[6.635313611,45.399862222]]]}},{"type":"Feature","id":"LFLJ-42f6fb9b2859e6171fcf","properties":{"airport":"LFLJ","name":"LFLJ AVISO","layer":"Buildings and structures","category":"Buildings","object_type":"Area","style_id":"polygon.building.394446","source_group":"LFLJ AVISO","vsmr_group_ids":[],"geometry_role":"filled_region"},"geometry":{"type":"Polygon","coordinates":[[[6.634866667,45.400140833],[6.635006944,45.400123889],[6.635053056,45.400288611],[6.634928889,45.400305556],[6.634866667,45.400140833]]]}},{"type":"Feature","id":"LFLJ-ed556478d8d6e76846e2","properties":{"airport":"LFLJ","name":"LFLJ AVISO","layer":"Buildings and structures","category":"Buildings","object_type":"Area","style_id":"polygon.building.394446","source_group":"LFLJ AVISO","vsmr_group_ids":[],"geometry_role":"filled_region"},"geometry":{"type":"Polygon","coordinates":[[[6.635037222,45.400435],[6.635011111,45.400340556],[6.635451944,45.400273056],[6.635485833,45.400364444],[6.635037222,45.400435]]]}},{"type":"Feature","id":"LFLJ-e01954ae2ab469d0e918","properties":{"airport":"LFLJ","name":"LFLJ AVISO","layer":"Buildings and structures","category":"Buildings","object_type":"Area","style_id":"polygon.building.394446","source_group":"LFLJ AVISO","vsmr_group_ids":[],"geometry_role":"filled_region"},"geometry":{"type":"Polygon","coordinates":[[[6.635263611,45.399926944],[6.635395833,45.399907222],[6.635423889,45.400015556],[6.635478056,45.400001667],[6.635501944,45.400085833],[6.635453889,45.400097222],[6.63549,45.400219722],[6.635357778,45.400239444],[6.635263611,45.399926944]]]}},{"type":"Feature","id":"LFLJ-efeba54ae4ba91a6de5b","properties":{"airport":"LFLJ","name":"LFLJ AVISO","layer":"Buildings and structures","category":"Buildings","object_type":"Area","style_id":"polygon.building.394446","source_group":"LFLJ AVISO","vsmr_group_ids":[],"geometry_role":"filled_region"},"geometry":{"type":"Polygon","coordinates":[[[6.635744444,45.399976111],[6.635798611,45.399912778],[6.635854722,45.399929722],[6.635788611,45.399994444],[6.635744444,45.399976111]]]}},{"type":"Feature","id":"LFLJ-801c32d49b15c5fa553f","properties":{"airport":"LFLJ","name":"LFLJ AVISO","layer":"Surface markings","category":"Red taxiway markings","object_type":"Area","style_id":"polygon.taxiwayred","source_group":"LFLJ AVISO","vsmr_group_ids":[],"geometry_role":"filled_region"},"geometry":{"type":"Polygon","coordinates":[[[6.635636111,45.395781111],[6.635615833,45.395771111],[6.6356025,45.395755278],[6.635593889,45.395739167],[6.635593889,45.395720556],[6.6356025,45.395703889],[6.635616667,45.395689444],[6.635640278,45.395676944],[6.635667778,45.3956725],[6.635694444,45.395674722],[6.635721111,45.395681667],[6.63574,45.395696111],[6.635753333,45.395716111],[6.635754167,45.395739167],[6.635744722,45.395758056],[6.635726667,45.395773889],[6.635705278,45.395783889],[6.635677778,45.395788889],[6.635656667,45.395787778],[6.635636111,45.395781111]]]}},{"type":"Feature","id":"LFLJ-9f6065e614fb6d1d39f5","properties":{"airport":"LFLJ","name":"LFLJ AVISO","layer":"Surface markings","category":"Stopbars","object_type":"Area","style_id":"polygon.stopbar.7e0000","source_group":"LFLJ AVISO","vsmr_group_ids":[],"geometry_role":"filled_region"},"geometry":{"type":"Polygon","coordinates":[[[6.632831111,45.396329722],[6.633484167,45.396801389],[6.633473611,45.396809444],[6.632829722,45.396341667],[6.632831111,45.396329722]]]}},{"type":"Feature","id":"LFLJ-f92eb710bba1894a902e","properties":{"airport":"LFLJ","name":"LFLJ AVISO","layer":"Surface markings","category":"Stopbars","object_type":"Area","style_id":"polygon.stopbar.7e0000","source_group":"LFLJ AVISO","vsmr_group_ids":[],"geometry_role":"filled_region"},"geometry":{"type":"Polygon","coordinates":[[[6.632908333,45.395625833],[6.632918611,45.395617222],[6.633316667,45.395908333],[6.633303056,45.395914444],[6.632908333,45.395625833]]]}},{"type":"Feature","id":"LFLJ-f6b859a0244961a37ef2","properties":{"airport":"LFLJ","name":"LFLJ AVISO","layer":"Airfield surfaces","category":"Grass runways","object_type":"Area","style_id":"polygon.runwaygrass.008000","source_group":"LFLJ AVISO","vsmr_group_ids":[],"geometry_role":"filled_region"},"geometry":{"type":"Polygon","coordinates":[[[6.636660278,45.395698889],[6.636023333,45.3964625],[6.635703056,45.396345556],[6.636348333,45.395566667],[6.636660278,45.395698889]]]}},{"type":"Feature","id":"LFLJ-42db5e17184e8fe45854","properties":{"airport":"LFLJ","name":"LFLJ AVISO","layer":"Airfield surfaces","category":"Runways","object_type":"Area","style_id":"polygon.runwayconcrete.555555","source_group":"LFLJ AVISO","vsmr_group_ids":[],"geometry_role":"filled_region"},"geometry":{"type":"Polygon","coordinates":[[[6.633941111,45.396449722],[6.633939167,45.396471944],[6.633944722,45.396498611],[6.633951389,45.396513611],[6.637597778,45.399163333],[6.637226667,45.399418056],[6.633570833,45.396763611],[6.633546389,45.396763611],[6.633528889,45.396766944],[6.633473333,45.396810278],[6.632826667,45.396341389],[6.632834722,45.396319167],[6.632838611,45.396293056],[6.632839722,45.396257778],[6.632829722,45.396231944],[6.632823889,45.396209167],[6.632816111,45.396197222],[6.632683333,45.396102222],[6.632450833,45.3959375],[6.632917222,45.395617778],[6.633995833,45.396410556],[6.633941111,45.396449722]]]}},{"type":"Feature","id":"LFLJ-4c221da8c5a9e0b3fa47","properties":{"airport":"LFLJ","name":"2","layer":"Labels","category":"Gates","object_type":"Label","style_id":"label.gates","source_group":"LFLJ Gates","vsmr_group_ids":[],"geometry_role":"text_label","text-field":"2"},"geometry":{"type":"Point","coordinates":[6.626305556,45.396527778]}},{"type":"Feature","id":"LFLJ-c268a6699e2d87c07375","properties":{"airport":"LFLJ","name":"1","layer":"Labels","category":"Gates","object_type":"Label","style_id":"label.gates","source_group":"LFLJ Gates","vsmr_group_ids":[],"geometry_role":"text_label","text-field":"1"},"geometry":{"type":"Point","coordinates":[6.624527778,45.398027778]}},{"type":"Feature","id":"LFLJ-031256507ce79a40e199","properties":{"airport":"LFLJ","name":"2","layer":"Labels","category":"Gates","object_type":"Label","style_id":"label.gates","source_group":"LFLJ Gates","vsmr_group_ids":[],"geometry_role":"text_label","text-field":"2"},"geometry":{"type":"Point","coordinates":[6.623888889,45.397638889]}},{"type":"Feature","id":"LFLJ-8410d8191610e5d16f37","properties":{"airport":"LFLJ","name":"3","layer":"Labels","category":"Gates","object_type":"Label","style_id":"label.gates","source_group":"LFLJ Gates","vsmr_group_ids":[],"geometry_role":"text_label","text-field":"3"},"geometry":{"type":"Point","coordinates":[6.624194444,45.397861111]}},{"type":"Feature","id":"LFLJ-e6868dc85d1f389a43bd","properties":{"airport":"LFLJ","name":"1","layer":"Labels","category":"Gates","object_type":"Label","style_id":"label.gates","source_group":"LFLJ Gates","vsmr_group_ids":[],"geometry_role":"text_label","text-field":"1"},"geometry":{"type":"Point","coordinates":[6.625638889,45.396222222]}},{"type":"Feature","id":"LFLJ-f46e0e9188d51bf101ba","properties":{"airport":"LFLJ","name":"LFLJ Groundlayout AVISO","layer":"Guidance lines","category":"gate","object_type":"Line","style_id":"line.gate","source_group":"LFLJ Groundlayout AVISO","vsmr_group_ids":[],"geometry_role":"linework"},"geometry":{"type":"MultiLineString","coordinates":[[[6.633463056,45.396790833],[6.6335175,45.396755278],[6.633533056,45.39675],[6.633553333,45.396745833],[6.633573611,45.396749444],[6.633594167,45.396759444],[6.637165833,45.399348056],[6.637517222,45.399113333],[6.633943333,45.396524167],[6.633934722,45.396511944],[6.633926111,45.396498889],[6.633920556,45.396483056],[6.633918889,45.396464722],[6.6339225,45.396443611],[6.633985833,45.396400556],[6.633311667,45.395911389]],[[6.632917778,45.395624722],[6.632461944,45.3959375],[6.632826944,45.3961975],[6.632843056,45.396211667],[6.632857778,45.396226944],[6.632863333,45.39624],[6.632866667,45.396247778]],[[6.633136944,45.396181389],[6.6334475,45.396406667]],[[6.633700556,45.396591111],[6.633963611,45.3967825]],[[6.634213333,45.396965],[6.634473889,45.3971525]],[[6.634727222,45.397335556],[6.634984167,45.397522222]],[[6.635234722,45.397705833],[6.635495278,45.397894167]],[[6.635746944,45.398075278],[6.636003056,45.398264167]],[[6.636257222,45.398445833],[6.636519444,45.398636111]],[[6.636339444,45.398635833],[6.636603333,45.398826111],[6.636623889,45.398806667],[6.636361667,45.398618333],[6.636339444,45.398635833]],[[6.636498889,45.398527222],[6.636764722,45.398718611],[6.636788056,45.398701667],[6.636523056,45.398510833],[6.636498889,45.398527222]],[[6.636929722,45.399082222],[6.637202778,45.399275833]],[[6.636958333,45.399060833],[6.637228611,45.399254444]],[[6.636986667,45.399041389],[6.637256944,45.399236944]],[[6.637015278,45.3990225],[6.637285556,45.3992175]],[[6.6370575,45.398994722],[6.637326111,45.399191111]],[[6.637083333,45.398976389],[6.637354444,45.399170833]],[[6.637110833,45.398958333],[6.637380278,45.399153889]],[[6.6371375,45.398938333],[6.637409722,45.399133889]],[[6.636779167,45.398864444],[6.636752222,45.398846389],[6.636714444,45.398873333],[6.636749444,45.3988975],[6.636857778,45.398918333],[6.636893611,45.398946944],[6.636854167,45.398973333]],[[6.636875,45.398797222],[6.636849722,45.398778056],[6.636809167,45.398808056],[6.636851389,45.398837778],[6.636952778,45.398851944],[6.636993889,45.398879722],[6.636948889,45.398907222]]]}},{"type":"Feature","id":"LFLJ-23c0ffad1b25540c7909","properties":{"airport":"LFLJ","name":"LFLJ Groundlayout AVISO","layer":"Guidance lines","category":"Red taxiway guidance lines","object_type":"Line","style_id":"line.taxiwayred","source_group":"LFLJ Groundlayout AVISO","vsmr_group_ids":[],"geometry_role":"linework"},"geometry":{"type":"MultiLineString","coordinates":[[[6.633950278,45.39633],[6.633961944,45.396307778]],[[6.633971389,45.396344444],[6.634016389,45.396268889]],[[6.633993611,45.396359444],[6.634072222,45.396231667]],[[6.634012778,45.396376389],[6.634128889,45.396194444]],[[6.6340325,45.396390278],[6.634181944,45.396158889]],[[6.634094444,45.396346667],[6.6342275,45.3961375]],[[6.634156389,45.396307778],[6.634251389,45.396154722]],[[6.634215278,45.396271389],[6.634276944,45.396171944]],[[6.634273889,45.396233333],[6.634302778,45.3961875]]]}},{"type":"Feature","id":"LFLJ-a1f34a4d9c6ad0a36964","properties":{"airport":"LFLJ","name":"LFLJ Groundlayout AVISO","layer":"Guidance lines","category":"Taxiways","object_type":"Line","style_id":"line.taxiway.c0b631","source_group":"LFLJ Groundlayout AVISO","vsmr_group_ids":[],"geometry_role":"linework"},"geometry":{"type":"MultiLineString","coordinates":[[[6.633219722,45.395638056],[6.6331925,45.395638611],[6.633169167,45.395640833],[6.633145,45.395646944],[6.633127222,45.395651944],[6.633113333,45.395655833],[6.633048056,45.395698889]],[[6.633016667,45.395718889],[6.632845,45.395836111],[6.632829167,45.395849444],[6.632816667,45.3958675],[6.632811667,45.395886667],[6.632811111,45.395908333],[6.632820278,45.395928611],[6.632833889,45.395948056],[6.632845278,45.395959167],[6.632887222,45.395988056]],[[6.632642222,45.395820556],[6.632878056,45.395994167]],[[6.636060556,45.395331389],[6.636025556,45.395321944],[6.635997222,45.3953],[6.635988611,45.395271389],[6.635997222,45.395241667],[6.636036111,45.395216389],[6.636085278,45.395210278],[6.636124167,45.395218889],[6.636151389,45.395244167],[6.636161111,45.395272778],[6.636145,45.395306667],[6.636104167,45.395327222],[6.636078611,45.395331944],[6.636060556,45.395331389]],[[6.635915833,45.395482778],[6.635892222,45.395474167],[6.635870278,45.395462222],[6.635859167,45.395445],[6.635855278,45.395415],[6.635863889,45.395395],[6.635888333,45.395375278],[6.635921389,45.395363889],[6.635962222,45.395365278],[6.636,45.395378611],[6.636020833,45.395399722],[6.636026667,45.395426389],[6.636018056,45.395453611],[6.635983889,45.395476944],[6.635948889,45.395485],[6.635915833,45.395482778]],[[6.63577,45.395633889],[6.635748333,45.3956225],[6.6357275,45.395606389],[6.635718889,45.395581389],[6.635725556,45.395550556],[6.635757778,45.395526111],[6.6357975,45.395514722],[6.635841944,45.395519444],[6.635873333,45.395534167],[6.635892222,45.3955625],[6.635893056,45.395595278],[6.635870278,45.395621111],[6.635831667,45.395637222],[6.635793611,45.395639167],[6.63577,45.395633889]],[[6.635641389,45.395788056],[6.635616667,45.395777222],[6.635598611,45.395758611],[6.635588333,45.395739444],[6.635592222,45.395713611],[6.6356025,45.395696111],[6.635628056,45.3956775],[6.635664167,45.395668889],[6.635698056,45.395671667],[6.635733056,45.395685556],[6.635753056,45.395704167],[6.635759722,45.395730833],[6.635753056,45.395756667],[6.635732222,45.395776111],[6.635702778,45.395788056],[6.635676389,45.3957925],[6.635641389,45.395788056]],[[6.635504167,45.395940833],[6.6354775,45.395928333],[6.635460556,45.395909722],[6.635453889,45.395887778],[6.635460556,45.395865],[6.635475556,45.3958425],[6.635504167,45.395825833],[6.635543889,45.395821944],[6.635581667,45.395829722],[6.635613889,45.395848333],[6.635627222,45.395879167],[6.6356225,45.395913056],[6.635586389,45.395938889],[6.6355525,45.395944722],[6.635527778,45.395946944],[6.635504167,45.395940833]],[[6.6353725,45.396095833],[6.635346111,45.396084444],[6.635327222,45.396065278],[6.635318611,45.396039167],[6.635330833,45.396007222],[6.635353611,45.395988611],[6.635389444,45.3959775],[6.6354275,45.395976111],[6.635464444,45.395988611],[6.63549,45.396010556],[6.635496389,45.396041111],[6.635486944,45.396070556],[6.635458611,45.396089722],[6.635419722,45.396099167],[6.635390556,45.396099167],[6.6353725,45.396095833]],[[6.635234167,45.396246111],[6.635203611,45.396231667],[6.635186111,45.396205556],[6.635186944,45.396176667],[6.635211111,45.396145278],[6.635248889,45.396133056],[6.635282778,45.396129722],[6.635320833,45.39614],[6.635348056,45.396158611],[6.635362222,45.3961825],[6.635357222,45.396215556],[6.635330833,45.396242222],[6.635291111,45.396251944],[6.635258889,45.396255],[6.635234167,45.396246111]],[[6.635087778,45.396395833],[6.635068056,45.396378611],[6.635058056,45.396355278],[6.635058889,45.3963275],[6.635082222,45.396300278],[6.635125,45.396283889],[6.635168056,45.396284444],[6.635200278,45.396296667],[6.635225833,45.396325],[6.635231667,45.396351111],[6.635218333,45.396379722],[6.635189444,45.396399444],[6.635150556,45.396406944],[6.6351225,45.396408611],[6.635102778,45.396402222],[6.635087778,45.396395833]],[[6.635055833,45.396541667],[6.635031667,45.396537778],[6.635008611,45.396526111],[6.634993333,45.3965125],[6.634986667,45.396496944],[6.634986111,45.396478056],[6.635,45.396458889],[6.6350225,45.396443056],[6.635055833,45.396434722],[6.63509,45.396438333],[6.635118611,45.396454167],[6.635137222,45.396475833],[6.635135,45.396505833],[6.635113611,45.396529444],[6.635082778,45.396540556],[6.635055833,45.396541667]],[[6.634947222,45.396675556],[6.634923611,45.396671111],[6.634904722,45.396662222],[6.634888611,45.396648333],[6.634881389,45.396633333],[6.634880833,45.396615833],[6.634888056,45.396599722],[6.634903611,45.396585833],[6.634923611,45.396574722],[6.634955278,45.396569167],[6.634982778,45.396573056],[6.6350075,45.396584444],[6.635026667,45.396603611],[6.6350325,45.396624167],[6.635024722,45.396646389],[6.635009167,45.396662778],[6.634984167,45.3966725],[6.634965278,45.396675833],[6.634947222,45.396675556]],[[6.635804444,45.397096944],[6.6357675,45.397092778],[6.635734167,45.397083611],[6.635704167,45.397067778],[6.635686667,45.397050833],[6.635674722,45.397026389],[6.635670833,45.397003611],[6.635673889,45.396978333],[6.635695833,45.396951389],[6.635723611,45.396929167],[6.6357675,45.396914167],[6.635811944,45.396910556],[6.635856389,45.396920556],[6.635897222,45.396941667],[6.635921944,45.396968889],[6.635934722,45.397005278],[6.635924167,45.397041389],[6.635890278,45.397075278],[6.635841389,45.397092778],[6.635804444,45.397096944]],[[6.6360575,45.397196944],[6.636028889,45.397191667],[6.635992778,45.397179444],[6.635961944,45.397159722],[6.635944444,45.397133611],[6.635937778,45.397105278],[6.635945833,45.397075278],[6.6359625,45.397048889],[6.636,45.397027222],[6.6360375,45.397015],[6.636083611,45.397012778],[6.636130556,45.397023889],[6.636168611,45.397045556],[6.6361975,45.397082222],[6.636201389,45.39712],[6.636183333,45.397155],[6.63615,45.39718],[6.636105,45.397195],[6.636076389,45.397197778],[6.6360575,45.397196944]],[[6.636333611,45.397297778],[6.636306944,45.397294444],[6.636276667,45.397286944],[6.636254167,45.397275833],[6.636236389,45.397261111],[6.636218056,45.397241667],[6.636210278,45.397218889],[6.636208611,45.397195833],[6.636216944,45.397173611],[6.636231111,45.397153611],[6.636257222,45.397133611],[6.636289722,45.397120278],[6.636326944,45.397112778],[6.636367222,45.397114444],[6.636406944,45.397125556],[6.636441389,45.397147778],[6.636465,45.397175556],[6.636472778,45.397209167],[6.636460278,45.397246667],[6.636434167,45.397270833],[6.636405833,45.397286667],[6.636370833,45.397295278],[6.636333611,45.397297778]],[[6.636634167,45.397333056],[6.636606944,45.397331944],[6.636574722,45.397324722],[6.636549444,45.397314167],[6.636529444,45.397300278],[6.636512222,45.397280556],[6.636502222,45.397259444],[6.6365,45.397238333],[6.636508333,45.397211389],[6.636522778,45.397189444],[6.63655,45.397168611],[6.636583611,45.397155833],[6.636618611,45.397150278],[6.636654722,45.39715],[6.636692222,45.397159167],[6.636725,45.397178333],[6.636748056,45.3972],[6.636760833,45.397228056],[6.636763056,45.397256389],[6.636745833,45.397289167],[6.636718333,45.397310833],[6.636681667,45.397327222],[6.636648056,45.397333333],[6.636634167,45.397333056]],[[6.636822222,45.397196111],[6.636785,45.397191111],[6.636749444,45.397179444],[6.636719722,45.397161944],[6.636697778,45.397133056],[6.636689167,45.397096111],[6.636705278,45.397058611],[6.636743333,45.397029444],[6.636799444,45.397011667],[6.636856944,45.397013333],[6.636896667,45.3970275],[6.636933333,45.397054444],[6.636952778,45.397089444],[6.636948333,45.39713],[6.636925556,45.397162778],[6.636885833,45.397185833],[6.636848611,45.397194722],[6.636822222,45.397196111]],[[6.6368,45.397006667],[6.636766389,45.397002222],[6.636730278,45.396992778],[6.636706944,45.396976944],[6.636685556,45.396958889],[6.636675833,45.396936389],[6.636670833,45.396915833],[6.636675833,45.39689],[6.636694167,45.396863889],[6.636723333,45.396841389],[6.636756111,45.3968275],[6.636803333,45.396821667],[6.636841389,45.396826389],[6.6368775,45.396838333],[6.636905,45.396857778],[6.636926667,45.396883333],[6.6369325,45.396911667],[6.6369325,45.396932778],[6.636917222,45.396961944],[6.636897222,45.396981667],[6.636861944,45.396998056],[6.63683,45.397004722],[6.6368,45.397006667]],[[6.6367775,45.396818611],[6.636754444,45.396817222],[6.636723056,45.396810556],[6.636693889,45.3967975],[6.636675833,45.396784722],[6.636660278,45.396771111],[6.636652222,45.396756389],[6.636645,45.396736944],[6.636646389,45.396714722],[6.636655,45.396693056],[6.636670556,45.396672778],[6.636693889,45.396653889],[6.636726944,45.396639167],[6.636757778,45.396633611],[6.636791667,45.3966325],[6.636821111,45.396638611],[6.636849444,45.396649722],[6.636876389,45.3966675],[6.636897778,45.396689722],[6.636907778,45.396716111],[6.636907778,45.396741667],[6.636893889,45.396769167],[6.636876389,45.396788056],[6.63685,45.396804167],[6.636817778,45.396815278],[6.636792778,45.396818611],[6.6367775,45.396818611]],[[6.636764444,45.396631111],[6.636734444,45.396629722],[6.636704722,45.396620833],[6.636676667,45.396608056],[6.636648889,45.396588611],[6.636635,45.396568333],[6.636633889,45.396541111],[6.636637778,45.396515],[6.636652778,45.396492778],[6.636681667,45.396471111],[6.636728611,45.396455556],[6.636777222,45.396454167],[6.636819167,45.396465556],[6.636854167,45.396484444],[6.636878056,45.396508889],[6.636885,45.396540278],[6.63688,45.396573056],[6.636858056,45.396599167],[6.636819167,45.39662],[6.636790278,45.396628333],[6.636764444,45.396631111]],[[6.636759444,45.396451667],[6.636732778,45.396449167],[6.636696667,45.396438333],[6.636677222,45.396427778],[6.636658611,45.396411944],[6.636644444,45.396393611],[6.6366375,45.396370833],[6.636640556,45.396346944],[6.636653056,45.396321944],[6.636674722,45.396300278],[6.636707778,45.396284444],[6.6367475,45.396276111],[6.636785556,45.396276111],[6.636821667,45.396285],[6.636847778,45.396299722],[6.636871944,45.396319722],[6.636884444,45.396345556],[6.636886944,45.396372222],[6.636881944,45.396395833],[6.636858333,45.396420833],[6.636833611,45.396436389],[6.636804722,45.396446111],[6.6367775,45.396451389],[6.636759444,45.396451667]],[[6.636316111,45.396793333],[6.636285833,45.396790556],[6.636253056,45.396782778],[6.6362275,45.3967725],[6.636204722,45.396760278],[6.636187222,45.396745556],[6.6361725,45.396728889],[6.636160556,45.396711389],[6.636154444,45.396691111],[6.636151944,45.396669167],[6.6361525,45.396650556],[6.636161944,45.396631111],[6.636176111,45.396609722],[6.636195278,45.396588333],[6.636225833,45.396569722],[6.636259167,45.396556111],[6.636305,45.396548611],[6.636351389,45.396549722],[6.6363925,45.396556667],[6.636429722,45.396574722],[6.636461944,45.396594722],[6.636479167,45.396619167],[6.636492778,45.396641944],[6.636497778,45.396671389],[6.636494167,45.396698889],[6.636476111,45.396728889],[6.636456111,45.396750278],[6.636430833,45.396766667],[6.636404167,45.396779722],[6.636373333,45.396788889],[6.636343333,45.396793333],[6.636316111,45.396793333]],[[6.6362925,45.3966875],[6.636331667,45.396643611]],[[6.636321111,45.396698333],[6.636360278,45.396655]],[[6.636311667,45.396665833],[6.63634,45.3966775]]]}},{"type":"Feature","id":"LFLJ-2059bbf544f5e34a126e","properties":{"airport":"LFLJ","name":"LFLJ Groundlayout","layer":"Guidance lines","category":"Taxiways","object_type":"Line","style_id":"line.taxiway.c0b631","source_group":"LFLJ Groundlayout","vsmr_group_ids":[],"geometry_role":"linework"},"geometry":{"type":"MultiLineString","coordinates":[[[6.626,45.396833333],[6.625305556,45.396583333]],[[6.626083333,45.396694444],[6.626,45.396833333]],[[6.624916667,45.39775],[6.624583333,45.397555556]],[[6.624805556,45.397833333],[6.624472222,45.397638889]],[[6.624916667,45.39775],[6.624805556,45.397833333]],[[6.624583333,45.397555556],[6.624305556,45.397388889]],[[6.624472222,45.397638889],[6.624111111,45.397388889]],[[6.624305556,45.397388889],[6.624583333,45.397138889]],[[6.624111111,45.397388889],[6.624472222,45.397083333]],[[6.624583333,45.397138889],[6.624694444,45.397055556]],[[6.624472222,45.397083333],[6.624583333,45.397]],[[6.62525,45.396416667],[6.625,45.396611111]],[[6.625305556,45.396583333],[6.625166667,45.396694444]],[[6.625,45.396611111],[6.624888889,45.396694444]],[[6.625166667,45.396694444],[6.625027778,45.396805556]]]}},{"type":"Feature","id":"LFLJ-7c9db3f12e3a13df15e0","properties":{"airport":"LFLJ","name":"LFLJ Groundlayout","layer":"Guidance lines","category":"Runways","object_type":"Line","style_id":"line.runwayconcrete.555555","source_group":"LFLJ Groundlayout","vsmr_group_ids":[],"geometry_role":"linework"},"geometry":{"type":"MultiLineString","coordinates":[[[6.629916667,45.399777778],[6.625027778,45.396805556]],[[6.629583333,45.400055556],[6.624694444,45.397055556]],[[6.629916667,45.399777778],[6.629583333,45.400055556]],[[6.624888889,45.396694444],[6.62475,45.396611111]],[[6.624583333,45.397],[6.624416667,45.396888889]],[[6.62475,45.396611111],[6.624416667,45.396888889]]]}},{"type":"Feature","id":"LFLJ-285a828d23e4ebf427ce","properties":{"airport":"LFLJ","name":"LFLJ Groundlayout","layer":"Guidance lines","category":"Apron Surface","object_type":"Line","style_id":"line.apronsurface.808080","source_group":"LFLJ Groundlayout","vsmr_group_ids":[],"geometry_role":"linework"},"geometry":{"type":"MultiLineString","coordinates":[[[6.625777778,45.395777778],[6.623305556,45.397833333],[6.624361111,45.398472222],[6.626888889,45.396388889]],[[6.625777778,45.395777778],[6.626888889,45.396388889]]]}}]}
