{"type":"FeatureCollection","name":"LFLU AVISO","bbox":[4.886541111,44.868150833,5.065968056,44.950466667],"metadata":{"schema":"vSMR AVISO","schema_version":2,"geometry_mode":"shared","airport":"LFLU","coordinate_reference_system":"WGS84","coordinate_order":"longitude, latitude","default_color_palette":"dark","color_palettes":["dark","light"],"background_colors":{"dark":"#434A4F","light":"#434A4F"},"runways":[{"ends":["01L","19R"],"headings":[6,186],"thresholds":[[4.969671944,44.915585833],[4.971702778,44.926213889]]},{"ends":["01","19"],"headings":[6,186],"thresholds":[[4.968538889,44.914496944],[4.971482778,44.929832778]]}],"saved_active_runways":[],"saved_active_airport_modes":[],"airport_reference":[4.968610833,44.915555833],"feature_count":25,"style_count":9,"layer_counts":{"Airfield surfaces":2,"Buildings and structures":10,"Guidance lines":4,"Labels":5,"Terrain":4},"category_counts":{"Apron Surface":1,"Buildings":10,"Gates":5,"Grass":4,"Hard Surface 2":2,"Runways":1,"Stopbars":1,"Taxiways":1},"geometry_source":"local GNG","geometry_source_url":"","geometry_license":"GPL-3.0"},"styles":{"line.taxiway.c0b631":{"name":"Taxiways","layer":"Guidance lines","object_type":"Line","paint":{"stroke":"#4E5A69","stroke-opacity":1,"stroke-width":1,"palette-overrides":{"light":{"stroke":"#C0B631"}}},"feature_count":1},"line.runwayconcrete.555555":{"name":"Runways","layer":"Guidance lines","object_type":"Line","paint":{"stroke":"#111318","stroke-opacity":1,"stroke-width":1,"palette-overrides":{"light":{"stroke":"#555555"}}},"feature_count":1},"line.apronsurface.808080":{"name":"Apron Surface","layer":"Guidance lines","object_type":"Line","paint":{"stroke":"#808080","stroke-opacity":1,"stroke-width":1,"palette-overrides":{"light":{"stroke":"#808080"}}},"feature_count":1},"label.gates":{"name":"Gates","layer":"Labels","object_type":"Label","paint":{"text-color":"#CCCCCC","text-font":"Arial","text-size":12,"text-halo-color":"#000000","text-halo-width":1,"text-anchor":"center","zoomLevel":9},"feature_count":5},"polygon.terrain2.868686":{"name":"Hard Surface 2","layer":"Airfield surfaces","object_type":"Area","paint":{"fill":"#2F3949","fill-opacity":1,"palette-overrides":{"light":{"fill":"#595E5B"}}},"feature_count":1},"polygon.hardsurface2.595e5b":{"name":"Hard Surface 2","layer":"Airfield surfaces","object_type":"Area","paint":{"fill":"#2F3949","fill-opacity":1,"palette-overrides":{"light":{"fill":"#595E5B"}}},"feature_count":1},"polygon.grassurface.00512f":{"name":"Grass","layer":"Terrain","object_type":"Area","paint":{"fill":"#010D19","fill-opacity":1,"palette-overrides":{"light":{"fill":"#00512F"}}},"feature_count":4},"polygon.building.394446":{"name":"Buildings","layer":"Buildings and structures","object_type":"Area","paint":{"fill":"#475570","fill-opacity":1,"palette-overrides":{"light":{"fill":"#394446"}}},"feature_count":10},"line.stopbar.7e0000":{"name":"Stopbars","layer":"Guidance lines","object_type":"Line","paint":{"stroke":"#7E0000","stroke-opacity":1,"stroke-width":1,"palette-overrides":{"light":{"stroke":"#7E0000"}}},"feature_count":1}},"vsmr_groups":[],"features":[{"type":"Feature","id":"LFLU-75ce83c7141c11140d82","properties":{"airport":"LFLU","name":"LFLU AVISO","layer":"Airfield surfaces","category":"Hard Surface 2","object_type":"Area","style_id":"polygon.terrain2.868686","source_group":"LFLU AVISO","vsmr_group_ids":[],"geometry_role":"filled_region"},"geometry":{"type":"Polygon","coordinates":[[[4.886541111,44.874970556],[5.056205278,44.868150833],[5.065968056,44.944506111],[4.899144167,44.950466667],[4.886541111,44.874970556]]]}},{"type":"Feature","id":"LFLU-5a108a9e1b5c045b361f","properties":{"airport":"LFLU","name":"LFLU AVISO","layer":"Airfield surfaces","category":"Hard Surface 2","object_type":"Area","style_id":"polygon.hardsurface2.595e5b","source_group":"LFLU AVISO","vsmr_group_ids":[],"geometry_role":"filled_region"},"geometry":{"type":"Polygon","coordinates":[[[4.971975556,44.930937778],[4.971428333,44.930978889],[4.971133611,44.930885833],[4.971007222,44.930770278],[4.970996667,44.9306025],[4.971101944,44.930479722],[4.971291389,44.930304722],[4.970900556,44.928324722],[4.97059,44.928239167],[4.970495278,44.928075278],[4.970474167,44.9279225],[4.970584722,44.927777222],[4.9707425,44.927564722],[4.969118611,44.918924722],[4.966723611,44.91915],[4.966606944,44.919235833],[4.966382778,44.919251667],[4.966547778,44.920526111],[4.965933333,44.920602222],[4.965569722,44.918970278],[4.965210556,44.917891944],[4.964905556,44.917110556],[4.965484167,44.917047222],[4.965488611,44.917104444],[4.965973611,44.917050278],[4.966031944,44.917415556],[4.966260556,44.917396389],[4.966274167,44.917444167],[4.966354722,44.917466389],[4.967184444,44.917390278],[4.966887222,44.915948889],[4.966788611,44.916031389],[4.966698889,44.916199722],[4.966649444,44.916409167],[4.965936389,44.916463333],[4.965637222,44.915074167],[4.964969167,44.91516],[4.964745,44.914572222],[4.965220278,44.914518333],[4.965242778,44.914683611],[4.965516389,44.914661389],[4.965137778,44.912688611],[4.965353056,44.912672778],[4.965303611,44.91246],[4.966035556,44.912406111],[4.966071389,44.912587222],[4.966286667,44.912615833],[4.967506389,44.912476111],[4.967533333,44.912355278],[4.967605,44.912285556],[4.967815833,44.912190278],[4.968389722,44.912139444],[4.971975556,44.930937778]]]}},{"type":"Feature","id":"LFLU-c4613089298773896664","properties":{"airport":"LFLU","name":"LFLU AVISO","layer":"Terrain","category":"Grass","object_type":"Area","style_id":"polygon.grassurface.00512f","source_group":"LFLU AVISO","vsmr_group_ids":[],"geometry_role":"filled_region"},"geometry":{"type":"Polygon","coordinates":[[[4.965753889,44.914711389],[4.965657222,44.914258889],[4.966267222,44.914190278],[4.966199444,44.913680833],[4.965666944,44.913704722],[4.965516667,44.912910278],[4.967608889,44.912711389],[4.967705556,44.912824722],[4.967855833,44.912903611],[4.967986389,44.912955],[4.968393056,44.915220556],[4.968291389,44.915395556],[4.967991111,44.915563611],[4.967807222,44.9155875],[4.967313056,44.915611667],[4.967143611,44.915577222],[4.966916111,44.915498333],[4.966886944,44.915405833],[4.966736944,44.914627222],[4.965753889,44.914711389]]]}},{"type":"Feature","id":"LFLU-42ffbc097ac66c671102","properties":{"airport":"LFLU","name":"LFLU AVISO","layer":"Terrain","category":"Grass","object_type":"Area","style_id":"polygon.grassurface.00512f","source_group":"LFLU AVISO","vsmr_group_ids":[],"geometry_role":"filled_region"},"geometry":{"type":"Polygon","coordinates":[[[4.968015278,44.915742778],[4.968153333,44.915764167],[4.968338611,44.915822222],[4.968467778,44.915901667],[4.9685625,44.916057222],[4.968786667,44.917236667],[4.967493889,44.917364722],[4.967381944,44.917364722],[4.9673,44.917346667],[4.9672525,44.917276389],[4.967004722,44.915915278],[4.967013333,44.915881667],[4.967030833,44.915851111],[4.968015278,44.915742778]]]}},{"type":"Feature","id":"LFLU-be52b1a8eaf04028181f","properties":{"airport":"LFLU","name":"LFLU AVISO","layer":"Terrain","category":"Grass","object_type":"Area","style_id":"polygon.grassurface.00512f","source_group":"LFLU AVISO","vsmr_group_ids":[],"geometry_role":"filled_region"},"geometry":{"type":"Polygon","coordinates":[[[4.968802778,44.917285278],[4.969100833,44.918813889],[4.969085278,44.918835556],[4.969023889,44.9188575],[4.967691389,44.918983611],[4.967636111,44.918961667],[4.967599167,44.918937778],[4.967565278,44.918883611],[4.967285833,44.917433333],[4.968802778,44.917285278]]]}},{"type":"Feature","id":"LFLU-67e57f64116a2cf15fde","properties":{"airport":"LFLU","name":"LFLU AVISO","layer":"Terrain","category":"Grass","object_type":"Area","style_id":"polygon.grassurface.00512f","source_group":"LFLU AVISO","vsmr_group_ids":[],"geometry_role":"filled_region"},"geometry":{"type":"Polygon","coordinates":[[[4.966275833,44.917613611],[4.966297222,44.917596389],[4.9663125,44.917561389],[4.966361667,44.917526667],[4.967190833,44.917441944],[4.967470278,44.918896667],[4.967457778,44.918970556],[4.967393333,44.919003056],[4.967325833,44.919018333],[4.966668611,44.919081389],[4.966610278,44.919066111],[4.966564444,44.9190075],[4.966306389,44.919066111],[4.966155833,44.918453056],[4.966122222,44.918361667],[4.966091389,44.918259444],[4.965935,44.917646389],[4.966275833,44.917613611]]]}},{"type":"Feature","id":"LFLU-811d45d4ba31b770d2c1","properties":{"airport":"LFLU","name":"LFLU AVISO","layer":"Buildings and structures","category":"Buildings","object_type":"Area","style_id":"polygon.building.394446","source_group":"LFLU AVISO","vsmr_group_ids":[],"geometry_role":"filled_region"},"geometry":{"type":"Polygon","coordinates":[[[4.965184167,44.919763333],[4.965757222,44.919715],[4.965957778,44.920515278],[4.966061944,44.920509444],[4.966077778,44.920600278],[4.965396667,44.920654167],[4.965184167,44.919763333]]]}},{"type":"Feature","id":"LFLU-bba2ab2440cdf22fc050","properties":{"airport":"LFLU","name":"LFLU AVISO","layer":"Buildings and structures","category":"Buildings","object_type":"Area","style_id":"polygon.building.394446","source_group":"LFLU AVISO","vsmr_group_ids":[],"geometry_role":"filled_region"},"geometry":{"type":"Polygon","coordinates":[[[4.965084167,44.919130556],[4.965621111,44.919053889],[4.965753333,44.919635556],[4.965208333,44.919678056],[4.965084167,44.919130556]]]}},{"type":"Feature","id":"LFLU-eac988a5b312d22f7288","properties":{"airport":"LFLU","name":"LFLU AVISO","layer":"Buildings and structures","category":"Buildings","object_type":"Area","style_id":"polygon.building.394446","source_group":"LFLU AVISO","vsmr_group_ids":[],"geometry_role":"filled_region"},"geometry":{"type":"Polygon","coordinates":[[[4.96504,44.919087222],[4.964839722,44.918502778],[4.965408611,44.918397778],[4.965585,44.919007778],[4.96504,44.919087222]]]}},{"type":"Feature","id":"LFLU-3ae8409795b0b43bb6f7","properties":{"airport":"LFLU","name":"LFLU AVISO","layer":"Buildings and structures","category":"Buildings","object_type":"Area","style_id":"polygon.building.394446","source_group":"LFLU AVISO","vsmr_group_ids":[],"geometry_role":"filled_region"},"geometry":{"type":"Polygon","coordinates":[[[4.964823611,44.918253056],[4.964739444,44.918028889],[4.965268611,44.917921111],[4.965420833,44.9183525],[4.965104167,44.918389167],[4.96504,44.918216111],[4.964823611,44.918253056]]]}},{"type":"Feature","id":"LFLU-7b87d01810314240faf1","properties":{"airport":"LFLU","name":"LFLU AVISO","layer":"Buildings and structures","category":"Buildings","object_type":"Area","style_id":"polygon.building.394446","source_group":"LFLU AVISO","vsmr_group_ids":[],"geometry_role":"filled_region"},"geometry":{"type":"Polygon","coordinates":[[[4.964672222,44.917499167],[4.964566944,44.917220556],[4.964656667,44.917209722],[4.964641389,44.917163611],[4.964950833,44.917106667],[4.965068611,44.917431111],[4.964672222,44.917499167]]]}},{"type":"Feature","id":"LFLU-c5bcfcde24e44b04222f","properties":{"airport":"LFLU","name":"LFLU AVISO","layer":"Buildings and structures","category":"Buildings","object_type":"Area","style_id":"polygon.building.394446","source_group":"LFLU AVISO","vsmr_group_ids":[],"geometry_role":"filled_region"},"geometry":{"type":"Polygon","coordinates":[[[4.9650375,44.917869722],[4.965019167,44.917757778],[4.964960278,44.917731667],[4.964932222,44.917687778],[4.965022222,44.917670278],[4.965022222,44.917641667],[4.964985,44.917648333],[4.964950833,44.917531944],[4.96518,44.917483889],[4.965235833,44.917681111],[4.965167778,44.917698611],[4.965201667,44.91785],[4.9650375,44.917869722]]]}},{"type":"Feature","id":"LFLU-5086abb49e0fad0b487f","properties":{"airport":"LFLU","name":"LFLU AVISO","layer":"Buildings and structures","category":"Buildings","object_type":"Area","style_id":"polygon.building.394446","source_group":"LFLU AVISO","vsmr_group_ids":[],"geometry_role":"filled_region"},"geometry":{"type":"Polygon","coordinates":[[[4.965053611,44.913516111],[4.964924167,44.9127475],[4.965128333,44.91273],[4.965287778,44.9134775],[4.965053611,44.913516111]]]}},{"type":"Feature","id":"LFLU-0e2945daddc969d32d07","properties":{"airport":"LFLU","name":"LFLU AVISO","layer":"Buildings and structures","category":"Buildings","object_type":"Area","style_id":"polygon.building.394446","source_group":"LFLU AVISO","vsmr_group_ids":[],"geometry_role":"filled_region"},"geometry":{"type":"Polygon","coordinates":[[[4.965073611,44.914210833],[4.965038611,44.914006389],[4.965133333,44.913992222],[4.965118333,44.913865278],[4.965372222,44.913826667],[4.965446944,44.914196667],[4.965521667,44.914683333],[4.965292778,44.914686944],[4.965228056,44.914531667],[4.964735,44.914566944],[4.964705,44.914260278],[4.965073611,44.914210833]]]}},{"type":"Feature","id":"LFLU-73201676b82fe3cb6024","properties":{"airport":"LFLU","name":"LFLU AVISO","layer":"Buildings and structures","category":"Buildings","object_type":"Area","style_id":"polygon.building.394446","source_group":"LFLU AVISO","vsmr_group_ids":[],"geometry_role":"filled_region"},"geometry":{"type":"Polygon","coordinates":[[[4.964705,44.915286389],[4.964580556,44.914930278],[4.964963889,44.914845556],[4.965083611,44.915215833],[4.964705,44.915286389]]]}},{"type":"Feature","id":"LFLU-b2b388b7d80b7bb904cb","properties":{"airport":"LFLU","name":"LFLU AVISO","layer":"Buildings and structures","category":"Buildings","object_type":"Area","style_id":"polygon.building.394446","source_group":"LFLU AVISO","vsmr_group_ids":[],"geometry_role":"filled_region"},"geometry":{"type":"Polygon","coordinates":[[[4.965148333,44.915279444],[4.965093333,44.915127778],[4.965606389,44.915074722],[4.965651111,44.915311111],[4.965422222,44.915335833],[4.965407222,44.915272222],[4.965148333,44.915279444]]]}},{"type":"Feature","id":"LFLU-2f7e4a4e4d32cd10f1e4","properties":{"airport":"LFLU","name":"1","layer":"Labels","category":"Gates","object_type":"Label","style_id":"label.gates","source_group":"LFLU Gates","vsmr_group_ids":[],"geometry_role":"text_label","text-field":"1"},"geometry":{"type":"Point","coordinates":[4.964861111,44.915611111]}},{"type":"Feature","id":"LFLU-2056b36e5431a2bae6ec","properties":{"airport":"LFLU","name":"2","layer":"Labels","category":"Gates","object_type":"Label","style_id":"label.gates","source_group":"LFLU Gates","vsmr_group_ids":[],"geometry_role":"text_label","text-field":"2"},"geometry":{"type":"Point","coordinates":[4.96525,44.915083333]}},{"type":"Feature","id":"LFLU-04785f39bad68d225a62","properties":{"airport":"LFLU","name":"3","layer":"Labels","category":"Gates","object_type":"Label","style_id":"label.gates","source_group":"LFLU Gates","vsmr_group_ids":[],"geometry_role":"text_label","text-field":"3"},"geometry":{"type":"Point","coordinates":[4.965694444,44.915027778]}},{"type":"Feature","id":"LFLU-d260edc54eb4ff34b98c","properties":{"airport":"LFLU","name":"4","layer":"Labels","category":"Gates","object_type":"Label","style_id":"label.gates","source_group":"LFLU Gates","vsmr_group_ids":[],"geometry_role":"text_label","text-field":"4"},"geometry":{"type":"Point","coordinates":[4.964944444,44.915944444]}},{"type":"Feature","id":"LFLU-0a8d89117417293243ed","properties":{"airport":"LFLU","name":"5","layer":"Labels","category":"Gates","object_type":"Label","style_id":"label.gates","source_group":"LFLU Gates","vsmr_group_ids":[],"geometry_role":"text_label","text-field":"5"},"geometry":{"type":"Point","coordinates":[4.965027778,44.916305556]}},{"type":"Feature","id":"LFLU-f110654a4fe9aaa122f8","properties":{"airport":"LFLU","name":"LFLU Groundlayout AVISO","layer":"Guidance lines","category":"Stopbars","object_type":"Line","style_id":"line.stopbar.7e0000","source_group":"LFLU Groundlayout AVISO","vsmr_group_ids":[],"geometry_role":"linework"},"geometry":{"type":"MultiLineString","coordinates":[[[4.967013333,44.912543889],[4.967053889,44.912758333]],[[4.967598889,44.915581389],[4.967635278,44.915775833]],[[4.967934444,44.917326667],[4.9679425,44.917366667]],[[4.968247222,44.918928333],[4.968255278,44.919]]]}},{"type":"Feature","id":"LFLU-4b6dfcb3dbb5cc684d94","properties":{"airport":"LFLU","name":"LFLU Groundlayout","layer":"Guidance lines","category":"Taxiways","object_type":"Line","style_id":"line.taxiway.c0b631","source_group":"LFLU Groundlayout","vsmr_group_ids":[],"geometry_role":"linework"},"geometry":{"type":"MultiLineString","coordinates":[[[4.969222222,44.9195],[4.968833333,44.919527778]],[[4.968777778,44.91925],[4.967444444,44.919388889]],[[4.968833333,44.919527778],[4.967333333,44.919666667]],[[4.967083333,44.919444444],[4.966055556,44.919527778]],[[4.967333333,44.919666667],[4.966111111,44.919805556]],[[4.966055556,44.919527778],[4.966111111,44.919805556]],[[4.967444444,44.919388889],[4.967083333,44.917722222]],[[4.967083333,44.919444444],[4.966694444,44.917777778]],[[4.967027778,44.917472222],[4.966666667,44.915916667]],[[4.966638889,44.9175],[4.966333333,44.916166667]],[[4.966666667,44.915916667],[4.966638889,44.915722222]],[[4.966277778,44.915861111],[4.96625,44.915777778]],[[4.966638889,44.915722222],[4.966611111,44.915583333]],[[4.96625,44.915777778],[4.966222222,44.915638889]],[[4.966527778,44.915333333],[4.966083333,44.913361111]],[[4.966166667,44.915361111],[4.965777778,44.913666667]],[[4.966083333,44.913361111],[4.964416667,44.913555556]],[[4.965777778,44.913666667],[4.964472222,44.913833333]],[[4.964416667,44.913555556],[4.964472222,44.913833333]],[[4.965638889,44.917888889],[4.966694444,44.917777778]],[[4.965583333,44.917611111],[4.966638889,44.9175]],[[4.965638889,44.917888889],[4.965583333,44.917611111]],[[4.967083333,44.917722222],[4.968444444,44.917583333]],[[4.967027778,44.917472222],[4.968388889,44.917305556]],[[4.968444444,44.917583333],[4.968833333,44.917555556]],[[4.968388889,44.917305556],[4.968777778,44.917277778]],[[4.966611111,44.915583333],[4.968055556,44.915444444]],[[4.966527778,44.915333333],[4.968,44.915166667]],[[4.968055556,44.915444444],[4.968416667,44.915388889]],[[4.968,44.915166667],[4.968361111,44.915138889]],[[4.965388889,44.915694444],[4.965861111,44.915666667]],[[4.965361111,44.915416667],[4.965805556,44.915388889]],[[4.965388889,44.915694444],[4.965361111,44.915416667]],[[4.965861111,44.915666667],[4.966222222,44.915638889]],[[4.965805556,44.915388889],[4.966166667,44.915361111]],[[4.965944444,44.916333333],[4.966333333,44.916166667]],[[4.96575,44.916111111],[4.966277778,44.915861111]],[[4.965944444,44.916333333],[4.96575,44.916111111]]]}},{"type":"Feature","id":"LFLU-7ae418db4998b0bcacab","properties":{"airport":"LFLU","name":"LFLU Groundlayout","layer":"Guidance lines","category":"Runways","object_type":"Line","style_id":"line.runwayconcrete.555555","source_group":"LFLU Groundlayout","vsmr_group_ids":[],"geometry_role":"linework"},"geometry":{"type":"MultiLineString","coordinates":[[[4.972722222,44.927722222],[4.970555556,44.916888889]],[[4.972138889,44.927777778],[4.97,44.916944444]],[[4.972722222,44.927722222],[4.972138889,44.927777778]],[[4.970555556,44.916888889],[4.97,44.916944444]],[[4.973305556,44.924027778],[4.9725,44.919972222]],[[4.972555556,44.924111111],[4.97175,44.920027778]],[[4.973305556,44.924027778],[4.972555556,44.924111111]],[[4.9725,44.919972222],[4.97175,44.920027778]],[[4.971972222,44.930916667],[4.96975,44.919305556]],[[4.971416667,44.930972222],[4.969222222,44.9195]],[[4.971972222,44.930916667],[4.971416667,44.930972222]],[[4.96975,44.919305556],[4.969361111,44.917361111]],[[4.969166667,44.919222222],[4.968833333,44.917555556]],[[4.969361111,44.917361111],[4.968972222,44.915194444]],[[4.968777778,44.917277778],[4.968416667,44.915388889]],[[4.968972222,44.915194444],[4.968388889,44.912222222]],[[4.968361111,44.915138889],[4.967833333,44.912277778]],[[4.968388889,44.912222222],[4.967833333,44.912277778]]]}},{"type":"Feature","id":"LFLU-b8bc348f60456317ce5d","properties":{"airport":"LFLU","name":"LFLU Groundlayout","layer":"Guidance lines","category":"Apron Surface","object_type":"Line","style_id":"line.apronsurface.808080","source_group":"LFLU Groundlayout","vsmr_group_ids":[],"geometry_role":"linework"},"geometry":{"type":"MultiLineString","coordinates":[[[4.966472222,44.916027778],[4.965777778,44.916472222],[4.964833333,44.916583333],[4.964361111,44.914555556],[4.964694444,44.9145],[4.964833333,44.914944444],[4.966222222,44.914777778]],[[4.966472222,44.916027778],[4.966222222,44.914777778]],[[4.963916667,44.913888889],[4.963805556,44.913472222],[4.964,44.913444444],[4.963888889,44.913055556],[4.964388889,44.913],[4.964583333,44.913805556]],[[4.963916667,44.913888889],[4.964583333,44.913805556]],[[4.965138889,44.917444444],[4.965555556,44.917416667],[4.965888889,44.917694444],[4.96575,44.918222222],[4.965333333,44.918277778]],[[4.965138889,44.917444444],[4.965333333,44.918277778]],[[4.965805556,44.919388889],[4.966138889,44.919361111],[4.966444444,44.919638889],[4.966277778,44.92],[4.965944444,44.920027778]],[[4.965805556,44.919388889],[4.965944444,44.920027778]],[[4.967944444,44.912277778],[4.967638889,44.912305556],[4.967444444,44.912416667],[4.967333333,44.912527778],[4.967333333,44.912694444],[4.967388889,44.912833333],[4.9675,44.912944444],[4.967666667,44.913],[4.967833333,44.913],[4.968055556,44.912972222]],[[4.967944444,44.912277778],[4.968055556,44.912972222]],[[4.970944444,44.927972222],[4.970666667,44.928],[4.970444444,44.928138889],[4.970361111,44.928333333],[4.970416667,44.928527778],[4.970583333,44.928694444],[4.970805556,44.928722222],[4.971083333,44.928722222]],[[4.970944444,44.927972222],[4.971083333,44.928722222]],[[4.9715,44.930972222],[4.971138889,44.930972222],[4.970916667,44.930916667],[4.970833333,44.930805556],[4.970777778,44.930666667],[4.970777778,44.930527778],[4.970861111,44.930388889],[4.971027778,44.930305556],[4.971361111,44.93025]],[[4.9715,44.930972222],[4.971361111,44.93025]]]}}]}
