{"type":"FeatureCollection","name":"LFMC AVISO","bbox":[6.296864444,43.301212778,6.568088889,43.425220556],"metadata":{"schema":"vSMR AVISO","schema_version":2,"geometry_mode":"shared","airport":"LFMC","coordinate_reference_system":"WGS84","coordinate_order":"longitude, latitude","default_color_palette":"dark","color_palettes":["dark","light"],"background_colors":{"dark":"#434A4F","light":"#434A4F"},"runways":[{"ends":["13","31"],"headings":[128,308],"thresholds":[[6.382796944,43.387080833],[6.393066944,43.380913889]]},{"ends":["09","27"],"headings":[86,266],"thresholds":[[6.378696944,43.384555833],[6.388468889,43.384705833]]}],"saved_active_runways":[],"saved_active_airport_modes":[],"airport_reference":[6.386943889,43.384721944],"feature_count":26,"style_count":6,"layer_counts":{"Airfield surfaces":2,"Buildings and structures":11,"Guidance lines":2,"Terrain":11},"category_counts":{"Buildings":11,"Grass":11,"Hard Surface 2":2,"Runways":1,"Stopbars":1},"geometry_source":"local GNG","geometry_source_url":"","geometry_license":"GPL-3.0"},"styles":{"line.runwayconcrete.555555":{"name":"Runways","layer":"Guidance lines","object_type":"Line","paint":{"stroke":"#111318","stroke-opacity":1,"stroke-width":1,"palette-overrides":{"light":{"stroke":"#555555"}}},"feature_count":1},"polygon.terrain2.868686":{"name":"Hard Surface 2","layer":"Airfield surfaces","object_type":"Area","paint":{"fill":"#2F3949","fill-opacity":1,"palette-overrides":{"light":{"fill":"#595E5B"}}},"feature_count":1},"polygon.hardsurface2.595e5b":{"name":"Hard Surface 2","layer":"Airfield surfaces","object_type":"Area","paint":{"fill":"#2F3949","fill-opacity":1,"palette-overrides":{"light":{"fill":"#595E5B"}}},"feature_count":1},"polygon.grassurface.00512f":{"name":"Grass","layer":"Terrain","object_type":"Area","paint":{"fill":"#010D19","fill-opacity":1,"palette-overrides":{"light":{"fill":"#00512F"}}},"feature_count":11},"polygon.building.394446":{"name":"Buildings","layer":"Buildings and structures","object_type":"Area","paint":{"fill":"#475570","fill-opacity":1,"palette-overrides":{"light":{"fill":"#394446"}}},"feature_count":11},"line.stopbar.7e0000":{"name":"Stopbars","layer":"Guidance lines","object_type":"Line","paint":{"stroke":"#7E0000","stroke-opacity":1,"stroke-width":1,"palette-overrides":{"light":{"stroke":"#7E0000"}}},"feature_count":1}},"vsmr_groups":[],"features":[{"type":"Feature","id":"LFMC-98dc240e767791f51da2","properties":{"airport":"LFMC","name":"LFMC AVISO","layer":"Airfield surfaces","category":"Hard Surface 2","object_type":"Area","style_id":"polygon.terrain2.868686","source_group":"LFMC AVISO","vsmr_group_ids":[],"geometry_role":"filled_region"},"geometry":{"type":"Polygon","coordinates":[[[6.296864444,43.301212778],[6.568088889,43.302635278],[6.561377222,43.423642778],[6.557842778,43.423281389],[6.299747222,43.425220556],[6.296864444,43.301212778]]]}},{"type":"Feature","id":"LFMC-4a8363573a538a5fd453","properties":{"airport":"LFMC","name":"LFMC AVISO","layer":"Airfield surfaces","category":"Hard Surface 2","object_type":"Area","style_id":"polygon.hardsurface2.595e5b","source_group":"LFMC AVISO","vsmr_group_ids":[],"geometry_role":"filled_region"},"geometry":{"type":"Polygon","coordinates":[[[6.378096667,43.388168889],[6.377844722,43.388136389],[6.3777825,43.388143056],[6.377761667,43.388166667],[6.3780225,43.388345556],[6.377651944,43.388485278],[6.376973333,43.388536944],[6.376724167,43.388508889],[6.376054444,43.388265556],[6.376356944,43.387877778],[6.376964444,43.388140833],[6.377252778,43.387902778],[6.377469167,43.388062222],[6.377498889,43.388038333],[6.377332778,43.387906944],[6.377092778,43.387704444],[6.377003889,43.3875925],[6.376970833,43.387518611],[6.376956111,43.387464722],[6.376961944,43.387406667],[6.376988889,43.387357222],[6.377033333,43.387324722],[6.377175556,43.387266667],[6.377548889,43.387189167],[6.377608333,43.387161111],[6.37762,43.387124444],[6.377590556,43.387079444],[6.377061389,43.3861375],[6.377221389,43.386083611],[6.378480556,43.385371944],[6.378566667,43.385298611],[6.378634722,43.385195278],[6.378661389,43.385091944],[6.378676389,43.384680556],[6.378586667,43.384685556],[6.3785925,43.384382778],[6.379217222,43.384391111],[6.379333056,43.384370278],[6.379408056,43.384345],[6.379466111,43.384303056],[6.379512222,43.384214722],[6.379518056,43.383663889],[6.379500833,43.383600833],[6.3794025,43.3835125],[6.3792925,43.383478889],[6.377568611,43.3834275],[6.377597778,43.382634444],[6.3773375,43.382626111],[6.377331667,43.382310833],[6.381568889,43.3823825],[6.383791389,43.3824375],[6.385845,43.382454167],[6.385960833,43.382433333],[6.386122222,43.382340833],[6.389187778,43.380434722],[6.392005278,43.378705278],[6.392025556,43.378892222],[6.391840833,43.379003056],[6.391957222,43.379315],[6.391876944,43.379344167],[6.392113889,43.380009444],[6.39043,43.381043056],[6.390369722,43.381118889],[6.390353611,43.381200556],[6.390369722,43.381276389],[6.390925278,43.3817825],[6.391073889,43.3818175],[6.391254444,43.381826111],[6.392945278,43.380790278],[6.393013333,43.3806825],[6.393097778,43.380565833],[6.393218056,43.380478056],[6.393294444,43.380402222],[6.393370556,43.380370278],[6.393591389,43.380390556],[6.393804167,43.380618333],[6.388352778,43.383987222],[6.389967222,43.385352222],[6.389975278,43.385405],[6.389875,43.3855275],[6.388201389,43.386553889],[6.384968056,43.387317778],[6.385024167,43.387463611],[6.3848275,43.387498611],[6.384703889,43.387171944],[6.384362778,43.3872625],[6.384306389,43.38714],[6.384639722,43.387055278],[6.3845475,43.386816111],[6.384370833,43.386533056],[6.384330556,43.386498056],[6.384254444,43.386492222],[6.381981944,43.387896389],[6.381971944,43.38793],[6.381971944,43.387961389],[6.381988333,43.388011944],[6.382084444,43.388108056],[6.382246667,43.388271667],[6.382283056,43.388346111],[6.382256389,43.3884375],[6.382133889,43.388536111],[6.3813,43.389026667],[6.381203889,43.389065278],[6.381134444,43.3890725],[6.381028611,43.389060556],[6.380919444,43.389026667],[6.380341389,43.388551111],[6.378096667,43.388168889]]]}},{"type":"Feature","id":"LFMC-1751619e5de898593193","properties":{"airport":"LFMC","name":"LFMC AVISO","layer":"Terrain","category":"Grass","object_type":"Area","style_id":"polygon.grassurface.00512f","source_group":"LFMC AVISO","vsmr_group_ids":[],"geometry_role":"filled_region"},"geometry":{"type":"Polygon","coordinates":[[[6.379703056,43.383666111],[6.379745833,43.383594167],[6.379785,43.3835575],[6.379855833,43.383518333],[6.379956667,43.383485833],[6.380033056,43.383473611],[6.381108889,43.383498056],[6.381183333,43.383516944],[6.381256111,43.383545556],[6.381336111,43.383606389],[6.381406944,43.383681111],[6.38142,43.383738056],[6.381395833,43.384223056],[6.381373333,43.384277222],[6.3813175,43.384349167],[6.381239167,43.384401944],[6.381132778,43.384426389],[6.380008611,43.384400556],[6.379926667,43.384399167],[6.379827778,43.384358333],[6.379740278,43.384293333],[6.379710278,43.384235],[6.379688056,43.384164722],[6.379695556,43.383843611],[6.379703056,43.383666111]]]}},{"type":"Feature","id":"LFMC-e87ece580c2079ebe894","properties":{"airport":"LFMC","name":"LFMC AVISO","layer":"Terrain","category":"Grass","object_type":"Area","style_id":"polygon.grassurface.00512f","source_group":"LFMC AVISO","vsmr_group_ids":[],"geometry_role":"filled_region"},"geometry":{"type":"Polygon","coordinates":[[[6.381613611,43.383668333],[6.381624722,43.383630278],[6.381673333,43.383586944],[6.381781389,43.383546389],[6.381898889,43.3835125],[6.382635278,43.383513889],[6.382748889,43.383528611],[6.382875833,43.383566667],[6.382944722,43.383631667],[6.382976389,43.383692778],[6.382961389,43.384280278],[6.382942778,43.384329167],[6.382911111,43.384383333],[6.382812222,43.38444],[6.382689167,43.384464444],[6.381921111,43.384445556],[6.381816667,43.384430556],[6.381716111,43.384387222],[6.381637778,43.3843275],[6.381594722,43.384258611],[6.381585556,43.384192222],[6.381593056,43.384019722],[6.381613611,43.383668333]]]}},{"type":"Feature","id":"LFMC-f9639d14bb2528782437","properties":{"airport":"LFMC","name":"LFMC AVISO","layer":"Terrain","category":"Grass","object_type":"Area","style_id":"polygon.grassurface.00512f","source_group":"LFMC AVISO","vsmr_group_ids":[],"geometry_role":"filled_region"},"geometry":{"type":"Polygon","coordinates":[[[6.383156111,43.383712222],[6.383164167,43.383684444],[6.383186111,43.383641944],[6.383218333,43.3836025],[6.383270833,43.383557222],[6.383363333,43.383511944],[6.383415556,43.383500278],[6.385416111,43.3835325],[6.385462222,43.383538333],[6.385532778,43.383573333],[6.385607222,43.3836275],[6.385671667,43.383707778],[6.385691667,43.383786944],[6.385675556,43.384320278],[6.385649444,43.384383056],[6.385603056,43.384437222],[6.385488333,43.384492778],[6.385385833,43.384511944],[6.383453611,43.384474444],[6.383401389,43.384474444],[6.383319444,43.384451667],[6.383246667,43.384410833],[6.383187222,43.3843525],[6.383140556,43.384252222],[6.383156111,43.383712222]]]}},{"type":"Feature","id":"LFMC-f0f5015c6fab117c18d4","properties":{"airport":"LFMC","name":"LFMC AVISO","layer":"Terrain","category":"Grass","object_type":"Area","style_id":"polygon.grassurface.00512f","source_group":"LFMC AVISO","vsmr_group_ids":[],"geometry_role":"filled_region"},"geometry":{"type":"Polygon","coordinates":[[[6.385919722,43.382916667],[6.385925278,43.382887778],[6.385979444,43.382860833],[6.386042222,43.382835833],[6.386213056,43.382778056],[6.386395556,43.382711667],[6.386993889,43.383225278],[6.387070833,43.383279167],[6.387224722,43.383320556],[6.387654722,43.383637222],[6.387711667,43.383730556],[6.387740278,43.383800833],[6.387760278,43.383885833],[6.3877375,43.383964444],[6.387691944,43.384030833],[6.386836944,43.384536111],[6.386113333,43.384517222],[6.386019444,43.384505],[6.385931111,43.384440833],[6.385874167,43.384364167],[6.385854167,43.384275],[6.385876944,43.3838525],[6.385919722,43.382916667]]]}},{"type":"Feature","id":"LFMC-b2ff02b1fa539c2bc8ab","properties":{"airport":"LFMC","name":"LFMC AVISO","layer":"Terrain","category":"Grass","object_type":"Area","style_id":"polygon.grassurface.00512f","source_group":"LFMC AVISO","vsmr_group_ids":[],"geometry_role":"filled_region"},"geometry":{"type":"Polygon","coordinates":[[[6.388783889,43.382071944],[6.388860833,43.382063611],[6.388974722,43.382073889],[6.389080278,43.3820925],[6.389196944,43.382148611],[6.389644444,43.382550278],[6.389678611,43.382628889],[6.389675833,43.382699167],[6.389655833,43.382784167],[6.389598889,43.382869167],[6.388350833,43.383637222],[6.388259722,43.383682778],[6.388097222,43.3836975],[6.387994722,43.383695278],[6.387880833,43.383647778],[6.387775278,43.383564722],[6.387359444,43.38319],[6.387328056,43.383131944],[6.387319444,43.383030556],[6.387319444,43.382980833],[6.387350833,43.382943611],[6.387430556,43.382885556],[6.388783889,43.382071944]]]}},{"type":"Feature","id":"LFMC-ad17dc5af9b56f0db635","properties":{"airport":"LFMC","name":"LFMC AVISO","layer":"Terrain","category":"Grass","object_type":"Area","style_id":"polygon.grassurface.00512f","source_group":"LFMC AVISO","vsmr_group_ids":[],"geometry_role":"filled_region"},"geometry":{"type":"Polygon","coordinates":[[[6.389906389,43.381365833],[6.389932222,43.381365833],[6.390080278,43.38137],[6.390165833,43.381386389],[6.390291111,43.3814425],[6.390738333,43.381833611],[6.390806667,43.381918611],[6.390803889,43.382026389],[6.390761111,43.382150556],[6.39018,43.382508889],[6.390091667,43.382519167],[6.389966389,43.3825275],[6.389880833,43.3825025],[6.389795278,43.382469444],[6.389288333,43.382042778],[6.389256944,43.381985],[6.389245556,43.381922778],[6.389251111,43.381821389],[6.389271111,43.381777778],[6.389353611,43.381711667],[6.389906389,43.381365833]]]}},{"type":"Feature","id":"LFMC-6a9fa3954b247ec7ec0b","properties":{"airport":"LFMC","name":"LFMC AVISO","layer":"Terrain","category":"Grass","object_type":"Area","style_id":"polygon.grassurface.00512f","source_group":"LFMC AVISO","vsmr_group_ids":[],"geometry_role":"filled_region"},"geometry":{"type":"Polygon","coordinates":[[[6.3858275,43.385186667],[6.385848611,43.384794722],[6.386450833,43.384801389],[6.3858275,43.385186667]]]}},{"type":"Feature","id":"LFMC-258548af9ba758ee961e","properties":{"airport":"LFMC","name":"LFMC AVISO","layer":"Terrain","category":"Grass","object_type":"Area","style_id":"polygon.grassurface.00512f","source_group":"LFMC AVISO","vsmr_group_ids":[],"geometry_role":"filled_region"},"geometry":{"type":"Polygon","coordinates":[[[6.385646944,43.384790278],[6.385633333,43.385106111],[6.385616944,43.385195],[6.385600833,43.38527],[6.385551944,43.385351111],[6.384286667,43.386121944],[6.384229722,43.3861575],[6.384099167,43.386163333],[6.3839825,43.386161389],[6.383898056,43.386127778],[6.381743333,43.384879444],[6.381691667,43.384843889],[6.381675556,43.3848025],[6.381661944,43.384753056],[6.381664722,43.384701944],[6.385646944,43.384790278]]]}},{"type":"Feature","id":"LFMC-70b9131a88fefd237644","properties":{"airport":"LFMC","name":"LFMC AVISO","layer":"Terrain","category":"Grass","object_type":"Area","style_id":"polygon.grassurface.00512f","source_group":"LFMC AVISO","vsmr_group_ids":[],"geometry_role":"filled_region"},"geometry":{"type":"Polygon","coordinates":[[[6.3813275,43.388362778],[6.381384722,43.388292222],[6.381384722,43.388231111],[6.381680556,43.388065833],[6.381773333,43.388064444],[6.381839722,43.388088333],[6.382053889,43.388255278],[6.382075833,43.388333889],[6.382064722,43.388380556],[6.382005278,43.388430278],[6.38125,43.388919444],[6.381186111,43.388938889],[6.381113056,43.388938889],[6.381026944,43.388921111],[6.380905556,43.388818333],[6.380874722,43.388746111],[6.380883611,43.388704444],[6.380901111,43.388673889],[6.3813275,43.388362778]]]}},{"type":"Feature","id":"LFMC-f902e59f72d2fb0496fd","properties":{"airport":"LFMC","name":"LFMC AVISO","layer":"Terrain","category":"Grass","object_type":"Area","style_id":"polygon.grassurface.00512f","source_group":"LFMC AVISO","vsmr_group_ids":[],"geometry_role":"filled_region"},"geometry":{"type":"Polygon","coordinates":[[[6.377645,43.387196667],[6.377656111,43.387180556],[6.377671944,43.387147778],[6.377674167,43.387121667],[6.377674167,43.387085556],[6.377440278,43.386736389],[6.377161389,43.386207778],[6.377156944,43.386185],[6.377426944,43.386033056],[6.378537222,43.385410833],[6.378636111,43.385335833],[6.378712778,43.385249167],[6.378746389,43.385160833],[6.378780833,43.384783611],[6.378783056,43.384656111],[6.381061111,43.384696389],[6.381121389,43.384701111],[6.381205278,43.384708889],[6.3812675,43.384730833],[6.3812675,43.384773056],[6.381246111,43.384762222],[6.381153611,43.384837222],[6.381558056,43.3850625],[6.381665556,43.384962222],[6.383698333,43.386131944],[6.383743889,43.386165],[6.383787222,43.386214722],[6.3838075,43.386279167],[6.38381,43.386345278],[6.383778056,43.386411389],[6.383739444,43.386464444],[6.380644722,43.388380833],[6.380557778,43.388420833],[6.380454722,43.388448889],[6.380371111,43.388448889],[6.380239167,43.388434722],[6.377527222,43.388003611],[6.377305,43.387828056],[6.377115,43.387666389],[6.377021667,43.387547222],[6.377005556,43.387479167],[6.377008889,43.387430278],[6.3770475,43.387373889],[6.377121667,43.387329444],[6.3772375,43.387289722],[6.377588333,43.387224167],[6.377645,43.387196667]]]}},{"type":"Feature","id":"LFMC-79ad6430460897e2172e","properties":{"airport":"LFMC","name":"LFMC AVISO","layer":"Terrain","category":"Grass","object_type":"Area","style_id":"polygon.grassurface.00512f","source_group":"LFMC AVISO","vsmr_group_ids":[],"geometry_role":"filled_region"},"geometry":{"type":"Polygon","coordinates":[[[6.386665833,43.385018056],[6.386760556,43.385081111],[6.387200833,43.384823889],[6.388501944,43.384831667],[6.388512778,43.384560556],[6.3876375,43.384545],[6.387548333,43.384458611],[6.388145278,43.384101111],[6.388312778,43.384226944],[6.3884425,43.384161944],[6.388477778,43.384183611],[6.388588333,43.384240556],[6.389401667,43.384945556],[6.389385556,43.385017222],[6.3893125,43.385058611],[6.389234167,43.385105833],[6.388920556,43.385740278],[6.388834167,43.385726667],[6.388726111,43.385701111],[6.388582778,43.385695278],[6.388590833,43.385489167],[6.388336944,43.385489167],[6.387237222,43.385459722],[6.386975,43.385630556],[6.387226389,43.385811111],[6.387226389,43.385919167],[6.388461111,43.385940833],[6.388012778,43.386343333],[6.387043056,43.386564167],[6.386959722,43.386541111],[6.385793889,43.386821944],[6.385697778,43.386894167],[6.384857222,43.387079722],[6.384518611,43.386334167],[6.386665833,43.385018056]]]}},{"type":"Feature","id":"LFMC-5addf08837d6c7844ef7","properties":{"airport":"LFMC","name":"LFMC AVISO","layer":"Buildings and structures","category":"Buildings","object_type":"Area","style_id":"polygon.building.394446","source_group":"LFMC AVISO","vsmr_group_ids":[],"geometry_role":"filled_region"},"geometry":{"type":"Polygon","coordinates":[[[6.376020556,43.388233889],[6.376736389,43.388521667],[6.376521111,43.388803333],[6.375796944,43.388525278],[6.376020556,43.388233889]]]}},{"type":"Feature","id":"LFMC-2434f3a4eeb4c0bfd14b","properties":{"airport":"LFMC","name":"LFMC AVISO","layer":"Buildings and structures","category":"Buildings","object_type":"Area","style_id":"polygon.building.394446","source_group":"LFMC AVISO","vsmr_group_ids":[],"geometry_role":"filled_region"},"geometry":{"type":"Polygon","coordinates":[[[6.377116111,43.388875833],[6.377059444,43.388546944],[6.377678611,43.388478611],[6.377724444,43.388823056],[6.377116111,43.388875833]]]}},{"type":"Feature","id":"LFMC-93983e58ae1bd3b08b0f","properties":{"airport":"LFMC","name":"LFMC AVISO","layer":"Buildings and structures","category":"Buildings","object_type":"Area","style_id":"polygon.building.394446","source_group":"LFMC AVISO","vsmr_group_ids":[],"geometry_role":"filled_region"},"geometry":{"type":"Polygon","coordinates":[[[6.377757222,43.382307778],[6.377778056,43.382038056],[6.380313333,43.382083889],[6.380313333,43.382361111],[6.377757222,43.382307778]]]}},{"type":"Feature","id":"LFMC-4841a7a22a5f189c608d","properties":{"airport":"LFMC","name":"LFMC AVISO","layer":"Buildings and structures","category":"Buildings","object_type":"Area","style_id":"polygon.building.394446","source_group":"LFMC AVISO","vsmr_group_ids":[],"geometry_role":"filled_region"},"geometry":{"type":"Polygon","coordinates":[[[6.380501667,43.382352778],[6.380508611,43.382041111],[6.381813056,43.382063889],[6.381827222,43.381866111],[6.382325833,43.381876389],[6.382311944,43.382391111],[6.380501667,43.382352778]]]}},{"type":"Feature","id":"LFMC-92098811bef38172caff","properties":{"airport":"LFMC","name":"LFMC AVISO","layer":"Buildings and structures","category":"Buildings","object_type":"Area","style_id":"polygon.building.394446","source_group":"LFMC AVISO","vsmr_group_ids":[],"geometry_role":"filled_region"},"geometry":{"type":"Polygon","coordinates":[[[6.382489722,43.383156667],[6.382524722,43.382527778],[6.382876944,43.382533056],[6.382863056,43.383166667],[6.382489722,43.383156667]]]}},{"type":"Feature","id":"LFMC-37801eb526904744da3e","properties":{"airport":"LFMC","name":"LFMC AVISO","layer":"Buildings and structures","category":"Buildings","object_type":"Area","style_id":"polygon.building.394446","source_group":"LFMC AVISO","vsmr_group_ids":[],"geometry_role":"filled_region"},"geometry":{"type":"Polygon","coordinates":[[[6.382444444,43.382403611],[6.382448056,43.382025833],[6.383323611,43.382033611],[6.383299167,43.382411389],[6.382444444,43.382403611]]]}},{"type":"Feature","id":"LFMC-d112fe12a944cd87f362","properties":{"airport":"LFMC","name":"LFMC AVISO","layer":"Buildings and structures","category":"Buildings","object_type":"Area","style_id":"polygon.building.394446","source_group":"LFMC AVISO","vsmr_group_ids":[],"geometry_role":"filled_region"},"geometry":{"type":"Polygon","coordinates":[[[6.3837525,43.382423889],[6.383773333,43.382053889],[6.384655833,43.382079167],[6.384638611,43.382444444],[6.3837525,43.382423889]]]}},{"type":"Feature","id":"LFMC-c853c926b421d79bb8b9","properties":{"airport":"LFMC","name":"LFMC AVISO","layer":"Buildings and structures","category":"Buildings","object_type":"Area","style_id":"polygon.building.394446","source_group":"LFMC AVISO","vsmr_group_ids":[],"geometry_role":"filled_region"},"geometry":{"type":"Polygon","coordinates":[[[6.386093056,43.382322778],[6.385803611,43.382071667],[6.386480278,43.381623056],[6.3867975,43.381899444],[6.386093056,43.382322778]]]}},{"type":"Feature","id":"LFMC-dce5a3bb1362358f17c5","properties":{"airport":"LFMC","name":"LFMC AVISO","layer":"Buildings and structures","category":"Buildings","object_type":"Area","style_id":"polygon.building.394446","source_group":"LFMC AVISO","vsmr_group_ids":[],"geometry_role":"filled_region"},"geometry":{"type":"Polygon","coordinates":[[[6.387366111,43.381567222],[6.386888333,43.381169167],[6.388751111,43.380031111],[6.389221944,43.380431667],[6.387366111,43.381567222]]]}},{"type":"Feature","id":"LFMC-407b80aadea16e712f2c","properties":{"airport":"LFMC","name":"LFMC AVISO","layer":"Buildings and structures","category":"Buildings","object_type":"Area","style_id":"polygon.building.394446","source_group":"LFMC AVISO","vsmr_group_ids":[],"geometry_role":"filled_region"},"geometry":{"type":"Polygon","coordinates":[[[6.389301944,43.380337778],[6.389166111,43.380226111],[6.389253333,43.380175556],[6.389054444,43.380000556],[6.389853056,43.379518889],[6.390191389,43.379815556],[6.389301944,43.380337778]]]}},{"type":"Feature","id":"LFMC-950c956ca5c39bc7b20b","properties":{"airport":"LFMC","name":"LFMC AVISO","layer":"Buildings and structures","category":"Buildings","object_type":"Area","style_id":"polygon.building.394446","source_group":"LFMC AVISO","vsmr_group_ids":[],"geometry_role":"filled_region"},"geometry":{"type":"Polygon","coordinates":[[[6.390456667,43.379660833],[6.390107778,43.379359167],[6.390896111,43.3788725],[6.391244722,43.379186667],[6.390456667,43.379660833]]]}},{"type":"Feature","id":"LFMC-ed655265ac0261a06c42","properties":{"airport":"LFMC","name":"LFMC Groundlayout AVISO","layer":"Guidance lines","category":"Stopbars","object_type":"Line","style_id":"line.stopbar.7e0000","source_group":"LFMC Groundlayout AVISO","vsmr_group_ids":[],"geometry_role":"linework"},"geometry":{"type":"MultiLineString","coordinates":[[[6.379493611,43.38385],[6.379692222,43.383858333]],[[6.381410278,43.38389],[6.3816,43.383891944]],[[6.382949722,43.383913056],[6.383151111,43.383915]],[[6.385675833,43.383981944],[6.385866111,43.383988333]],[[6.387555278,43.383577778],[6.387699444,43.383489722]],[[6.389345278,43.382306111],[6.389503889,43.382213889]],[[6.390466667,43.381614722],[6.390619444,43.381516389]],[[6.377483333,43.388056944],[6.3776725,43.388189167]],[[6.378286389,43.38821],[6.378318333,43.388121667]]]}},{"type":"Feature","id":"LFMC-1bb3e2c8d389f0643b25","properties":{"airport":"LFMC","name":"LFMC Groundlayout","layer":"Guidance lines","category":"Runways","object_type":"Line","style_id":"line.runwayconcrete.555555","source_group":"LFMC Groundlayout","vsmr_group_ids":[],"geometry_role":"linework"},"geometry":{"type":"MultiLineString","coordinates":[[[6.381527778,43.385833333],[6.391638889,43.379611111]],[[6.384472222,43.388388889],[6.381527778,43.385833333]],[[6.394555556,43.382166667],[6.391638889,43.379611111]],[[6.378527778,43.386166667],[6.388444444,43.386361111]],[[6.378666667,43.382833333],[6.388555556,43.383027778]],[[6.378527778,43.386166667],[6.378666667,43.382833333]],[[6.388444444,43.386361111],[6.388555556,43.383027778]]]}}]}
