{"type":"FeatureCollection","name":"LFMH AVISO","bbox":[4.236530833,45.45831,4.387041944,45.573411111],"metadata":{"schema":"vSMR AVISO","schema_version":2,"geometry_mode":"shared","airport":"LFMH","coordinate_reference_system":"WGS84","coordinate_order":"longitude, latitude","default_color_palette":"dark","color_palettes":["dark","light"],"background_colors":{"dark":"#434A4F","light":"#434A4F"},"runways":[{"ends":["17","35"],"headings":[173,353],"thresholds":[[4.295482778,45.548505833],[4.297563889,45.532066944]]}],"saved_active_runways":[],"saved_active_airport_modes":[],"airport_reference":[4.297221944,45.534166944],"feature_count":27,"style_count":10,"layer_counts":{"Airfield surfaces":2,"Buildings and structures":5,"Guidance lines":4,"Labels":14,"Terrain":2},"category_counts":{"Apron Surface":1,"Buildings":5,"Gates":8,"Grass":2,"Hard Surface 2":2,"Runways":1,"Stopbars":1,"Taxiways":7},"geometry_source":"local GNG","geometry_source_url":"","geometry_license":"GPL-3.0"},"styles":{"line.taxiway.c0b631":{"name":"Taxiways","layer":"Guidance lines","object_type":"Line","paint":{"stroke":"#4E5A69","stroke-opacity":1,"stroke-width":1,"palette-overrides":{"light":{"stroke":"#C0B631"}}},"feature_count":1},"line.runwayconcrete.555555":{"name":"Runways","layer":"Guidance lines","object_type":"Line","paint":{"stroke":"#111318","stroke-opacity":1,"stroke-width":1,"palette-overrides":{"light":{"stroke":"#555555"}}},"feature_count":1},"line.apronsurface.808080":{"name":"Apron Surface","layer":"Guidance lines","object_type":"Line","paint":{"stroke":"#808080","stroke-opacity":1,"stroke-width":1,"palette-overrides":{"light":{"stroke":"#808080"}}},"feature_count":1},"label.gates":{"name":"Gates","layer":"Labels","object_type":"Label","paint":{"text-color":"#CCCCCC","text-font":"Arial","text-size":12,"text-halo-color":"#000000","text-halo-width":1,"text-anchor":"center","zoomLevel":9},"feature_count":8},"label.taxiways":{"name":"Taxiways","layer":"Labels","object_type":"Label","paint":{"text-color":"#CCCCCC","text-font":"Arial","text-size":12,"text-halo-color":"#000000","text-halo-width":1,"text-anchor":"center","zoomLevel":7},"feature_count":6},"polygon.terrain2.868686":{"name":"Hard Surface 2","layer":"Airfield surfaces","object_type":"Area","paint":{"fill":"#2F3949","fill-opacity":1,"palette-overrides":{"light":{"fill":"#595E5B"}}},"feature_count":1},"polygon.hardsurface2.595e5b":{"name":"Hard Surface 2","layer":"Airfield surfaces","object_type":"Area","paint":{"fill":"#2F3949","fill-opacity":1,"palette-overrides":{"light":{"fill":"#595E5B"}}},"feature_count":1},"polygon.grassurface.00512f":{"name":"Grass","layer":"Terrain","object_type":"Area","paint":{"fill":"#010D19","fill-opacity":1,"palette-overrides":{"light":{"fill":"#00512F"}}},"feature_count":2},"polygon.building.394446":{"name":"Buildings","layer":"Buildings and structures","object_type":"Area","paint":{"fill":"#475570","fill-opacity":1,"palette-overrides":{"light":{"fill":"#394446"}}},"feature_count":5},"line.stopbar.7e0000":{"name":"Stopbars","layer":"Guidance lines","object_type":"Line","paint":{"stroke":"#7E0000","stroke-opacity":1,"stroke-width":1,"palette-overrides":{"light":{"stroke":"#7E0000"}}},"feature_count":1}},"vsmr_groups":[],"features":[{"type":"Feature","id":"LFMH-2bfe1ce6bca8733b7853","properties":{"airport":"LFMH","name":"LFMH AVISO","layer":"Airfield surfaces","category":"Hard Surface 2","object_type":"Area","style_id":"polygon.terrain2.868686","source_group":"LFMH AVISO","vsmr_group_ids":[],"geometry_role":"filled_region"},"geometry":{"type":"Polygon","coordinates":[[[4.250245,45.45831],[4.387041944,45.461983333],[4.371793333,45.573411111],[4.236530833,45.567214444],[4.250245,45.45831]]]}},{"type":"Feature","id":"LFMH-c603c5eee5711baef8b3","properties":{"airport":"LFMH","name":"LFMH AVISO","layer":"Airfield surfaces","category":"Hard Surface 2","object_type":"Area","style_id":"polygon.hardsurface2.595e5b","source_group":"LFMH AVISO","vsmr_group_ids":[],"geometry_role":"filled_region"},"geometry":{"type":"Polygon","coordinates":[[[4.297243611,45.537053333],[4.296489722,45.5430675],[4.296538333,45.543187778],[4.296613056,45.543255556],[4.296688056,45.543289444],[4.296776111,45.543295833],[4.299449167,45.543460833],[4.299427222,45.543612222],[4.296771944,45.543425278],[4.296551667,45.543462222],[4.296476944,45.543511667],[4.296410833,45.543650556],[4.295595278,45.550052222],[4.295679444,45.550338889],[4.295688333,45.550403611],[4.295745556,45.550557778],[4.295833889,45.550647222],[4.295904167,45.550705833],[4.295996944,45.550853889],[4.295996944,45.550946389],[4.295979444,45.551063611],[4.295913611,45.551183889],[4.295750556,45.551273333],[4.295605278,45.551335],[4.294852222,45.55128],[4.296563889,45.537791111],[4.296506667,45.537716944],[4.296391944,45.537646111],[4.296268611,45.537593889],[4.296132222,45.53756],[4.2960175,45.537473611],[4.2959425,45.537331944],[4.295893889,45.5371375],[4.295837222,45.536986944],[4.295713889,45.536845],[4.295326111,45.536512222],[4.295026389,45.536225556],[4.294911111,45.536059722],[4.294840556,45.535918056],[4.294805,45.535797778],[4.294664167,45.535794722],[4.293871667,45.535761111],[4.293994167,45.534832778],[4.294196667,45.534851111],[4.294196667,45.534909722],[4.2942275,45.53499],[4.294337778,45.535039167],[4.294795556,45.53507],[4.294848611,45.535060556],[4.294914444,45.534995833],[4.295006667,45.534340278],[4.295015278,45.534226111],[4.295010833,45.534151944],[4.294975556,45.534068889],[4.294852222,45.534004167],[4.294473611,45.533958056],[4.294310833,45.533955],[4.294218333,45.533985833],[4.2941875,45.534066111],[4.2940775,45.534069167],[4.293364722,45.534624722],[4.293126667,45.534411944],[4.293716389,45.533973611],[4.292716389,45.533329722],[4.29236,45.533558056],[4.291901667,45.533243611],[4.292534444,45.532805278],[4.293886944,45.53377],[4.293948611,45.533807222],[4.294063056,45.533813333],[4.294797778,45.533859167],[4.294890278,45.533856111],[4.294973889,45.533843611],[4.295026667,45.533778889],[4.295152778,45.5328175],[4.295157222,45.532740278],[4.2951525,45.532647778],[4.295108611,45.532592222],[4.295020556,45.532552222],[4.294232222,45.532509444],[4.294600833,45.529755],[4.295032222,45.529788611],[4.295521111,45.529828611],[4.295697222,45.529899444],[4.295767778,45.529964167],[4.295798611,45.530035],[4.295798611,45.530133611],[4.295820833,45.530247778],[4.295908889,45.530328056],[4.296041111,45.530374167],[4.297284722,45.530446389],[4.297324444,45.530434167],[4.297368333,45.530375556],[4.298231389,45.530418333],[4.297243611,45.537053333]]]}},{"type":"Feature","id":"LFMH-509438c085809492fa8c","properties":{"airport":"LFMH","name":"LFMH AVISO","layer":"Terrain","category":"Grass","object_type":"Area","style_id":"polygon.grassurface.00512f","source_group":"LFMH AVISO","vsmr_group_ids":[],"geometry_role":"filled_region"},"geometry":{"type":"Polygon","coordinates":[[[4.29555,45.5312775],[4.295643889,45.530988333],[4.295748611,45.530794722],[4.295801111,45.530743333],[4.295885,45.530699167],[4.296087778,45.530667222],[4.296339444,45.53065],[4.296647222,45.530657222],[4.297266111,45.530713333],[4.297346389,45.5307425],[4.29742,45.530813611],[4.297444444,45.530886944],[4.297427222,45.531041389],[4.297098056,45.5337275],[4.297059722,45.533808333],[4.296993333,45.533847778],[4.296839444,45.533874722],[4.296587778,45.533886944],[4.295937222,45.533865278],[4.295668056,45.533821389],[4.295486111,45.533718611],[4.295416111,45.533655],[4.295374167,45.533525],[4.295349444,45.533405],[4.295345833,45.53317],[4.29555,45.5312775]]]}},{"type":"Feature","id":"LFMH-85979834cc4693cce79f","properties":{"airport":"LFMH","name":"LFMH AVISO","layer":"Terrain","category":"Grass","object_type":"Area","style_id":"polygon.grassurface.00512f","source_group":"LFMH AVISO","vsmr_group_ids":[],"geometry_role":"filled_region"},"geometry":{"type":"Polygon","coordinates":[[[4.295226389,45.534146111],[4.2952525,45.534116389],[4.295285,45.53408],[4.295327222,45.534054722],[4.295382778,45.534027222],[4.295503333,45.534006667],[4.295594722,45.534006667],[4.296711389,45.534070278],[4.296796389,45.534079167],[4.296890833,45.534143056],[4.296998611,45.534271111],[4.297015,45.534362222],[4.296591667,45.537361667],[4.296545556,45.537396111],[4.296462778,45.537404722],[4.296348889,45.537404722],[4.296256667,45.537387778],[4.296189167,45.537344722],[4.296109167,45.537265],[4.296016389,45.537049444],[4.2959825,45.536969722],[4.295920833,45.536879444],[4.295791667,45.536791111],[4.295499722,45.536588889],[4.295209167,45.536294444],[4.295003611,45.536062222],[4.294952222,45.535962222],[4.294926667,45.5358775],[4.294930278,45.535785278],[4.294985,45.5357775],[4.2952075,45.534226667],[4.295226389,45.534146111]]]}},{"type":"Feature","id":"LFMH-2ca1c26952c9c5566def","properties":{"airport":"LFMH","name":"LFMH AVISO","layer":"Buildings and structures","category":"Buildings","object_type":"Area","style_id":"polygon.building.394446","source_group":"LFMH AVISO","vsmr_group_ids":[],"geometry_role":"filled_region"},"geometry":{"type":"Polygon","coordinates":[[[4.294037222,45.53233],[4.294043889,45.532270556],[4.294023889,45.532269167],[4.294028333,45.532134722],[4.293796111,45.5319725],[4.293785,45.531933333],[4.293785,45.531914722],[4.293862778,45.531705278],[4.293887222,45.531496111],[4.294043333,45.531500833],[4.294085556,45.531517778],[4.294123611,45.531542778],[4.294139167,45.531550556],[4.294194722,45.531539722],[4.294235,45.531550556],[4.294257222,45.531561667],[4.294204167,45.532089444],[4.294255556,45.532097222],[4.294235833,45.532345556],[4.294037222,45.53233]]]}},{"type":"Feature","id":"LFMH-12f5ae1231a2149a9f3f","properties":{"airport":"LFMH","name":"LFMH AVISO","layer":"Buildings and structures","category":"Buildings","object_type":"Area","style_id":"polygon.building.394446","source_group":"LFMH AVISO","vsmr_group_ids":[],"geometry_role":"filled_region"},"geometry":{"type":"Polygon","coordinates":[[[4.293951389,45.531157222],[4.294018333,45.531150833],[4.294020556,45.531060278],[4.294308056,45.531068056],[4.294261389,45.531297778],[4.294009722,45.531286944],[4.293953889,45.531293056],[4.293951389,45.531157222]]]}},{"type":"Feature","id":"LFMH-c3243a152dd0e470aae1","properties":{"airport":"LFMH","name":"LFMH AVISO","layer":"Buildings and structures","category":"Buildings","object_type":"Area","style_id":"polygon.building.394446","source_group":"LFMH AVISO","vsmr_group_ids":[],"geometry_role":"filled_region"},"geometry":{"type":"Polygon","coordinates":[[[4.292697222,45.533303889],[4.292894167,45.533453056],[4.292550278,45.533685556],[4.292365833,45.533559444],[4.292697222,45.533303889]]]}},{"type":"Feature","id":"LFMH-171f765684aab20ae65b","properties":{"airport":"LFMH","name":"LFMH AVISO","layer":"Buildings and structures","category":"Buildings","object_type":"Area","style_id":"polygon.building.394446","source_group":"LFMH AVISO","vsmr_group_ids":[],"geometry_role":"filled_region"},"geometry":{"type":"Polygon","coordinates":[[[4.293451389,45.533788333],[4.293693333,45.533943333],[4.293095556,45.534399722],[4.292853889,45.534221944],[4.293451389,45.533788333]]]}},{"type":"Feature","id":"LFMH-dfae2adb19dff1ae0e76","properties":{"airport":"LFMH","name":"LFMH AVISO","layer":"Buildings and structures","category":"Buildings","object_type":"Area","style_id":"polygon.building.394446","source_group":"LFMH AVISO","vsmr_group_ids":[],"geometry_role":"filled_region"},"geometry":{"type":"Polygon","coordinates":[[[4.293771944,45.534810833],[4.294005278,45.534830833],[4.293879167,45.535747778],[4.293645556,45.535733611],[4.293771944,45.534810833]]]}},{"type":"Feature","id":"LFMH-95497d6afd43b7a29077","properties":{"airport":"LFMH","name":"1","layer":"Labels","category":"Gates","object_type":"Label","style_id":"label.gates","source_group":"LFMH Gates","vsmr_group_ids":[],"geometry_role":"text_label","text-field":"1"},"geometry":{"type":"Point","coordinates":[4.295333333,45.530833333]}},{"type":"Feature","id":"LFMH-c2972b11ae1fc7295a7a","properties":{"airport":"LFMH","name":"2","layer":"Labels","category":"Gates","object_type":"Label","style_id":"label.gates","source_group":"LFMH Gates","vsmr_group_ids":[],"geometry_role":"text_label","text-field":"2"},"geometry":{"type":"Point","coordinates":[4.295305556,45.531222222]}},{"type":"Feature","id":"LFMH-6fb9d3315c9097145609","properties":{"airport":"LFMH","name":"3","layer":"Labels","category":"Gates","object_type":"Label","style_id":"label.gates","source_group":"LFMH Gates","vsmr_group_ids":[],"geometry_role":"text_label","text-field":"3"},"geometry":{"type":"Point","coordinates":[4.29525,45.531638889]}},{"type":"Feature","id":"LFMH-1c44294ef3acbefb790e","properties":{"airport":"LFMH","name":"4","layer":"Labels","category":"Gates","object_type":"Label","style_id":"label.gates","source_group":"LFMH Gates","vsmr_group_ids":[],"geometry_role":"text_label","text-field":"4"},"geometry":{"type":"Point","coordinates":[4.295222222,45.532]}},{"type":"Feature","id":"LFMH-f19529b8afa89ded3381","properties":{"airport":"LFMH","name":"5","layer":"Labels","category":"Gates","object_type":"Label","style_id":"label.gates","source_group":"LFMH Gates","vsmr_group_ids":[],"geometry_role":"text_label","text-field":"5"},"geometry":{"type":"Point","coordinates":[4.299666667,45.542416667]}},{"type":"Feature","id":"LFMH-8bfedbcae3f88d38c992","properties":{"airport":"LFMH","name":"6","layer":"Labels","category":"Gates","object_type":"Label","style_id":"label.gates","source_group":"LFMH Gates","vsmr_group_ids":[],"geometry_role":"text_label","text-field":"6"},"geometry":{"type":"Point","coordinates":[4.299583333,45.542916667]}},{"type":"Feature","id":"LFMH-2449f518727b73013e0c","properties":{"airport":"LFMH","name":"7","layer":"Labels","category":"Gates","object_type":"Label","style_id":"label.gates","source_group":"LFMH Gates","vsmr_group_ids":[],"geometry_role":"text_label","text-field":"7"},"geometry":{"type":"Point","coordinates":[4.299694444,45.542111111]}},{"type":"Feature","id":"LFMH-7c6a0fe60a3a67eac68f","properties":{"airport":"LFMH","name":"8","layer":"Labels","category":"Gates","object_type":"Label","style_id":"label.gates","source_group":"LFMH Gates","vsmr_group_ids":[],"geometry_role":"text_label","text-field":"8"},"geometry":{"type":"Point","coordinates":[4.299527778,45.543194444]}},{"type":"Feature","id":"LFMH-8c6bd7fe4ce17db7ef4a","properties":{"airport":"LFMH","name":"LFMH Groundlayout AVISO","layer":"Guidance lines","category":"Stopbars","object_type":"Line","style_id":"line.stopbar.7e0000","source_group":"LFMH Groundlayout AVISO","vsmr_group_ids":[],"geometry_role":"linework"},"geometry":{"type":"MultiLineString","coordinates":[[[4.296425278,45.530654167],[4.296449722,45.5304775]],[[4.296027778,45.534039722],[4.296057222,45.533859444]],[[4.295833333,45.537023056],[4.295986667,45.536957222]],[[4.296878056,45.543415556],[4.297101667,45.543326389]],[[4.296904722,45.543317222],[4.297075,45.543427222]]]}},{"type":"Feature","id":"LFMH-8a9c64d5106b409639af","properties":{"airport":"LFMH","name":"LFMH Groundlayout","layer":"Guidance lines","category":"Taxiways","object_type":"Line","style_id":"line.taxiway.c0b631","source_group":"LFMH Groundlayout","vsmr_group_ids":[],"geometry_role":"linework"},"geometry":{"type":"MultiLineString","coordinates":[[[4.297444444,45.530833333],[4.297027778,45.530805556]],[[4.297083333,45.530527778],[4.295694444,45.530444444]],[[4.297027778,45.530805556],[4.296055556,45.53075]],[[4.295694444,45.530444444],[4.295666667,45.530861111]],[[4.296055556,45.53075],[4.296027778,45.530861111]],[[4.295666667,45.530861111],[4.295611111,45.531277778]],[[4.296027778,45.530861111],[4.296,45.531277778]],[[4.295611111,45.531277778],[4.295583333,45.531638889]],[[4.296,45.531277778],[4.295944444,45.531666667]],[[4.295583333,45.531638889],[4.295527778,45.532]],[[4.295944444,45.531666667],[4.295916667,45.532027778]],[[4.295527778,45.532],[4.295388889,45.533472222]],[[4.295916667,45.532027778],[4.295777778,45.5335]],[[4.295361111,45.53375],[4.295194444,45.53525]],[[4.29575,45.533777778],[4.295555556,45.535416667]],[[4.295166667,45.535527778],[4.295083333,45.536194444]],[[4.295555556,45.535416667],[4.295472222,45.536194444]],[[4.295083333,45.536194444],[4.295638889,45.538]],[[4.295472222,45.536194444],[4.295944444,45.53775]],[[4.295638889,45.538],[4.296138889,45.538027778]],[[4.295944444,45.53775],[4.296166667,45.537777778]],[[4.296138889,45.538027778],[4.296527778,45.538055556]],[[4.296166667,45.537777778],[4.296555556,45.537777778]],[[4.293166667,45.534277778],[4.293944444,45.533694444]],[[4.292888889,45.534083333],[4.293611111,45.533555556]],[[4.296527778,45.5425],[4.296916667,45.542527778]],[[4.296555556,45.542222222],[4.296972222,45.54225]],[[4.296916667,45.542527778],[4.298694444,45.542694444]],[[4.296972222,45.54225],[4.29875,45.542416667]],[[4.297083333,45.533583333],[4.296694444,45.533555556]],[[4.297055556,45.533861111],[4.296666667,45.533833333]],[[4.296694444,45.533555556],[4.295777778,45.5335]],[[4.296666667,45.533833333],[4.29575,45.533777778]],[[4.295388889,45.533472222],[4.293972222,45.533416667]],[[4.295361111,45.53375],[4.293944444,45.533694444]],[[4.293972222,45.533416667],[4.292444444,45.532305556]],[[4.293611111,45.533555556],[4.292444444,45.532722222]],[[4.292444444,45.532305556],[4.291194444,45.533277778]],[[4.292444444,45.532722222],[4.291722222,45.533277778]],[[4.291194444,45.533277778],[4.29275,45.534361111]],[[4.291722222,45.533277778],[4.292888889,45.534083333]],[[4.29275,45.534361111],[4.294305556,45.535472222]],[[4.293166667,45.534277778],[4.294222222,45.535027778]],[[4.294305556,45.535472222],[4.295166667,45.535527778]],[[4.294583333,45.535222222],[4.295194444,45.53525]],[[4.2945,45.532083333],[4.294222222,45.535027778]],[[4.294888889,45.532111111],[4.294583333,45.535222222]],[[4.294638889,45.530805556],[4.294583333,45.531222222]],[[4.295027778,45.530805556],[4.294972222,45.531222222]],[[4.294638889,45.530805556],[4.295027778,45.530805556]],[[4.294583333,45.531222222],[4.294555556,45.531583333]],[[4.294972222,45.531222222],[4.294944444,45.531611111]],[[4.294555556,45.531583333],[4.294527778,45.531888889]],[[4.294944444,45.531611111],[4.294916667,45.531888889]],[[4.294527778,45.531888889],[4.2945,45.532083333]],[[4.294916667,45.531888889],[4.294888889,45.532111111]],[[4.298805556,45.542055556],[4.29875,45.542333333]],[[4.299194444,45.542083333],[4.299138889,45.542361111]],[[4.298805556,45.542055556],[4.299194444,45.542083333]],[[4.29875,45.542333333],[4.29875,45.542416667]],[[4.299138889,45.542361111],[4.299111111,45.542583333]],[[4.298694444,45.542694444],[4.298666667,45.542861111]],[[4.299111111,45.542583333],[4.299055556,45.542888889]],[[4.298666667,45.542861111],[4.298611111,45.543111111]],[[4.299055556,45.542888889],[4.299,45.543138889]],[[4.298611111,45.543111111],[4.299,45.543138889]]]}},{"type":"Feature","id":"LFMH-28c027b14aa070e18766","properties":{"airport":"LFMH","name":"LFMH Groundlayout","layer":"Guidance lines","category":"Runways","object_type":"Line","style_id":"line.runwayconcrete.555555","source_group":"LFMH Groundlayout","vsmr_group_ids":[],"geometry_role":"linework"},"geometry":{"type":"MultiLineString","coordinates":[[[4.297472222,45.530527778],[4.297472222,45.530555556]],[[4.298027778,45.530583333],[4.298027778,45.530722222]],[[4.297472222,45.530527778],[4.298027778,45.530583333]],[[4.297444444,45.530833333],[4.297083333,45.533583333]],[[4.298027778,45.53075],[4.297638889,45.53375]],[[4.297055556,45.533861111],[4.296555556,45.537777778]],[[4.297638889,45.53375],[4.297111111,45.537972222]],[[4.296527778,45.538055556],[4.295972222,45.542305556]],[[4.297111111,45.537972222],[4.296555556,45.542222222]],[[4.295972222,45.542305556],[4.294861111,45.551166667]],[[4.296527778,45.5425],[4.295444444,45.551194444]],[[4.294861111,45.551166667],[4.295444444,45.551194444]]]}},{"type":"Feature","id":"LFMH-5ac3bd5fb93e458cd155","properties":{"airport":"LFMH","name":"LFMH Groundlayout","layer":"Guidance lines","category":"Apron Surface","object_type":"Line","style_id":"line.apronsurface.808080","source_group":"LFMH Groundlayout","vsmr_group_ids":[],"geometry_role":"linework"},"geometry":{"type":"MultiLineString","coordinates":[[[4.295805556,45.530194444],[4.294694444,45.530138889],[4.2945,45.532222222],[4.295888889,45.532277778],[4.296055556,45.530583333]],[[4.295805556,45.530194444],[4.296055556,45.530583333]],[[4.295166667,45.536277778],[4.294194444,45.536194444],[4.294333333,45.535416667],[4.295194444,45.535472222]],[[4.295166667,45.536277778],[4.295194444,45.535472222]],[[4.291805556,45.533083333],[4.292638889,45.532472222],[4.291722222,45.531861111],[4.290861111,45.5325]],[[4.291805556,45.533083333],[4.290861111,45.5325]],[[4.298833333,45.541777778],[4.298583333,45.54325],[4.299694444,45.543361111],[4.299972222,45.541916667]],[[4.298833333,45.541777778],[4.299972222,45.541916667]]]}},{"type":"Feature","id":"LFMH-ee8e2a21a7500d7543d2","properties":{"airport":"LFMH","name":"A","layer":"Labels","category":"Taxiways","object_type":"Label","style_id":"label.taxiways","source_group":"LFMH Taxiways","vsmr_group_ids":[],"geometry_role":"text_label","text-field":"A"},"geometry":{"type":"Point","coordinates":[4.297388889,45.530694444]}},{"type":"Feature","id":"LFMH-fb251c3a918c8515b84f","properties":{"airport":"LFMH","name":"A","layer":"Labels","category":"Taxiways","object_type":"Label","style_id":"label.taxiways","source_group":"LFMH Taxiways","vsmr_group_ids":[],"geometry_role":"text_label","text-field":"A"},"geometry":{"type":"Point","coordinates":[4.296472222,45.530638889]}},{"type":"Feature","id":"LFMH-150f1d8a5934605d4aef","properties":{"airport":"LFMH","name":"C","layer":"Labels","category":"Taxiways","object_type":"Label","style_id":"label.taxiways","source_group":"LFMH Taxiways","vsmr_group_ids":[],"geometry_role":"text_label","text-field":"C"},"geometry":{"type":"Point","coordinates":[4.296611111,45.542361111]}},{"type":"Feature","id":"LFMH-68727a6dacf50bc392cb","properties":{"airport":"LFMH","name":"C","layer":"Labels","category":"Taxiways","object_type":"Label","style_id":"label.taxiways","source_group":"LFMH Taxiways","vsmr_group_ids":[],"geometry_role":"text_label","text-field":"C"},"geometry":{"type":"Point","coordinates":[4.297916667,45.542472222]}},{"type":"Feature","id":"LFMH-4055917a6d0830e49990","properties":{"airport":"LFMH","name":"B","layer":"Labels","category":"Taxiways","object_type":"Label","style_id":"label.taxiways","source_group":"LFMH Taxiways","vsmr_group_ids":[],"geometry_role":"text_label","text-field":"B"},"geometry":{"type":"Point","coordinates":[4.297,45.533722222]}},{"type":"Feature","id":"LFMH-00457715f9281b35dbe6","properties":{"airport":"LFMH","name":"B","layer":"Labels","category":"Taxiways","object_type":"Label","style_id":"label.taxiways","source_group":"LFMH Taxiways","vsmr_group_ids":[],"geometry_role":"text_label","text-field":"B"},"geometry":{"type":"Point","coordinates":[4.296111111,45.533666667]}}]}
