{"type":"FeatureCollection","name":"LFMU AVISO","bbox":[3.339808333,43.319836667,3.369870556,43.325323056],"metadata":{"schema":"vSMR AVISO","schema_version":2,"geometry_mode":"shared","airport":"LFMU","coordinate_reference_system":"WGS84","coordinate_order":"longitude, latitude","default_color_palette":"dark","color_palettes":["dark","light"],"background_colors":{"dark":"#434A4F","light":"#434A4F"},"runways":[{"ends":["09","27"],"headings":[92,272],"thresholds":[[3.342391944,43.324038889],[3.366977778,43.322666944]]}],"saved_active_runways":[],"saved_active_airport_modes":[],"airport_reference":[3.353332778,43.323332778],"feature_count":52,"style_count":12,"layer_counts":{"Airfield surfaces":7,"Buildings and structures":6,"Guidance lines":2,"Labels":33,"Surface markings":3,"Terrain":1},"category_counts":{"Buildings":6,"Gates":27,"Grass":1,"Grass runways":1,"Hard Surface 2":2,"Hard Surface 3":1,"Hard Surface 4":1,"Runway Border":1,"Runways":2,"Stopbars":3,"Taxiways":7},"geometry_source":"local GNG","geometry_source_url":"","geometry_license":"GPL-3.0"},"styles":{"polygon.grassurface.00512f":{"name":"Grass","layer":"Terrain","object_type":"Area","paint":{"fill":"#010D19","fill-opacity":1,"palette-overrides":{"light":{"fill":"#00512F"}}},"feature_count":1},"polygon.hardsurface4.969393":{"name":"Hard Surface 4","layer":"Airfield surfaces","object_type":"Area","paint":{"fill":"#152841","fill-opacity":1,"palette-overrides":{"light":{"fill":"#969393"}}},"feature_count":1},"polygon.hardsurface3.8a807f":{"name":"Hard Surface 3","layer":"Airfield surfaces","object_type":"Area","paint":{"fill":"#222D3C","fill-opacity":1,"palette-overrides":{"light":{"fill":"#8A807F"}}},"feature_count":1},"polygon.runwaygrass.008000":{"name":"Grass runways","layer":"Airfield surfaces","object_type":"Area","paint":{"fill":"#859A77","fill-opacity":1,"palette-overrides":{"light":{"fill":"#008000"}}},"feature_count":1},"polygon.hardsurface2.595e5b":{"name":"Hard Surface 2","layer":"Airfield surfaces","object_type":"Area","paint":{"fill":"#2F3949","fill-opacity":1,"palette-overrides":{"light":{"fill":"#595E5B"}}},"feature_count":2},"polygon.runwayconcrete.555555":{"name":"Runways","layer":"Airfield surfaces","object_type":"Area","paint":{"fill":"#111318","fill-opacity":1,"palette-overrides":{"light":{"fill":"#555555"}}},"feature_count":2},"polygon.building.394446":{"name":"Buildings","layer":"Buildings and structures","object_type":"Area","paint":{"fill":"#475570","fill-opacity":1,"palette-overrides":{"light":{"fill":"#394446"}}},"feature_count":6},"polygon.stopbar.7e0000":{"name":"Stopbars","layer":"Surface markings","object_type":"Area","paint":{"fill":"#7E0000","fill-opacity":1,"palette-overrides":{"light":{"fill":"#7E0000"}}},"feature_count":3},"line.taxiway.c0b631":{"name":"Taxiways","layer":"Guidance lines","object_type":"Line","paint":{"stroke":"#4E5A69","stroke-opacity":1,"stroke-width":1,"palette-overrides":{"light":{"stroke":"#C0B631"}}},"feature_count":1},"line.runwayborder.808080":{"name":"Runway Border","layer":"Guidance lines","object_type":"Line","paint":{"stroke":"#808080","stroke-opacity":1,"stroke-width":1,"palette-overrides":{"light":{"stroke":"#808080"}}},"feature_count":1},"label.gates":{"name":"Gates","layer":"Labels","object_type":"Label","paint":{"text-color":"#CCCCCC","text-font":"Arial","text-size":12,"text-halo-color":"#000000","text-halo-width":1,"text-anchor":"center","zoomLevel":9},"feature_count":27},"label.taxiways":{"name":"Taxiways","layer":"Labels","object_type":"Label","paint":{"text-color":"#CCCCCC","text-font":"Arial","text-size":12,"text-halo-color":"#000000","text-halo-width":1,"text-anchor":"center","zoomLevel":7},"feature_count":6}},"vsmr_groups":[],"features":[{"type":"Feature","id":"LFMU-38c8c9be830ebdc5949e","properties":{"airport":"LFMU","name":"LFMU AVISO","layer":"Terrain","category":"Grass","object_type":"Area","style_id":"polygon.grassurface.00512f","source_group":"LFMU AVISO","vsmr_group_ids":[],"geometry_role":"filled_region"},"geometry":{"type":"Polygon","coordinates":[[[3.340014167,43.324828611],[3.339808333,43.323638889],[3.340426667,43.322974444],[3.340630278,43.322925556],[3.341133333,43.322816944],[3.3416725,43.322693056],[3.342260278,43.322469444],[3.342668333,43.322296111],[3.342979167,43.322187222],[3.343529722,43.321933056],[3.344286111,43.321668611],[3.346060278,43.321639444],[3.349781667,43.321438889],[3.35005,43.321366944],[3.350236667,43.321246111],[3.350334444,43.321136111],[3.350378056,43.320910556],[3.35019,43.320113333],[3.357731389,43.319869167],[3.3576875,43.320068333],[3.357821111,43.320077778],[3.358239167,43.320058611],[3.358564444,43.3200575],[3.3588975,43.320080833],[3.359184722,43.320028056],[3.359505278,43.31997],[3.359876944,43.319939722],[3.359734722,43.320099444],[3.359457222,43.320430556],[3.359251667,43.320705278],[3.359129722,43.320854722],[3.359023611,43.321048889],[3.358963333,43.321239444],[3.358943611,43.321383333],[3.358930556,43.321562778],[3.359081944,43.321685833],[3.368706389,43.321113333],[3.369406667,43.321205833],[3.369503889,43.321438611],[3.369870556,43.325016667],[3.369394167,43.325057778],[3.368973333,43.325050556],[3.368514444,43.325025556],[3.368131944,43.324968611],[3.367683333,43.324787778],[3.367336667,43.324621667],[3.367034444,43.324421667],[3.366738333,43.324259444],[3.366136389,43.324165],[3.365406667,43.324188056],[3.364921667,43.324213333],[3.364539167,43.324246111],[3.364263889,43.324241667],[3.364193056,43.324080278],[3.364015833,43.324038056],[3.363691389,43.324097222],[3.363406667,43.324158889],[3.363025833,43.324258611],[3.362694444,43.324376389],[3.3623125,43.324408889],[3.342006667,43.325323056],[3.340275833,43.324977222],[3.340014167,43.324828611]]]}},{"type":"Feature","id":"LFMU-beed5f2bb723c8abffa3","properties":{"airport":"LFMU","name":"LFMU AVISO","layer":"Airfield surfaces","category":"Hard Surface 4","object_type":"Area","style_id":"polygon.hardsurface4.969393","source_group":"LFMU AVISO","vsmr_group_ids":[],"geometry_role":"filled_region"},"geometry":{"type":"Polygon","coordinates":[[[3.355577778,43.320366389],[3.355545,43.319990278],[3.357562222,43.319925833],[3.357563056,43.320071111],[3.357653333,43.320069444],[3.357671667,43.320251111],[3.355577778,43.320366389]]]}},{"type":"Feature","id":"LFMU-8c6ca1f616f6f7aa3d3d","properties":{"airport":"LFMU","name":"LFMU AVISO","layer":"Airfield surfaces","category":"Hard Surface 3","object_type":"Area","style_id":"polygon.hardsurface3.8a807f","source_group":"LFMU AVISO","vsmr_group_ids":[],"geometry_role":"filled_region"},"geometry":{"type":"Polygon","coordinates":[[[3.351577778,43.3217125],[3.351511111,43.321753056],[3.35144,43.321193611],[3.351448333,43.321158611],[3.3514625,43.321138056],[3.351480556,43.321111667],[3.351500278,43.321093889],[3.35153,43.321076389],[3.351561667,43.321065],[3.351599444,43.321059444],[3.351640556,43.321055278],[3.351686111,43.321050833],[3.351845,43.321039722],[3.351834444,43.320928611],[3.352041667,43.320884722],[3.352075556,43.320923333],[3.352127222,43.320940278],[3.352169167,43.320963056],[3.352239722,43.321021667],[3.352511389,43.321008056],[3.352499722,43.320911944],[3.352739167,43.320891389],[3.352730833,43.320843056],[3.352881944,43.320830833],[3.352858333,43.320650556],[3.352981389,43.320644722],[3.352995278,43.320765],[3.353043333,43.320763889],[3.353051389,43.320840556],[3.354372778,43.320780833],[3.354500556,43.320789722],[3.355214167,43.320746111],[3.355197778,43.320593889],[3.355167222,43.320574722],[3.355090556,43.320558056],[3.354991111,43.320549722],[3.354959167,43.320418889],[3.3555625,43.320379722],[3.355592778,43.320573889],[3.355320278,43.320598333],[3.355383056,43.321428056],[3.355015556,43.321447222],[3.354593611,43.321459722],[3.354574444,43.321273611],[3.354491111,43.321303889],[3.3544425,43.321331667],[3.354395556,43.321359444],[3.354161111,43.32149],[3.351726389,43.321623611],[3.351577778,43.3217125]]]}},{"type":"Feature","id":"LFMU-c2a3626d3c9fb7ebd456","properties":{"airport":"LFMU","name":"LFMU AVISO","layer":"Airfield surfaces","category":"Grass runways","object_type":"Area","style_id":"polygon.runwaygrass.008000","source_group":"LFMU AVISO","vsmr_group_ids":[],"geometry_role":"filled_region"},"geometry":{"type":"Polygon","coordinates":[[[3.355324167,43.320594722],[3.355597778,43.32057],[3.357437222,43.320485556],[3.357482222,43.320910833],[3.357485278,43.320962222],[3.357435556,43.321010278],[3.357367222,43.321033889],[3.355634444,43.321121944],[3.355543889,43.321116944],[3.355481111,43.321093333],[3.355438611,43.321053056],[3.355426667,43.320989167],[3.355421944,43.320818611],[3.355333611,43.320825556],[3.355324167,43.320594722]]]}},{"type":"Feature","id":"LFMU-423e023c12abd809ce2c","properties":{"airport":"LFMU","name":"LFMU AVISO","layer":"Airfield surfaces","category":"Hard Surface 2","object_type":"Area","style_id":"polygon.hardsurface2.595e5b","source_group":"LFMU AVISO","vsmr_group_ids":[],"geometry_role":"filled_region"},"geometry":{"type":"Polygon","coordinates":[[[3.351641111,43.322174444],[3.351633333,43.3221025],[3.351637222,43.322074167],[3.351648056,43.322051111],[3.351668889,43.322016944],[3.351687778,43.321986944],[3.351623611,43.321965278],[3.351573889,43.321713611],[3.351723889,43.321621667],[3.35416,43.321488889],[3.3543725,43.321365],[3.3544825,43.321309167],[3.354521111,43.321290556],[3.354574722,43.321268889],[3.354590556,43.32146],[3.355009167,43.321450278],[3.354929444,43.321469444],[3.354871667,43.321480556],[3.354796111,43.321498889],[3.354741111,43.321524444],[3.354714167,43.321554722],[3.35468,43.321590278],[3.354643333,43.3216175],[3.354595556,43.321648056],[3.354524722,43.321696389],[3.354466667,43.321726111],[3.354401944,43.321751667],[3.354333056,43.321772778],[3.354259722,43.321786667],[3.353655278,43.321821111],[3.353577222,43.321834167],[3.353524167,43.321856944],[3.353487222,43.321879167],[3.35345,43.321903611],[3.353415278,43.321931667],[3.353397222,43.321958889],[3.353408333,43.322065278],[3.353119722,43.322087222],[3.353103056,43.321958889],[3.353080833,43.321944444],[3.353048333,43.321929722],[3.3530175,43.321912778],[3.352991667,43.321899167],[3.352966667,43.321887778],[3.352931667,43.321876944],[3.352894722,43.321870278],[3.352075556,43.321911389],[3.352041389,43.321921111],[3.352010556,43.321931667],[3.351980556,43.321943889],[3.351959167,43.321958333],[3.351920278,43.321990278],[3.351894444,43.322009444],[3.351876944,43.322027222],[3.351853889,43.3220575],[3.351835278,43.322090278],[3.351825833,43.322116111],[3.351821389,43.322139722],[3.351816944,43.322159444],[3.351641111,43.322174444]]]}},{"type":"Feature","id":"LFMU-7bebcc0524cc871e2bfe","properties":{"airport":"LFMU","name":"LFMU AVISO","layer":"Airfield surfaces","category":"Hard Surface 2","object_type":"Area","style_id":"polygon.hardsurface2.595e5b","source_group":"LFMU AVISO","vsmr_group_ids":[],"geometry_role":"filled_region"},"geometry":{"type":"Polygon","coordinates":[[[3.355383889,43.321428889],[3.355345278,43.321043889],[3.355375833,43.321091389],[3.355407778,43.321124167],[3.355447222,43.321153056],[3.355485278,43.321179167],[3.355526389,43.321192222],[3.355581944,43.321211944],[3.355646944,43.321224167],[3.355740833,43.321225],[3.357429444,43.321133889],[3.357493333,43.321125],[3.357530278,43.3211125],[3.3575625,43.321100556],[3.357608889,43.3210725],[3.357623889,43.321043056],[3.3576275,43.3209875],[3.357559722,43.320388056],[3.357553333,43.320356667],[3.357534444,43.320335833],[3.357509167,43.320315833],[3.3574675,43.320291667],[3.357405833,43.320267778],[3.357669167,43.32025],[3.357836667,43.321828056],[3.357713889,43.321837778],[3.357675833,43.321472222],[3.357671389,43.321444167],[3.357660278,43.321418889],[3.357641389,43.321391944],[3.357614444,43.321362222],[3.357571389,43.321327778],[3.357501944,43.321291944],[3.357443889,43.321267778],[3.35736,43.321252778],[3.357283889,43.321246111],[3.355812778,43.321311667],[3.355747778,43.321316667],[3.355691389,43.321331389],[3.355441944,43.321411667],[3.355383889,43.321428889]]]}},{"type":"Feature","id":"LFMU-4cee0c29314cb5d81aef","properties":{"airport":"LFMU","name":"LFMU AVISO","layer":"Airfield surfaces","category":"Runways","object_type":"Area","style_id":"polygon.runwayconcrete.555555","source_group":"LFMU AVISO","vsmr_group_ids":[],"geometry_role":"filled_region"},"geometry":{"type":"Polygon","coordinates":[[[3.341807222,43.324281944],[3.341752222,43.323895833],[3.341781944,43.323819444],[3.341825,43.323761389],[3.341883889,43.323718889],[3.341953333,43.323675556],[3.342035833,43.323655833],[3.342108056,43.3236425],[3.3422,43.323641389],[3.342301944,43.323661111],[3.342388333,43.323698056],[3.342471389,43.323732778],[3.342541667,43.323782222],[3.342630833,43.323803056],[3.342745556,43.323816389],[3.351630278,43.323333056],[3.351691944,43.323306111],[3.351723333,43.323274167],[3.351742222,43.323238333],[3.3517475,43.323189444],[3.351641111,43.322186944],[3.351812778,43.322175],[3.3519375,43.323203056],[3.351955833,43.32324],[3.351986944,43.3232625],[3.352025278,43.323282778],[3.352071389,43.323303056],[3.352915278,43.323258889],[3.352984722,43.323243056],[3.353025,43.323229722],[3.353071667,43.323211944],[3.353116944,43.3231925],[3.3531525,43.323170556],[3.353177778,43.323148056],[3.353205556,43.32312],[3.353220556,43.323090833],[3.353126111,43.322096944],[3.353408889,43.322079722],[3.353518056,43.323088056],[3.353549722,43.323116944],[3.353577778,43.323134444],[3.35361,43.323154722],[3.353650556,43.323173056],[3.353697222,43.323188056],[3.353746389,43.323202778],[3.353788611,43.323205833],[3.3538625,43.323205278],[3.366659167,43.3224875],[3.366718056,43.322471111],[3.366778611,43.322453056],[3.366812222,43.322424722],[3.366853889,43.322387222],[3.366899722,43.322353333],[3.366935278,43.322329167],[3.366985833,43.322302222],[3.367034444,43.322280556],[3.36709,43.322261667],[3.367146667,43.322250833],[3.367224444,43.322243333],[3.367293889,43.322249722],[3.367364444,43.322260833],[3.367429722,43.322277222],[3.367472778,43.322295278],[3.367512778,43.322327222],[3.367557222,43.322373611],[3.3675825,43.322425833],[3.367638333,43.322841389],[3.341807222,43.324281944]]]}},{"type":"Feature","id":"LFMU-44e988bfeb6a4a101122","properties":{"airport":"LFMU","name":"LFMU AVISO","layer":"Airfield surfaces","category":"Runways","object_type":"Area","style_id":"polygon.runwayconcrete.555555","source_group":"LFMU AVISO","vsmr_group_ids":[],"geometry_role":"filled_region"},"geometry":{"type":"Polygon","coordinates":[[[3.357744167,43.322986111],[3.357759722,43.322963889],[3.3577725,43.322934722],[3.357785,43.322900833],[3.357795833,43.322867222],[3.357796667,43.322829444],[3.357793889,43.322780833],[3.357716389,43.321849722],[3.357838056,43.321840556],[3.357948056,43.322836667],[3.357958611,43.322865],[3.357969167,43.322883056],[3.357994167,43.322914444],[3.358021944,43.322938056],[3.358064722,43.32297],[3.357744167,43.322986111]]]}},{"type":"Feature","id":"LFMU-c5e689644ab864e3fffe","properties":{"airport":"LFMU","name":"LFMU AVISO","layer":"Buildings and structures","category":"Buildings","object_type":"Area","style_id":"polygon.building.394446","source_group":"LFMU AVISO","vsmr_group_ids":[],"geometry_role":"filled_region"},"geometry":{"type":"Polygon","coordinates":[[[3.3521525,43.320896389],[3.352145556,43.320824167],[3.352250833,43.320813333],[3.352254167,43.320806944],[3.352293889,43.320803889],[3.352292778,43.320785],[3.352401389,43.320777778],[3.352401389,43.320739444],[3.352487778,43.320725556],[3.352497222,43.320747778],[3.352883056,43.3207225],[3.352879167,43.320828889],[3.352733056,43.320844444],[3.352736389,43.320890278],[3.352516111,43.320911389],[3.352477778,43.320910278],[3.352475,43.320893611],[3.352410833,43.320904722],[3.352398333,43.3208575],[3.352369722,43.320861667],[3.352368056,43.320876944],[3.352313056,43.320883056],[3.352310556,43.320896389],[3.352265556,43.3209],[3.352258056,43.320888889],[3.3521525,43.320896389]]]}},{"type":"Feature","id":"LFMU-874a9d30a2617f1f7b5e","properties":{"airport":"LFMU","name":"LFMU AVISO","layer":"Buildings and structures","category":"Buildings","object_type":"Area","style_id":"polygon.building.394446","source_group":"LFMU AVISO","vsmr_group_ids":[],"geometry_role":"filled_region"},"geometry":{"type":"Polygon","coordinates":[[[3.352577222,43.320699722],[3.352573333,43.320668889],[3.352876944,43.320638611],[3.352881111,43.320691389],[3.352672222,43.320713889],[3.352671111,43.320694167],[3.352577222,43.320699722]]]}},{"type":"Feature","id":"LFMU-fac48e8234da4e3e96f2","properties":{"airport":"LFMU","name":"LFMU AVISO","layer":"Buildings and structures","category":"Buildings","object_type":"Area","style_id":"polygon.building.394446","source_group":"LFMU AVISO","vsmr_group_ids":[],"geometry_role":"filled_region"},"geometry":{"type":"Polygon","coordinates":[[[3.352788333,43.320617778],[3.3525275,43.320637222],[3.352525,43.320594444],[3.352593611,43.3205875],[3.35259,43.320548889],[3.352778333,43.320530833],[3.352788333,43.320617778]]]}},{"type":"Feature","id":"LFMU-cbf97c99062a225c5caa","properties":{"airport":"LFMU","name":"LFMU AVISO","layer":"Buildings and structures","category":"Buildings","object_type":"Area","style_id":"polygon.building.394446","source_group":"LFMU AVISO","vsmr_group_ids":[],"geometry_role":"filled_region"},"geometry":{"type":"Polygon","coordinates":[[[3.352977222,43.320636944],[3.353026389,43.320630833],[3.353023611,43.320577222],[3.353828333,43.320531667],[3.353840833,43.320646667],[3.354089444,43.320632222],[3.354074444,43.320531944],[3.354349167,43.320513333],[3.3543825,43.320786944],[3.354108333,43.320796944],[3.353815,43.320814444],[3.353820556,43.320847778],[3.35379,43.320849722],[3.353785556,43.320818611],[3.353049444,43.320852222],[3.353045,43.320763611],[3.352995556,43.320769167],[3.352977222,43.320636944]]]}},{"type":"Feature","id":"LFMU-3bf5a59d31fcb8c5694a","properties":{"airport":"LFMU","name":"LFMU AVISO","layer":"Buildings and structures","category":"Buildings","object_type":"Area","style_id":"polygon.building.394446","source_group":"LFMU AVISO","vsmr_group_ids":[],"geometry_role":"filled_region"},"geometry":{"type":"Polygon","coordinates":[[[3.354794167,43.320433889],[3.354905278,43.320426389],[3.354906944,43.320471111],[3.354797778,43.320481111],[3.354794167,43.320433889]]]}},{"type":"Feature","id":"LFMU-afce9ca2316e05f49e1a","properties":{"airport":"LFMU","name":"LFMU AVISO","layer":"Buildings and structures","category":"Buildings","object_type":"Area","style_id":"polygon.building.394446","source_group":"LFMU AVISO","vsmr_group_ids":[],"geometry_role":"filled_region"},"geometry":{"type":"Polygon","coordinates":[[[3.354925833,43.3200225],[3.355533611,43.319977222],[3.355571111,43.320378889],[3.3549575,43.320416667],[3.354925833,43.3200225]]]}},{"type":"Feature","id":"LFMU-e1a606a8c39e2213d68d","properties":{"airport":"LFMU","name":"LFMU AVISO","layer":"Surface markings","category":"Stopbars","object_type":"Area","style_id":"polygon.stopbar.7e0000","source_group":"LFMU AVISO","vsmr_group_ids":[],"geometry_role":"filled_region"},"geometry":{"type":"Polygon","coordinates":[[[3.3516425,43.322188333],[3.351640278,43.322166389],[3.351815278,43.322158611],[3.351814722,43.322182222],[3.351755556,43.322183889],[3.3516425,43.322188333]]]}},{"type":"Feature","id":"LFMU-f18113caac7ed212b340","properties":{"airport":"LFMU","name":"LFMU AVISO","layer":"Surface markings","category":"Stopbars","object_type":"Area","style_id":"polygon.stopbar.7e0000","source_group":"LFMU AVISO","vsmr_group_ids":[],"geometry_role":"filled_region"},"geometry":{"type":"Polygon","coordinates":[[[3.353126111,43.322108333],[3.353121389,43.322085556],[3.353407222,43.322063889],[3.353409444,43.322089722],[3.353126111,43.322108333]]]}},{"type":"Feature","id":"LFMU-ecfd618bf1d378d0d249","properties":{"airport":"LFMU","name":"LFMU AVISO","layer":"Surface markings","category":"Stopbars","object_type":"Area","style_id":"polygon.stopbar.7e0000","source_group":"LFMU AVISO","vsmr_group_ids":[],"geometry_role":"filled_region"},"geometry":{"type":"Polygon","coordinates":[[[3.357837778,43.321819167],[3.357839167,43.321841111],[3.357716667,43.321852222],[3.357713333,43.3218275],[3.357837778,43.321819167]]]}},{"type":"Feature","id":"LFMU-7bd3632c2bf1c40cc837","properties":{"airport":"LFMU","name":"ACB","layer":"Labels","category":"Gates","object_type":"Label","style_id":"label.gates","source_group":"LFMU Gates","vsmr_group_ids":[],"geometry_role":"text_label","text-field":"ACB"},"geometry":{"type":"Point","coordinates":[3.355191389,43.320332778]}},{"type":"Feature","id":"LFMU-079ef15ce8f50fbbe166","properties":{"airport":"LFMU","name":"Hangars","layer":"Labels","category":"Gates","object_type":"Label","style_id":"label.gates","source_group":"LFMU Gates","vsmr_group_ids":[],"geometry_role":"text_label","text-field":"Hangars"},"geometry":{"type":"Point","coordinates":[3.357357222,43.319836667]}},{"type":"Feature","id":"LFMU-67181f3a602124e98e67","properties":{"airport":"LFMU","name":"TWR","layer":"Labels","category":"Gates","object_type":"Label","style_id":"label.gates","source_group":"LFMU Gates","vsmr_group_ids":[],"geometry_role":"text_label","text-field":"TWR"},"geometry":{"type":"Point","coordinates":[3.352190278,43.320810556]}},{"type":"Feature","id":"LFMU-9c53381aad437996e0fc","properties":{"airport":"LFMU","name":"Terminal","layer":"Labels","category":"Gates","object_type":"Label","style_id":"label.gates","source_group":"LFMU Gates","vsmr_group_ids":[],"geometry_role":"text_label","text-field":"Terminal"},"geometry":{"type":"Point","coordinates":[3.352906944,43.320826111]}},{"type":"Feature","id":"LFMU-c655265ab8547fbb984b","properties":{"airport":"LFMU","name":"Service Piste","layer":"Labels","category":"Gates","object_type":"Label","style_id":"label.gates","source_group":"LFMU Gates","vsmr_group_ids":[],"geometry_role":"text_label","text-field":"Service Piste"},"geometry":{"type":"Point","coordinates":[3.354348056,43.320649722]}},{"type":"Feature","id":"LFMU-fe6a1b7e87ef2d351128","properties":{"airport":"LFMU","name":"SDIS 34","layer":"Labels","category":"Gates","object_type":"Label","style_id":"label.gates","source_group":"LFMU Gates","vsmr_group_ids":[],"geometry_role":"text_label","text-field":"SDIS 34"},"geometry":{"type":"Point","coordinates":[3.351465556,43.320996944]}},{"type":"Feature","id":"LFMU-7083a6c4eced477d6531","properties":{"airport":"LFMU","name":"Reserve Pelicandrome","layer":"Labels","category":"Gates","object_type":"Label","style_id":"label.gates","source_group":"LFMU Gates","vsmr_group_ids":[],"geometry_role":"text_label","text-field":"Reserve Pelicandrome"},"geometry":{"type":"Point","coordinates":[3.350789167,43.321393611]}},{"type":"Feature","id":"LFMU-5f232fad429755363c54","properties":{"airport":"LFMU","name":"AVT","layer":"Labels","category":"Gates","object_type":"Label","style_id":"label.gates","source_group":"LFMU Gates","vsmr_group_ids":[],"geometry_role":"text_label","text-field":"AVT"},"geometry":{"type":"Point","coordinates":[3.356416667,43.319858333]}},{"type":"Feature","id":"LFMU-f2de2262e3f6b73909b1","properties":{"airport":"LFMU","name":"3S","layer":"Labels","category":"Gates","object_type":"Label","style_id":"label.gates","source_group":"LFMU Gates","vsmr_group_ids":[],"geometry_role":"text_label","text-field":"3S"},"geometry":{"type":"Point","coordinates":[3.35166,43.321506667]}},{"type":"Feature","id":"LFMU-4190cc0bfd2df1dbf306","properties":{"airport":"LFMU","name":"4S","layer":"Labels","category":"Gates","object_type":"Label","style_id":"label.gates","source_group":"LFMU Gates","vsmr_group_ids":[],"geometry_role":"text_label","text-field":"4S"},"geometry":{"type":"Point","coordinates":[3.351625278,43.321443611]}},{"type":"Feature","id":"LFMU-c0b78af7c06263cfd1bc","properties":{"airport":"LFMU","name":"2S","layer":"Labels","category":"Gates","object_type":"Label","style_id":"label.gates","source_group":"LFMU Gates","vsmr_group_ids":[],"geometry_role":"text_label","text-field":"2S"},"geometry":{"type":"Point","coordinates":[3.351636667,43.3213075]}},{"type":"Feature","id":"LFMU-81015b6419e9a10db0af","properties":{"airport":"LFMU","name":"1S","layer":"Labels","category":"Gates","object_type":"Label","style_id":"label.gates","source_group":"LFMU Gates","vsmr_group_ids":[],"geometry_role":"text_label","text-field":"1S"},"geometry":{"type":"Point","coordinates":[3.351611111,43.321111944]}},{"type":"Feature","id":"LFMU-ccfab7935dba277c69fe","properties":{"airport":"LFMU","name":"1B","layer":"Labels","category":"Gates","object_type":"Label","style_id":"label.gates","source_group":"LFMU Gates","vsmr_group_ids":[],"geometry_role":"text_label","text-field":"1B"},"geometry":{"type":"Point","coordinates":[3.352337222,43.321565833]}},{"type":"Feature","id":"LFMU-3dd79a2a9692e1d40f18","properties":{"airport":"LFMU","name":"2B","layer":"Labels","category":"Gates","object_type":"Label","style_id":"label.gates","source_group":"LFMU Gates","vsmr_group_ids":[],"geometry_role":"text_label","text-field":"2B"},"geometry":{"type":"Point","coordinates":[3.353048889,43.321541944]}},{"type":"Feature","id":"LFMU-9eeca26e57ca31805d11","properties":{"airport":"LFMU","name":"3B","layer":"Labels","category":"Gates","object_type":"Label","style_id":"label.gates","source_group":"LFMU Gates","vsmr_group_ids":[],"geometry_role":"text_label","text-field":"3B"},"geometry":{"type":"Point","coordinates":[3.353855833,43.321479444]}},{"type":"Feature","id":"LFMU-b1ebb706221e915ede49","properties":{"airport":"LFMU","name":"1AW","layer":"Labels","category":"Gates","object_type":"Label","style_id":"label.gates","source_group":"LFMU Gates","vsmr_group_ids":[],"geometry_role":"text_label","text-field":"1AW"},"geometry":{"type":"Point","coordinates":[3.354624722,43.321202222]}},{"type":"Feature","id":"LFMU-87e4401df34c4aaea7a8","properties":{"airport":"LFMU","name":"1AE","layer":"Labels","category":"Gates","object_type":"Label","style_id":"label.gates","source_group":"LFMU Gates","vsmr_group_ids":[],"geometry_role":"text_label","text-field":"1AE"},"geometry":{"type":"Point","coordinates":[3.354863056,43.321181111]}},{"type":"Feature","id":"LFMU-d6155fed6f7d0ec0e905","properties":{"airport":"LFMU","name":"1CW","layer":"Labels","category":"Gates","object_type":"Label","style_id":"label.gates","source_group":"LFMU Gates","vsmr_group_ids":[],"geometry_role":"text_label","text-field":"1CW"},"geometry":{"type":"Point","coordinates":[3.354608056,43.321118889]}},{"type":"Feature","id":"LFMU-8120edcc1c6dba918f86","properties":{"airport":"LFMU","name":"1CE","layer":"Labels","category":"Gates","object_type":"Label","style_id":"label.gates","source_group":"LFMU Gates","vsmr_group_ids":[],"geometry_role":"text_label","text-field":"1CE"},"geometry":{"type":"Point","coordinates":[3.354784167,43.321230556]}},{"type":"Feature","id":"LFMU-010fb3915a74012cba19","properties":{"airport":"LFMU","name":"3AW","layer":"Labels","category":"Gates","object_type":"Label","style_id":"label.gates","source_group":"LFMU Gates","vsmr_group_ids":[],"geometry_role":"text_label","text-field":"3AW"},"geometry":{"type":"Point","coordinates":[3.355019167,43.321171111]}},{"type":"Feature","id":"LFMU-822136bb831ad2a9b612","properties":{"airport":"LFMU","name":"3AE","layer":"Labels","category":"Gates","object_type":"Label","style_id":"label.gates","source_group":"LFMU Gates","vsmr_group_ids":[],"geometry_role":"text_label","text-field":"3AE"},"geometry":{"type":"Point","coordinates":[3.355229167,43.321158611]}},{"type":"Feature","id":"LFMU-68c62a627a373b4cd139","properties":{"airport":"LFMU","name":"2CW","layer":"Labels","category":"Gates","object_type":"Label","style_id":"label.gates","source_group":"LFMU Gates","vsmr_group_ids":[],"geometry_role":"text_label","text-field":"2CW"},"geometry":{"type":"Point","coordinates":[3.355001667,43.321115]}},{"type":"Feature","id":"LFMU-be08bb16c5e9e99ef3d1","properties":{"airport":"LFMU","name":"2CE","layer":"Labels","category":"Gates","object_type":"Label","style_id":"label.gates","source_group":"LFMU Gates","vsmr_group_ids":[],"geometry_role":"text_label","text-field":"2CE"},"geometry":{"type":"Point","coordinates":[3.355149444,43.321202222]}},{"type":"Feature","id":"LFMU-fed4efe17565d5f42253","properties":{"airport":"LFMU","name":"2AW","layer":"Labels","category":"Gates","object_type":"Label","style_id":"label.gates","source_group":"LFMU Gates","vsmr_group_ids":[],"geometry_role":"text_label","text-field":"2AW"},"geometry":{"type":"Point","coordinates":[3.354559167,43.321019722]}},{"type":"Feature","id":"LFMU-bfdb74e49bcfe6d16a85","properties":{"airport":"LFMU","name":"2AE","layer":"Labels","category":"Gates","object_type":"Label","style_id":"label.gates","source_group":"LFMU Gates","vsmr_group_ids":[],"geometry_role":"text_label","text-field":"2AE"},"geometry":{"type":"Point","coordinates":[3.354825833,43.321000278]}},{"type":"Feature","id":"LFMU-eefbf9f6fd1dcf9f3b65","properties":{"airport":"LFMU","name":"4AW","layer":"Labels","category":"Gates","object_type":"Label","style_id":"label.gates","source_group":"LFMU Gates","vsmr_group_ids":[],"geometry_role":"text_label","text-field":"4AW"},"geometry":{"type":"Point","coordinates":[3.355000833,43.320983333]}},{"type":"Feature","id":"LFMU-1cbf0fbf6d0e96936d44","properties":{"airport":"LFMU","name":"4AE","layer":"Labels","category":"Gates","object_type":"Label","style_id":"label.gates","source_group":"LFMU Gates","vsmr_group_ids":[],"geometry_role":"text_label","text-field":"4AE"},"geometry":{"type":"Point","coordinates":[3.355186944,43.320980556]}},{"type":"Feature","id":"LFMU-06dc5216606b68c285b8","properties":{"airport":"LFMU","name":"LFMU Groundlayout AVISO","layer":"Guidance lines","category":"Taxiways","object_type":"Line","style_id":"line.taxiway.c0b631","source_group":"LFMU Groundlayout AVISO","vsmr_group_ids":[],"geometry_role":"linework"},"geometry":{"type":"MultiLineString","coordinates":[[[3.341972222,43.324195556],[3.342141111,43.324056944],[3.341950556,43.323945]],[[3.355213333,43.321141389],[3.355016111,43.321151389]],[[3.3552075,43.320998056],[3.355007222,43.321008611]],[[3.342341944,43.3241775],[3.342390833,43.324131944]],[[3.342311111,43.323921389],[3.342386389,43.323965833]],[[3.367435,43.322773889],[3.367244444,43.322655833],[3.367401389,43.322528056]],[[3.367072778,43.322795278],[3.366994722,43.322753333]],[[3.367039722,43.322534444],[3.366977222,43.322581944]],[[3.351650833,43.321481389],[3.351920833,43.321465278]],[[3.351654167,43.321286389],[3.3519125,43.321269444]],[[3.351606111,43.321091944],[3.351895278,43.321073611]],[[3.352649444,43.3212975],[3.352243056,43.321541111]],[[3.353418056,43.3212525],[3.352931111,43.321541111]],[[3.354177222,43.3212075],[3.353694722,43.321496389]],[[3.354849444,43.321158611],[3.354596111,43.321176944]],[[3.354828611,43.321018333],[3.354579722,43.321032778]]]}},{"type":"Feature","id":"LFMU-493d035cfb357c5d4892","properties":{"airport":"LFMU","name":"LFMU Groundlayout AVISO","layer":"Guidance lines","category":"Runway Border","object_type":"Line","style_id":"line.runwayborder.808080","source_group":"LFMU Groundlayout AVISO","vsmr_group_ids":[],"geometry_role":"linework"},"geometry":{"type":"MultiLineString","coordinates":[[[3.367008611,43.322877222],[3.366966667,43.322471944]],[[3.342416667,43.324247222],[3.342375556,43.323847778]]]}},{"type":"Feature","id":"LFMU-34569b86eb3f5d8d9831","properties":{"airport":"LFMU","name":"P","layer":"Labels","category":"Taxiways","object_type":"Label","style_id":"label.taxiways","source_group":"LFMU Taxiways","vsmr_group_ids":[],"geometry_role":"text_label","text-field":"P"},"geometry":{"type":"Point","coordinates":[3.352026667,43.322309167]}},{"type":"Feature","id":"LFMU-416a68251efe9372a698","properties":{"airport":"LFMU","name":"A","layer":"Labels","category":"Taxiways","object_type":"Label","style_id":"label.taxiways","source_group":"LFMU Taxiways","vsmr_group_ids":[],"geometry_role":"text_label","text-field":"A"},"geometry":{"type":"Point","coordinates":[3.353598611,43.322236389]}},{"type":"Feature","id":"LFMU-9131e8b8481c1903d32a","properties":{"airport":"LFMU","name":"B","layer":"Labels","category":"Taxiways","object_type":"Label","style_id":"label.taxiways","source_group":"LFMU Taxiways","vsmr_group_ids":[],"geometry_role":"text_label","text-field":"B"},"geometry":{"type":"Point","coordinates":[3.357970278,43.321841667]}},{"type":"Feature","id":"LFMU-41703af47344f60aa67a","properties":{"airport":"LFMU","name":"T1","layer":"Labels","category":"Taxiways","object_type":"Label","style_id":"label.taxiways","source_group":"LFMU Taxiways","vsmr_group_ids":[],"geometry_role":"text_label","text-field":"T1"},"geometry":{"type":"Point","coordinates":[3.354025833,43.321888056]}},{"type":"Feature","id":"LFMU-0f1a56307642938898bf","properties":{"airport":"LFMU","name":"T2","layer":"Labels","category":"Taxiways","object_type":"Label","style_id":"label.taxiways","source_group":"LFMU Taxiways","vsmr_group_ids":[],"geometry_role":"text_label","text-field":"T2"},"geometry":{"type":"Point","coordinates":[3.354679722,43.321671944]}},{"type":"Feature","id":"LFMU-b459f054e725934801f1","properties":{"airport":"LFMU","name":"T3","layer":"Labels","category":"Taxiways","object_type":"Label","style_id":"label.taxiways","source_group":"LFMU Taxiways","vsmr_group_ids":[],"geometry_role":"text_label","text-field":"T3"},"geometry":{"type":"Point","coordinates":[3.356295,43.321412222]}}]}
