{"type":"FeatureCollection","name":"LFMV AVISO","bbox":[4.893954444,43.896636389,4.908183889,43.916735556],"metadata":{"schema":"vSMR AVISO","schema_version":2,"geometry_mode":"shared","airport":"LFMV","coordinate_reference_system":"WGS84","coordinate_order":"longitude, latitude","default_color_palette":"dark","color_palettes":["dark","light"],"background_colors":{"dark":"#434A4F","light":"#434A4F"},"runways":[{"ends":["17R","35L"],"headings":[167,347],"thresholds":[[4.899432778,43.912905833],[4.901105833,43.906725]]},{"ends":["17","35"],"headings":[167,347],"thresholds":[[4.900071944,43.913832778],[4.903335833,43.901738889]]}],"saved_active_runways":[],"saved_active_airport_modes":[],"airport_reference":[4.901943889,43.906666944],"feature_count":85,"style_count":14,"layer_counts":{"Airfield surfaces":24,"Buildings and structures":21,"Guidance lines":4,"Labels":23,"Surface markings":7,"Terrain":6},"category_counts":{"Apron Surface":1,"Buildings":21,"Gates":13,"Gras Surface 2":5,"Grass":1,"Grass runways":2,"Hard Surface 2":8,"Hard Surface 3":7,"Hard Surface 4":5,"Runways":3,"Stopbars":7,"Taxiways":12},"geometry_source":"local GNG","geometry_source_url":"","geometry_license":"GPL-3.0"},"styles":{"line.taxiway.c0b631":{"name":"Taxiways","layer":"Guidance lines","object_type":"Line","paint":{"stroke":"#4E5A69","stroke-opacity":1,"stroke-width":1,"palette-overrides":{"light":{"stroke":"#C0B631"}}},"feature_count":2},"line.runwayconcrete.555555":{"name":"Runways","layer":"Guidance lines","object_type":"Line","paint":{"stroke":"#111318","stroke-opacity":1,"stroke-width":1,"palette-overrides":{"light":{"stroke":"#555555"}}},"feature_count":1},"line.apronsurface.808080":{"name":"Apron Surface","layer":"Guidance lines","object_type":"Line","paint":{"stroke":"#808080","stroke-opacity":1,"stroke-width":1,"palette-overrides":{"light":{"stroke":"#808080"}}},"feature_count":1},"label.gates":{"name":"Gates","layer":"Labels","object_type":"Label","paint":{"text-color":"#CCCCCC","text-font":"Arial","text-size":12,"text-halo-color":"#000000","text-halo-width":1,"text-anchor":"center","zoomLevel":9},"feature_count":13},"label.taxiways":{"name":"Taxiways","layer":"Labels","object_type":"Label","paint":{"text-color":"#CCCCCC","text-font":"Arial","text-size":12,"text-halo-color":"#000000","text-halo-width":1,"text-anchor":"center","zoomLevel":7},"feature_count":10},"polygon.grassurface.00512f":{"name":"Grass","layer":"Terrain","object_type":"Area","paint":{"fill":"#010D19","fill-opacity":1,"palette-overrides":{"light":{"fill":"#00512F"}}},"feature_count":1},"polygon.hardsurface2.595e5b":{"name":"Hard Surface 2","layer":"Airfield surfaces","object_type":"Area","paint":{"fill":"#2F3949","fill-opacity":1,"palette-overrides":{"light":{"fill":"#595E5B"}}},"feature_count":8},"polygon.hardsurface3.8a807f":{"name":"Hard Surface 3","layer":"Airfield surfaces","object_type":"Area","paint":{"fill":"#222D3C","fill-opacity":1,"palette-overrides":{"light":{"fill":"#8A807F"}}},"feature_count":7},"polygon.hardsurface4.969393":{"name":"Hard Surface 4","layer":"Airfield surfaces","object_type":"Area","paint":{"fill":"#152841","fill-opacity":1,"palette-overrides":{"light":{"fill":"#969393"}}},"feature_count":5},"polygon.building.394446":{"name":"Buildings","layer":"Buildings and structures","object_type":"Area","paint":{"fill":"#475570","fill-opacity":1,"palette-overrides":{"light":{"fill":"#394446"}}},"feature_count":21},"polygon.grassurface2.339933":{"name":"Gras Surface 2","layer":"Terrain","object_type":"Area","paint":{"fill":"#339933","fill-opacity":1,"palette-overrides":{"light":{"fill":"#339933"}}},"feature_count":5},"polygon.runwaygrass.008000":{"name":"Grass runways","layer":"Airfield surfaces","object_type":"Area","paint":{"fill":"#859A77","fill-opacity":1,"palette-overrides":{"light":{"fill":"#008000"}}},"feature_count":2},"polygon.runwayconcrete.555555":{"name":"Runways","layer":"Airfield surfaces","object_type":"Area","paint":{"fill":"#111318","fill-opacity":1,"palette-overrides":{"light":{"fill":"#555555"}}},"feature_count":2},"polygon.stopbar.7e0000":{"name":"Stopbars","layer":"Surface markings","object_type":"Area","paint":{"fill":"#7E0000","fill-opacity":1,"palette-overrides":{"light":{"fill":"#7E0000"}}},"feature_count":7}},"vsmr_groups":[],"features":[{"type":"Feature","id":"LFMV-4cc3c78892f339c608ba","properties":{"airport":"LFMV","name":"LFMV AVISO","layer":"Terrain","category":"Grass","object_type":"Area","style_id":"polygon.grassurface.00512f","source_group":"LFMV AVISO","vsmr_group_ids":[],"geometry_role":"filled_region"},"geometry":{"type":"Polygon","coordinates":[[[4.896969444,43.9160075],[4.89728,43.914668611],[4.897173611,43.914655833],[4.896209722,43.914668333],[4.8953975,43.914704167],[4.894845278,43.914743333],[4.893954444,43.9148325],[4.896013889,43.907114167],[4.895975556,43.906998889],[4.895924722,43.906903611],[4.895805556,43.906793889],[4.896378056,43.906838889],[4.897043333,43.904467222],[4.897864722,43.904001111],[4.897495278,43.902976667],[4.897753333,43.902292778],[4.898809722,43.901628333],[4.899253056,43.901390556],[4.899594444,43.901220278],[4.899883333,43.901020278],[4.900178889,43.900772778],[4.900426944,43.900607778],[4.900748333,43.9005225],[4.901344167,43.900398889],[4.901511667,43.899588611],[4.901426667,43.899493056],[4.902433056,43.897200278],[4.904314722,43.896651389],[4.904541667,43.896636389],[4.904695278,43.896645],[4.904905,43.896703333],[4.906054167,43.897486667],[4.905583889,43.899952778],[4.905511944,43.900065],[4.905432222,43.900107778],[4.904866944,43.900136944],[4.904851667,43.900216667],[4.905323056,43.900199722],[4.905524167,43.900184722],[4.90566,43.900201944],[4.905720278,43.900285],[4.906413889,43.9023725],[4.906838889,43.903510833],[4.906934444,43.903783056],[4.9070025,43.903965833],[4.907030278,43.9041025],[4.907353611,43.904774722],[4.907591667,43.905842222],[4.907821944,43.908474722],[4.907803056,43.908687778],[4.907736944,43.908908056],[4.907716111,43.909092222],[4.907711111,43.909258889],[4.908183889,43.912231667],[4.906745833,43.912720278],[4.906304167,43.912913889],[4.905939722,43.913035],[4.905240833,43.913195833],[4.904961111,43.913232778],[4.904820278,43.913298333],[4.904666389,43.913354722],[4.904402222,43.913418056],[4.904166667,43.913458056],[4.903957222,43.9134925],[4.903775556,43.9135375],[4.9021425,43.913745556],[4.902166389,43.913798333],[4.902208611,43.913960833],[4.901611111,43.91586],[4.9015375,43.916027222],[4.901471111,43.916099722],[4.901329722,43.916150278],[4.8991125,43.916588333],[4.898969722,43.916678056],[4.898095833,43.916735556],[4.897708333,43.916735],[4.897470556,43.9166825],[4.896969444,43.9160075]]]}},{"type":"Feature","id":"LFMV-be8657eb0943d16a39c1","properties":{"airport":"LFMV","name":"LFMV AVISO","layer":"Airfield surfaces","category":"Hard Surface 2","object_type":"Area","style_id":"polygon.hardsurface2.595e5b","source_group":"LFMV AVISO","vsmr_group_ids":[],"geometry_role":"filled_region"},"geometry":{"type":"Polygon","coordinates":[[[4.902814444,43.910849722],[4.902981667,43.910664722],[4.903019167,43.910668056],[4.903126111,43.910657778],[4.9034575,43.910803333],[4.903533611,43.910898333],[4.903625278,43.910936111],[4.903591944,43.910980278],[4.905517222,43.911840278],[4.905553056,43.911847222],[4.905583611,43.91185],[4.905627222,43.911848056],[4.905692778,43.911832222],[4.905735556,43.911806389],[4.905495556,43.912125],[4.905513889,43.912061667],[4.905508889,43.912024444],[4.905495,43.911991389],[4.905483611,43.911969167],[4.905476111,43.911960278],[4.903515278,43.911091111],[4.903253611,43.911092778],[4.903223056,43.911094722],[4.902869722,43.910937222],[4.902814444,43.910849722]]]}},{"type":"Feature","id":"LFMV-b1e39b842aacd3c1fc1d","properties":{"airport":"LFMV","name":"LFMV AVISO","layer":"Airfield surfaces","category":"Hard Surface 2","object_type":"Area","style_id":"polygon.hardsurface2.595e5b","source_group":"LFMV AVISO","vsmr_group_ids":[],"geometry_role":"filled_region"},"geometry":{"type":"Polygon","coordinates":[[[4.9014825,43.903681667],[4.901458611,43.903783611],[4.900448611,43.903642222],[4.900393333,43.903642778],[4.900364167,43.903650278],[4.900337222,43.903658611],[4.900308611,43.903676944],[4.900289722,43.903690833],[4.900257778,43.903721111],[4.900335556,43.903427222],[4.9003425,43.903458611],[4.900346944,43.903479722],[4.900353056,43.903495833],[4.900366667,43.903513889],[4.900388611,43.903530278],[4.9005825,43.903556944],[4.900614444,43.9035375],[4.900636111,43.903514444],[4.90067,43.903476389],[4.900680278,43.903455833],[4.900815,43.902983333],[4.9008025,43.902958611],[4.900790833,43.902946111],[4.900769722,43.902927778],[4.900755,43.902925556],[4.900566389,43.902891111],[4.900535556,43.902894167],[4.900507778,43.902903056],[4.900480833,43.9029225],[4.900466111,43.902944167],[4.900456667,43.902986667],[4.900205278,43.902959722],[4.900233611,43.902872778],[4.900233333,43.902856667],[4.900213889,43.902845],[4.900189444,43.902841389],[4.898013889,43.902527778],[4.897965278,43.902526389],[4.8979175,43.902536111],[4.897891111,43.902565],[4.897866944,43.902596667],[4.897838056,43.902670278],[4.897830833,43.902707778],[4.897837778,43.902730556],[4.897850833,43.902761111],[4.897849167,43.9027775],[4.897756389,43.902768611],[4.897856944,43.902413333],[4.900760833,43.9028175],[4.900806944,43.902814167],[4.9008375,43.9028],[4.900863056,43.902775556],[4.900888333,43.902706944],[4.901023889,43.9022475],[4.901023611,43.902231111],[4.901012778,43.902218056],[4.900991389,43.90221],[4.900398333,43.902118611],[4.900428611,43.902003611],[4.900431944,43.902020556],[4.900447222,43.902028611],[4.901191389,43.902135278],[4.900807222,43.903498056],[4.900809444,43.903541944],[4.900821944,43.903560278],[4.900830556,43.9035775],[4.900843056,43.903594722],[4.9014825,43.903681667]]]}},{"type":"Feature","id":"LFMV-9c84daf30152c27d1564","properties":{"airport":"LFMV","name":"LFMV AVISO","layer":"Airfield surfaces","category":"Hard Surface 2","object_type":"Area","style_id":"polygon.hardsurface2.595e5b","source_group":"LFMV AVISO","vsmr_group_ids":[],"geometry_role":"filled_region"},"geometry":{"type":"Polygon","coordinates":[[[4.9002525,43.906403333],[4.900203889,43.906396389],[4.900174167,43.906399167],[4.900153056,43.906408611],[4.900133056,43.9064225],[4.900109444,43.906443889],[4.900077778,43.906478056],[4.900048056,43.906515833],[4.900009722,43.906570556],[4.899031389,43.910163611],[4.898844444,43.910145833],[4.898850833,43.910065],[4.898831111,43.910014722],[4.898815556,43.909976667],[4.898783056,43.909939444],[4.898736667,43.909890833],[4.898684722,43.909866389],[4.898605556,43.909845556],[4.898516667,43.909825],[4.898458889,43.909815278],[4.898401111,43.909810278],[4.898346944,43.909809722],[4.898286389,43.909831111],[4.898225833,43.909852222],[4.898195833,43.909877222],[4.898149722,43.909945833],[4.898261944,43.909526944],[4.898273333,43.909573056],[4.898287778,43.909611944],[4.898315278,43.909638889],[4.8983525,43.909665556],[4.8984,43.909684444],[4.898471667,43.909705556],[4.898553056,43.909721111],[4.898658611,43.909729722],[4.898752778,43.909719167],[4.898836389,43.909695556],[4.898908611,43.909655278],[4.898950278,43.909616111],[4.8989975,43.909560833],[4.899013611,43.909490833],[4.899806389,43.906568611],[4.899806111,43.906531944],[4.899799167,43.906495833],[4.899783611,43.906473333],[4.899764722,43.906431944],[4.899724722,43.906387778],[4.899700278,43.906353889],[4.899663889,43.906336944],[4.898385833,43.906139444],[4.898423056,43.906011944],[4.898865556,43.906074444],[4.8991625,43.904989722],[4.899490556,43.905038333],[4.899209722,43.906095],[4.899782222,43.906193889],[4.899883889,43.906205556],[4.900115278,43.906241111],[4.900288889,43.906268889],[4.9002525,43.906403333]]]}},{"type":"Feature","id":"LFMV-fd68272269e126ac3601","properties":{"airport":"LFMV","name":"LFMV AVISO","layer":"Airfield surfaces","category":"Hard Surface 3","object_type":"Area","style_id":"polygon.hardsurface3.8a807f","source_group":"LFMV AVISO","vsmr_group_ids":[],"geometry_role":"filled_region"},"geometry":{"type":"Polygon","coordinates":[[[4.9059875,43.911476111],[4.906071667,43.911498056],[4.906136667,43.911496389],[4.906189444,43.911485833],[4.906242222,43.911458889],[4.906534722,43.911083333],[4.906548333,43.911039444],[4.906541944,43.911008333],[4.906528056,43.910982222],[4.906502222,43.910954722],[4.906423889,43.910911944],[4.907056944,43.9100775],[4.907396667,43.910171944],[4.905654722,43.912519722],[4.905304722,43.912375833],[4.9059875,43.911476111]]]}},{"type":"Feature","id":"LFMV-8a69cc23d41eb6b91e4a","properties":{"airport":"LFMV","name":"LFMV AVISO","layer":"Airfield surfaces","category":"Hard Surface 3","object_type":"Area","style_id":"polygon.hardsurface3.8a807f","source_group":"LFMV AVISO","vsmr_group_ids":[],"geometry_role":"filled_region"},"geometry":{"type":"Polygon","coordinates":[[[4.898128056,43.908785556],[4.898453611,43.908824722],[4.8980525,43.910294722],[4.897738889,43.910255278],[4.898128056,43.908785556]]]}},{"type":"Feature","id":"LFMV-e79115f4f9542848ebbb","properties":{"airport":"LFMV","name":"LFMV AVISO","layer":"Airfield surfaces","category":"Hard Surface 3","object_type":"Area","style_id":"polygon.hardsurface3.8a807f","source_group":"LFMV AVISO","vsmr_group_ids":[],"geometry_role":"filled_region"},"geometry":{"type":"Polygon","coordinates":[[[4.899726667,43.906386667],[4.899671944,43.906378889],[4.899641111,43.906383056],[4.899587778,43.9064025],[4.899541944,43.9064375],[4.899503333,43.906469167],[4.899451667,43.906534722],[4.899360556,43.906925556],[4.898054722,43.90674],[4.897874722,43.906718889],[4.897887222,43.906691111],[4.896605278,43.906538611],[4.896739167,43.906076111],[4.897093333,43.906103889],[4.897130278,43.905994167],[4.897158611,43.905858889],[4.898212778,43.906005278],[4.898250556,43.905993333],[4.898277222,43.90597],[4.898304722,43.905875278],[4.898366111,43.905880833],[4.898379444,43.905821667],[4.898434722,43.905826389],[4.898629444,43.905120556],[4.898940833,43.905163333],[4.898968056,43.905161944],[4.898991111,43.905153056],[4.899004722,43.905133889],[4.899039167,43.904983056],[4.899008056,43.904978889],[4.899021111,43.904945833],[4.899008889,43.904923889],[4.899049444,43.904766389],[4.899061389,43.904743611],[4.899112222,43.904711111],[4.899275,43.904089167],[4.899271389,43.904068611],[4.899251111,43.904060556],[4.899226944,43.9040525],[4.899171389,43.904042222],[4.899187222,43.9039925],[4.899249722,43.904003611],[4.899271667,43.904001667],[4.899302778,43.903987778],[4.899316389,43.903959444],[4.899578889,43.903035278],[4.899710556,43.903051389],[4.899746111,43.902916111],[4.900031944,43.902958333],[4.900109167,43.902963056],[4.900207778,43.902956667],[4.900453889,43.902985278],[4.899899167,43.905065],[4.899825,43.905128333],[4.899596667,43.9059425],[4.8996125,43.906023333],[4.8996525,43.906076667],[4.899725278,43.906135],[4.899788056,43.906154444],[4.899726667,43.906386667]]]}},{"type":"Feature","id":"LFMV-565ee4acd4001ee0fa1a","properties":{"airport":"LFMV","name":"LFMV AVISO","layer":"Airfield surfaces","category":"Hard Surface 3","object_type":"Area","style_id":"polygon.hardsurface3.8a807f","source_group":"LFMV AVISO","vsmr_group_ids":[],"geometry_role":"filled_region"},"geometry":{"type":"Polygon","coordinates":[[[4.899186389,43.902696389],[4.899166111,43.902709167],[4.899135556,43.9027275],[4.899071111,43.902946667],[4.897905833,43.902788333],[4.897943611,43.902654167],[4.897923056,43.902641389],[4.897893889,43.902639167],[4.897861944,43.902649444],[4.897837222,43.902665833],[4.897869722,43.902590556],[4.898302778,43.902648056],[4.898315556,43.902633889],[4.898308056,43.902616944],[4.898277222,43.902568056],[4.898559444,43.902607222],[4.898521944,43.902627778],[4.898495833,43.902652222],[4.898481944,43.902669444],[4.898943889,43.902736389],[4.898964167,43.902708056],[4.898959722,43.902681667],[4.898941944,43.902661667],[4.899186389,43.902696389]]]}},{"type":"Feature","id":"LFMV-ff38cf6f6b65276002bc","properties":{"airport":"LFMV","name":"LFMV AVISO","layer":"Airfield surfaces","category":"Hard Surface 3","object_type":"Area","style_id":"polygon.hardsurface3.8a807f","source_group":"LFMV AVISO","vsmr_group_ids":[],"geometry_role":"filled_region"},"geometry":{"type":"Polygon","coordinates":[[[4.899818333,43.902685556],[4.899886111,43.902661667],[4.899907222,43.902627222],[4.899807222,43.902610278],[4.90023,43.901038611],[4.900459444,43.901096111],[4.9004375,43.901193889],[4.900440278,43.901211389],[4.900451389,43.901226389],[4.900634444,43.901258333],[4.900398333,43.90212],[4.900223889,43.902098333],[4.90021,43.902098333],[4.900199722,43.902100556],[4.900188056,43.902112778],[4.9001825,43.9021275],[4.9000375,43.902658056],[4.900041944,43.9026675],[4.900053056,43.902681389],[4.900094722,43.902724722],[4.899818333,43.902685556]]]}},{"type":"Feature","id":"LFMV-7383ed7620d5854d9454","properties":{"airport":"LFMV","name":"LFMV AVISO","layer":"Airfield surfaces","category":"Hard Surface 4","object_type":"Area","style_id":"polygon.hardsurface4.969393","source_group":"LFMV AVISO","vsmr_group_ids":[],"geometry_role":"filled_region"},"geometry":{"type":"Polygon","coordinates":[[[4.900809444,43.910063333],[4.900793889,43.910049722],[4.900768889,43.910040556],[4.900536111,43.910001389],[4.900561667,43.909908889],[4.900815,43.909935556],[4.900829722,43.909932222],[4.900849167,43.909926389],[4.900809444,43.910063333]]]}},{"type":"Feature","id":"LFMV-4e03c3229943061fa33e","properties":{"airport":"LFMV","name":"LFMV AVISO","layer":"Airfield surfaces","category":"Hard Surface 2","object_type":"Area","style_id":"polygon.hardsurface2.595e5b","source_group":"LFMV AVISO","vsmr_group_ids":[],"geometry_role":"filled_region"},"geometry":{"type":"Polygon","coordinates":[[[4.900919167,43.903707778],[4.900881389,43.903711667],[4.90086,43.903720556],[4.900835,43.903738333],[4.900804444,43.903761111],[4.900773889,43.903781944],[4.900742222,43.903814444],[4.900723611,43.903854167],[4.900566944,43.903829167],[4.900570833,43.903773889],[4.900557222,43.903739444],[4.900542778,43.903717778],[4.900519167,43.903693889],[4.900499722,43.903676389],[4.900480556,43.90366],[4.900451944,43.903641389],[4.900919167,43.903707778]]]}},{"type":"Feature","id":"LFMV-8a66c73c58313020cf9e","properties":{"airport":"LFMV","name":"LFMV AVISO","layer":"Airfield surfaces","category":"Hard Surface 2","object_type":"Area","style_id":"polygon.hardsurface2.595e5b","source_group":"LFMV AVISO","vsmr_group_ids":[],"geometry_role":"filled_region"},"geometry":{"type":"Polygon","coordinates":[[[4.899788333,43.906154444],[4.899853889,43.906150278],[4.899882222,43.906128889],[4.899915833,43.906101389],[4.899946944,43.906035278],[4.899978889,43.905920833],[4.900163333,43.905945833],[4.900155,43.905983056],[4.900141111,43.906038333],[4.900129167,43.906085833],[4.900139167,43.906143889],[4.9001575,43.906169167],[4.900185556,43.906199167],[4.900207778,43.90622],[4.900280556,43.906232778],[4.900267778,43.906266111],[4.899774722,43.906196111],[4.899788333,43.906154444]]]}},{"type":"Feature","id":"LFMV-7b891e8cf864335bccca","properties":{"airport":"LFMV","name":"LFMV AVISO","layer":"Airfield surfaces","category":"Hard Surface 4","object_type":"Area","style_id":"polygon.hardsurface4.969393","source_group":"LFMV AVISO","vsmr_group_ids":[],"geometry_role":"filled_region"},"geometry":{"type":"Polygon","coordinates":[[[4.903215556,43.901180278],[4.903176111,43.901157778],[4.902558333,43.901072222],[4.902371389,43.901113333],[4.902444444,43.9008575],[4.902587222,43.900942778],[4.903171944,43.901026667],[4.903217778,43.9010275],[4.903220833,43.901026389],[4.903243333,43.90102],[4.903257778,43.901015278],[4.903215556,43.901180278]]]}},{"type":"Feature","id":"LFMV-bef75ccaed94995b1863","properties":{"airport":"LFMV","name":"LFMV AVISO","layer":"Buildings and structures","category":"Buildings","object_type":"Area","style_id":"polygon.building.394446","source_group":"LFMV AVISO","vsmr_group_ids":[],"geometry_role":"filled_region"},"geometry":{"type":"Polygon","coordinates":[[[4.906328056,43.911615833],[4.906643056,43.911735],[4.905948611,43.91263],[4.9056475,43.912510833],[4.906328056,43.911615833]]]}},{"type":"Feature","id":"LFMV-326ea349614860e8f0cd","properties":{"airport":"LFMV","name":"LFMV AVISO","layer":"Buildings and structures","category":"Buildings","object_type":"Area","style_id":"polygon.building.394446","source_group":"LFMV AVISO","vsmr_group_ids":[],"geometry_role":"filled_region"},"geometry":{"type":"Polygon","coordinates":[[[4.906698056,43.911131111],[4.907392222,43.910217778],[4.907549444,43.910285556],[4.907573889,43.910251111],[4.90771,43.910309167],[4.90768,43.910343611],[4.907702222,43.91036],[4.907562778,43.910541667],[4.907483611,43.910509444],[4.907285278,43.910774167],[4.907218889,43.910749722],[4.906873611,43.911194444],[4.906698056,43.911131111]]]}},{"type":"Feature","id":"LFMV-2e65cee617208b0fadf5","properties":{"airport":"LFMV","name":"LFMV AVISO","layer":"Buildings and structures","category":"Buildings","object_type":"Area","style_id":"polygon.building.394446","source_group":"LFMV AVISO","vsmr_group_ids":[],"geometry_role":"filled_region"},"geometry":{"type":"Polygon","coordinates":[[[4.899967778,43.901033611],[4.900218333,43.90104],[4.899799167,43.902610556],[4.899551111,43.902576667],[4.899967778,43.901033611]]]}},{"type":"Feature","id":"LFMV-5722be03a09c9398a432","properties":{"airport":"LFMV","name":"LFMV AVISO","layer":"Buildings and structures","category":"Buildings","object_type":"Area","style_id":"polygon.building.394446","source_group":"LFMV AVISO","vsmr_group_ids":[],"geometry_role":"filled_region"},"geometry":{"type":"Polygon","coordinates":[[[4.899060833,43.902950278],[4.899004722,43.903151389],[4.897838611,43.902994722],[4.897901111,43.902784722],[4.899060833,43.902950278]]]}},{"type":"Feature","id":"LFMV-6aa8588271fcb022fcc5","properties":{"airport":"LFMV","name":"LFMV AVISO","layer":"Buildings and structures","category":"Buildings","object_type":"Area","style_id":"polygon.building.394446","source_group":"LFMV AVISO","vsmr_group_ids":[],"geometry_role":"filled_region"},"geometry":{"type":"Polygon","coordinates":[[[4.899510556,43.903264444],[4.899386944,43.903660278],[4.898985833,43.903606111],[4.899083056,43.903205],[4.899510556,43.903264444]]]}},{"type":"Feature","id":"LFMV-538a1e74b4a364add6dc","properties":{"airport":"LFMV","name":"LFMV AVISO","layer":"Buildings and structures","category":"Buildings","object_type":"Area","style_id":"polygon.building.394446","source_group":"LFMV AVISO","vsmr_group_ids":[],"geometry_role":"filled_region"},"geometry":{"type":"Polygon","coordinates":[[[4.899274444,43.9036475],[4.899262222,43.9037075],[4.899294167,43.903712778],[4.899300278,43.903729722],[4.899309722,43.903744167],[4.899303889,43.903761667],[4.899291667,43.903774722],[4.899276667,43.903785278],[4.899237778,43.903785556],[4.899214444,43.903783333],[4.899191667,43.903791111],[4.899183889,43.903814167],[4.899231667,43.9038675],[4.899317222,43.903881944],[4.899294444,43.903975833],[4.899108611,43.903947778],[4.899060278,43.903851667],[4.899089167,43.903794444],[4.899182778,43.903746944],[4.899169167,43.903716667],[4.899161389,43.903706389],[4.899168889,43.903689167],[4.899185556,43.903685556],[4.899216667,43.903676944],[4.899232222,43.903641111],[4.899274444,43.9036475]]]}},{"type":"Feature","id":"LFMV-0865da4878ec6accca27","properties":{"airport":"LFMV","name":"LFMV AVISO","layer":"Buildings and structures","category":"Buildings","object_type":"Area","style_id":"polygon.building.394446","source_group":"LFMV AVISO","vsmr_group_ids":[],"geometry_role":"filled_region"},"geometry":{"type":"Polygon","coordinates":[[[4.89924,43.904210278],[4.899172222,43.904510833],[4.899138333,43.904591944],[4.899033611,43.904575556],[4.899008611,43.904558333],[4.899011111,43.904545278],[4.899031389,43.904524444],[4.899047778,43.904454167],[4.899006667,43.904444444],[4.899079444,43.904190278],[4.89924,43.904210278]]]}},{"type":"Feature","id":"LFMV-569db254b3be89955769","properties":{"airport":"LFMV","name":"LFMV AVISO","layer":"Buildings and structures","category":"Buildings","object_type":"Area","style_id":"polygon.building.394446","source_group":"LFMV AVISO","vsmr_group_ids":[],"geometry_role":"filled_region"},"geometry":{"type":"Polygon","coordinates":[[[4.898870278,43.904616111],[4.898886389,43.904566111],[4.898989444,43.904583611],[4.898974167,43.904631944],[4.898870278,43.904616111]]]}},{"type":"Feature","id":"LFMV-1c701ac59438fae013bd","properties":{"airport":"LFMV","name":"LFMV AVISO","layer":"Buildings and structures","category":"Buildings","object_type":"Area","style_id":"polygon.building.394446","source_group":"LFMV AVISO","vsmr_group_ids":[],"geometry_role":"filled_region"},"geometry":{"type":"Polygon","coordinates":[[[4.8983675,43.904507778],[4.898321667,43.904660278],[4.898246111,43.904656389],[4.898246389,43.904673889],[4.898266389,43.904687222],[4.898229167,43.904717222],[4.898186667,43.904696111],[4.898215278,43.904662778],[4.8981275,43.904651111],[4.898173611,43.904496944],[4.898211111,43.904485833],[4.8983675,43.904507778]]]}},{"type":"Feature","id":"LFMV-d6aeeb3fd1385b106935","properties":{"airport":"LFMV","name":"LFMV AVISO","layer":"Buildings and structures","category":"Buildings","object_type":"Area","style_id":"polygon.building.394446","source_group":"LFMV AVISO","vsmr_group_ids":[],"geometry_role":"filled_region"},"geometry":{"type":"Polygon","coordinates":[[[4.897861944,43.905705],[4.897875556,43.905656389],[4.8978275,43.905648333],[4.897841111,43.905597778],[4.897878611,43.905603056],[4.8979525,43.905318889],[4.8979,43.905313333],[4.897911111,43.905261667],[4.897972778,43.905266111],[4.897992778,43.905152778],[4.897954444,43.905144444],[4.897981389,43.905072222],[4.898028056,43.905083056],[4.898028611,43.905059167],[4.897954167,43.905046944],[4.897971944,43.904995278],[4.898048056,43.904999722],[4.898108611,43.9050075],[4.898115556,43.904983333],[4.898056111,43.904974444],[4.8980975,43.904872222],[4.898212222,43.904881111],[4.898207222,43.904910278],[4.898240556,43.904915278],[4.898232778,43.9049675],[4.898202778,43.904964722],[4.8982,43.904996944],[4.898175,43.9049975],[4.898156667,43.905103333],[4.898258056,43.9051225],[4.898250833,43.905150278],[4.898514444,43.905180833],[4.898488611,43.905274444],[4.898265278,43.905251111],[4.898248056,43.905333056],[4.898398889,43.90535],[4.898394167,43.905370833],[4.898451389,43.905379722],[4.898403611,43.905545556],[4.898225833,43.905523056],[4.898134722,43.905508611],[4.898140556,43.905485278],[4.898108333,43.905483889],[4.898083889,43.905593611],[4.898049722,43.905593056],[4.898048333,43.905621389],[4.898093333,43.905628889],[4.898076944,43.905675],[4.898036111,43.905671667],[4.898019722,43.905725556],[4.897861944,43.905705]]]}},{"type":"Feature","id":"LFMV-9543c346d7f7ad477110","properties":{"airport":"LFMV","name":"LFMV AVISO","layer":"Buildings and structures","category":"Buildings","object_type":"Area","style_id":"polygon.building.394446","source_group":"LFMV AVISO","vsmr_group_ids":[],"geometry_role":"filled_region"},"geometry":{"type":"Polygon","coordinates":[[[4.896960556,43.906583611],[4.897879444,43.906689167],[4.897862778,43.906733611],[4.897972778,43.906749444],[4.897909722,43.906973611],[4.897817222,43.906969167],[4.897738889,43.907323611],[4.8975575,43.907305556],[4.8975725,43.907255833],[4.897396111,43.907228889],[4.897478333,43.906857778],[4.896896667,43.906782222],[4.896960556,43.906583611]]]}},{"type":"Feature","id":"LFMV-9c6188e5ee7efcad5ff2","properties":{"airport":"LFMV","name":"LFMV AVISO","layer":"Buildings and structures","category":"Buildings","object_type":"Area","style_id":"polygon.building.394446","source_group":"LFMV AVISO","vsmr_group_ids":[],"geometry_role":"filled_region"},"geometry":{"type":"Polygon","coordinates":[[[4.898124722,43.908803611],[4.898016389,43.909224444],[4.897990278,43.9093025],[4.897905833,43.909290833],[4.897923056,43.909213889],[4.897760833,43.909192778],[4.897862778,43.908780833],[4.898124722,43.908803611]]]}},{"type":"Feature","id":"LFMV-4ec93179c0490739cf35","properties":{"airport":"LFMV","name":"LFMV AVISO","layer":"Buildings and structures","category":"Buildings","object_type":"Area","style_id":"polygon.building.394446","source_group":"LFMV AVISO","vsmr_group_ids":[],"geometry_role":"filled_region"},"geometry":{"type":"Polygon","coordinates":[[[4.897943333,43.909481944],[4.897761389,43.910198056],[4.897455833,43.910195556],[4.897498333,43.910005278],[4.897258611,43.909963333],[4.897213056,43.910108333],[4.896979722,43.9100775],[4.897056667,43.909820278],[4.897388333,43.909870278],[4.897442778,43.909689444],[4.897330833,43.909673611],[4.897361667,43.909570556],[4.897615556,43.909606944],[4.8976625,43.909453056],[4.897943333,43.909481944]]]}},{"type":"Feature","id":"LFMV-e7ae4a5332cc63d450c5","properties":{"airport":"LFMV","name":"LFMV AVISO","layer":"Buildings and structures","category":"Buildings","object_type":"Area","style_id":"polygon.building.394446","source_group":"LFMV AVISO","vsmr_group_ids":[],"geometry_role":"filled_region"},"geometry":{"type":"Polygon","coordinates":[[[4.896105278,43.90884],[4.895840833,43.908814167],[4.895893333,43.908605],[4.896156667,43.908635556],[4.896105278,43.90884]]]}},{"type":"Feature","id":"LFMV-f1ae95c59ea739707cf2","properties":{"airport":"LFMV","name":"LFMV AVISO","layer":"Buildings and structures","category":"Buildings","object_type":"Area","style_id":"polygon.building.394446","source_group":"LFMV AVISO","vsmr_group_ids":[],"geometry_role":"filled_region"},"geometry":{"type":"Polygon","coordinates":[[[4.89594,43.907765556],[4.896404722,43.907824722],[4.896364444,43.908035],[4.896418889,43.908097222],[4.89637,43.908133056],[4.896264444,43.908122778],[4.896250833,43.908164722],[4.896215,43.908165278],[4.896195556,43.908234444],[4.896248056,43.908245],[4.896213333,43.908401389],[4.895848611,43.908361667],[4.895885556,43.908201111],[4.895849722,43.908195833],[4.895867222,43.908134444],[4.895831389,43.908129444],[4.895869167,43.908014444],[4.89594,43.907765556]]]}},{"type":"Feature","id":"LFMV-c57b9cf6d7865ecdd7bb","properties":{"airport":"LFMV","name":"LFMV AVISO","layer":"Buildings and structures","category":"Buildings","object_type":"Area","style_id":"polygon.building.394446","source_group":"LFMV AVISO","vsmr_group_ids":[],"geometry_role":"filled_region"},"geometry":{"type":"Polygon","coordinates":[[[4.896114722,43.907428333],[4.896443333,43.907468056],[4.896416111,43.907568889],[4.896087222,43.907529167],[4.896114722,43.907428333]]]}},{"type":"Feature","id":"LFMV-b7afd17eac7e543c3d68","properties":{"airport":"LFMV","name":"LFMV AVISO","layer":"Buildings and structures","category":"Buildings","object_type":"Area","style_id":"polygon.building.394446","source_group":"LFMV AVISO","vsmr_group_ids":[],"geometry_role":"filled_region"},"geometry":{"type":"Polygon","coordinates":[[[4.896179444,43.907209722],[4.896410833,43.907238333],[4.896396667,43.907294722],[4.89617,43.9072675],[4.896179444,43.907209722]]]}},{"type":"Feature","id":"LFMV-3b4308d473de6dff6184","properties":{"airport":"LFMV","name":"LFMV AVISO","layer":"Buildings and structures","category":"Buildings","object_type":"Area","style_id":"polygon.building.394446","source_group":"LFMV AVISO","vsmr_group_ids":[],"geometry_role":"filled_region"},"geometry":{"type":"Polygon","coordinates":[[[4.896229444,43.907074444],[4.896642222,43.9071225],[4.896622778,43.90721],[4.896205278,43.907156389],[4.896229444,43.907074444]]]}},{"type":"Feature","id":"LFMV-dcf72e904ed52376b4e2","properties":{"airport":"LFMV","name":"LFMV AVISO","layer":"Buildings and structures","category":"Buildings","object_type":"Area","style_id":"polygon.building.394446","source_group":"LFMV AVISO","vsmr_group_ids":[],"geometry_role":"filled_region"},"geometry":{"type":"Polygon","coordinates":[[[4.897006667,43.904975278],[4.897080833,43.904980278],[4.896914722,43.905631389],[4.896842222,43.905622222],[4.897006667,43.904975278]]]}},{"type":"Feature","id":"LFMV-9ae0c9b0379b83dbd86a","properties":{"airport":"LFMV","name":"LFMV AVISO","layer":"Buildings and structures","category":"Buildings","object_type":"Area","style_id":"polygon.building.394446","source_group":"LFMV AVISO","vsmr_group_ids":[],"geometry_role":"filled_region"},"geometry":{"type":"Polygon","coordinates":[[[4.897123611,43.905134444],[4.897197222,43.905144444],[4.897189722,43.9051975],[4.897263056,43.9052075],[4.897165,43.9056],[4.89709,43.905586389],[4.8970925,43.905576111],[4.896997778,43.905569167],[4.897123611,43.905134444]]]}},{"type":"Feature","id":"LFMV-ad516811eabb79c90bd3","properties":{"airport":"LFMV","name":"LFMV AVISO","layer":"Buildings and structures","category":"Buildings","object_type":"Area","style_id":"polygon.building.394446","source_group":"LFMV AVISO","vsmr_group_ids":[],"geometry_role":"filled_region"},"geometry":{"type":"Polygon","coordinates":[[[4.896605833,43.914308333],[4.896560833,43.914498611],[4.896553333,43.914515278],[4.896535278,43.914523889],[4.895704444,43.914402222],[4.895668889,43.914385556],[4.8956625,43.914413056],[4.895105,43.914333333],[4.895080556,43.914319167],[4.895076389,43.914292778],[4.895428056,43.913033056],[4.896281944,43.913153056],[4.896251944,43.913314722],[4.896558889,43.913368056],[4.896494167,43.913616389],[4.8959225,43.913529722],[4.895743889,43.914201111],[4.896605833,43.914308333]]]}},{"type":"Feature","id":"LFMV-ead900a0155626cad77d","properties":{"airport":"LFMV","name":"LFMV AVISO","layer":"Airfield surfaces","category":"Hard Surface 3","object_type":"Area","style_id":"polygon.hardsurface3.8a807f","source_group":"LFMV AVISO","vsmr_group_ids":[],"geometry_role":"filled_region"},"geometry":{"type":"Polygon","coordinates":[[[4.897554167,43.913701111],[4.8974525,43.91403],[4.897543056,43.914042778],[4.897521944,43.914147222],[4.89743,43.914131389],[4.897335833,43.914481389],[4.897040833,43.914444722],[4.897115278,43.914165278],[4.897077222,43.914157222],[4.896978889,43.914256111],[4.896936667,43.914382778],[4.895726667,43.914225278],[4.895926389,43.913525556],[4.8967925,43.913675556],[4.896749167,43.913882778],[4.897058889,43.913926667],[4.897101389,43.913810278],[4.897148056,43.913908889],[4.897178333,43.913910833],[4.897253611,43.913658333],[4.897554167,43.913701111]]]}},{"type":"Feature","id":"LFMV-042f1871afb017acb745","properties":{"airport":"LFMV","name":"LFMV AVISO","layer":"Airfield surfaces","category":"Hard Surface 4","object_type":"Area","style_id":"polygon.hardsurface4.969393","source_group":"LFMV AVISO","vsmr_group_ids":[],"geometry_role":"filled_region"},"geometry":{"type":"Polygon","coordinates":[[[4.899505556,43.907665833],[4.8995075,43.907618056],[4.8995,43.907581111],[4.899482778,43.907540556],[4.899450278,43.907498333],[4.899395833,43.907463889],[4.899329167,43.907430556],[4.899256389,43.907409444],[4.899211111,43.907403056],[4.899139167,43.907372778],[4.898851111,43.907331389],[4.898831944,43.907316111],[4.898825278,43.907304167],[4.898835278,43.907283333],[4.898834444,43.907266111],[4.898826111,43.907253333],[4.898830556,43.907238611],[4.898843333,43.9072325],[4.898870278,43.907233611],[4.899198056,43.907276111],[4.899219722,43.907271111],[4.899248889,43.907268333],[4.899313056,43.907273056],[4.899368056,43.907274444],[4.899431944,43.90727],[4.899484167,43.907260556],[4.899515556,43.907242778],[4.899553611,43.907221944],[4.899593611,43.907192222],[4.899640278,43.907146944],[4.899656944,43.907123889],[4.899505556,43.907665833]]]}},{"type":"Feature","id":"LFMV-c19231ca4e5f58526ca6","properties":{"airport":"LFMV","name":"LFMV AVISO","layer":"Airfield surfaces","category":"Hard Surface 4","object_type":"Area","style_id":"polygon.hardsurface4.969393","source_group":"LFMV AVISO","vsmr_group_ids":[],"geometry_role":"filled_region"},"geometry":{"type":"Polygon","coordinates":[[[4.898423611,43.911689167],[4.898419722,43.911586111],[4.898406111,43.911553333],[4.8983775,43.911520278],[4.898351111,43.911489444],[4.898290556,43.911463611],[4.897941111,43.9114175],[4.897850833,43.911429444],[4.897803056,43.91145],[4.897769167,43.911474167],[4.897723611,43.911505278],[4.89771,43.911538611],[4.897698889,43.911561389],[4.897687778,43.911561944],[4.897666111,43.911559722],[4.897663333,43.9115475],[4.897673611,43.911534444],[4.897679167,43.911508056],[4.897695278,43.911488889],[4.897719167,43.911459167],[4.897726944,43.911427778],[4.897740833,43.911380556],[4.897744167,43.9113575],[4.897745556,43.911333333],[4.897745,43.911315],[4.897755833,43.911281389],[4.897764444,43.911255],[4.897778333,43.911221944],[4.897784722,43.911201944],[4.897793056,43.911171389],[4.897796389,43.911146111],[4.897801667,43.911121111],[4.897810833,43.911103889],[4.897820278,43.911115],[4.897825278,43.911169722],[4.897838889,43.911212222],[4.897866667,43.911245556],[4.897893611,43.911272778],[4.897933056,43.911292778],[4.897962778,43.911306389],[4.898241389,43.911354167],[4.898316389,43.911354444],[4.898390278,43.911338889],[4.898467222,43.911303056],[4.898501111,43.9112775],[4.898516944,43.9112525],[4.8985525,43.911206389],[4.898423611,43.911689167]]]}},{"type":"Feature","id":"LFMV-84af57cac73f32bddcdb","properties":{"airport":"LFMV","name":"LFMV AVISO","layer":"Airfield surfaces","category":"Hard Surface 4","object_type":"Area","style_id":"polygon.hardsurface4.969393","source_group":"LFMV AVISO","vsmr_group_ids":[],"geometry_role":"filled_region"},"geometry":{"type":"Polygon","coordinates":[[[4.8980925,43.912898333],[4.898082222,43.912856944],[4.898071667,43.912820556],[4.898048056,43.91279],[4.898013611,43.912761111],[4.89797,43.912735556],[4.897920556,43.912723611],[4.897631389,43.912678889],[4.897559444,43.91268],[4.897511111,43.912690556],[4.897464167,43.912709444],[4.897428333,43.912729444],[4.897402222,43.912755833],[4.8973825,43.912786389],[4.897365556,43.912818333],[4.897339444,43.912812222],[4.897360278,43.912777778],[4.897379444,43.912732778],[4.8974525,43.912461389],[4.897450556,43.912420833],[4.897453333,43.912404444],[4.897465556,43.912364722],[4.897489167,43.912363611],[4.897480556,43.91241],[4.89749,43.912445],[4.897505556,43.912482222],[4.89753,43.912514444],[4.897563611,43.912542778],[4.897598889,43.912560278],[4.897636667,43.912571944],[4.897919444,43.912613333],[4.897998611,43.912613056],[4.898048889,43.912601667],[4.898091667,43.912588889],[4.898128333,43.912569444],[4.898158889,43.912547778],[4.898196944,43.912498056],[4.8980925,43.912898333]]]}},{"type":"Feature","id":"LFMV-757137dd0d8bbe70c85f","properties":{"airport":"LFMV","name":"LFMV AVISO","layer":"Airfield surfaces","category":"Hard Surface 2","object_type":"Area","style_id":"polygon.hardsurface2.595e5b","source_group":"LFMV AVISO","vsmr_group_ids":[],"geometry_role":"filled_region"},"geometry":{"type":"Polygon","coordinates":[[[4.899469722,43.913509722],[4.899308333,43.913488056],[4.899343611,43.913378056],[4.899486389,43.913398333],[4.899469722,43.913509722]]]}},{"type":"Feature","id":"LFMV-d84a597930cd7d25c585","properties":{"airport":"LFMV","name":"LFMV AVISO","layer":"Airfield surfaces","category":"Hard Surface 2","object_type":"Area","style_id":"polygon.hardsurface2.595e5b","source_group":"LFMV AVISO","vsmr_group_ids":[],"geometry_role":"filled_region"},"geometry":{"type":"Polygon","coordinates":[[[4.897648889,43.9145375],[4.897695,43.914338056],[4.897698333,43.914292222],[4.897685278,43.914258333],[4.897659167,43.914223611],[4.897636111,43.914196111],[4.897608889,43.914176944],[4.897576111,43.914165],[4.897522778,43.9141475],[4.897542222,43.914041111],[4.897605556,43.9140475],[4.897644722,43.914040278],[4.8976875,43.914025278],[4.897726111,43.914007778],[4.897761389,43.913985278],[4.897794444,43.913950833],[4.897816111,43.913902778],[4.898083889,43.912915],[4.898845,43.910145556],[4.899029444,43.910161944],[4.897843333,43.914540278],[4.897648889,43.9145375]]]}},{"type":"Feature","id":"LFMV-128f5eb447963d9840d4","properties":{"airport":"LFMV","name":"LFMV AVISO","layer":"Airfield surfaces","category":"Hard Surface 3","object_type":"Area","style_id":"polygon.hardsurface3.8a807f","source_group":"LFMV AVISO","vsmr_group_ids":[],"geometry_role":"filled_region"},"geometry":{"type":"Polygon","coordinates":[[[4.899145,43.902690556],[4.899188611,43.902694167],[4.90022,43.902847778],[4.900237222,43.902860833],[4.9002125,43.902961389],[4.899751944,43.902919722],[4.899709722,43.903049722],[4.899583333,43.90304],[4.899516667,43.903265278],[4.899073611,43.902935],[4.899145,43.902690556]]]}},{"type":"Feature","id":"LFMV-7cfd87a617d50c2d6d46","properties":{"airport":"LFMV","name":"LFMV AVISO","layer":"Terrain","category":"Gras Surface 2","object_type":"Area","style_id":"polygon.grassurface2.339933","source_group":"LFMV AVISO","vsmr_group_ids":[],"geometry_role":"filled_region"},"geometry":{"type":"Polygon","coordinates":[[[4.900000833,43.906599444],[4.900117222,43.906671111],[4.900231389,43.90674],[4.900454167,43.9067825],[4.900422778,43.906904722],[4.899938056,43.906834722],[4.900000833,43.906599444]]]}},{"type":"Feature","id":"LFMV-44d179c95b05bbaab200","properties":{"airport":"LFMV","name":"LFMV AVISO","layer":"Terrain","category":"Gras Surface 2","object_type":"Area","style_id":"polygon.grassurface2.339933","source_group":"LFMV AVISO","vsmr_group_ids":[],"geometry_role":"filled_region"},"geometry":{"type":"Polygon","coordinates":[[[4.899415,43.908768889],[4.900089167,43.909340556],[4.900035,43.909541389],[4.899446389,43.909065833],[4.899390278,43.909065833],[4.8993275,43.909083333],[4.899415,43.908768889]]]}},{"type":"Feature","id":"LFMV-31b67b2fd565d919d081","properties":{"airport":"LFMV","name":"LFMV AVISO","layer":"Terrain","category":"Gras Surface 2","object_type":"Area","style_id":"polygon.grassurface2.339933","source_group":"LFMV AVISO","vsmr_group_ids":[],"geometry_role":"filled_region"},"geometry":{"type":"Polygon","coordinates":[[[4.898234722,43.913086944],[4.898279722,43.91311],[4.898325833,43.913130833],[4.898385833,43.913147222],[4.898486389,43.913180278],[4.898633889,43.913206944],[4.898825556,43.913236944],[4.898962778,43.913204167],[4.899084444,43.913118333],[4.899138889,43.912868611],[4.899740556,43.9129525],[4.899316389,43.913231389],[4.899153889,43.913300556],[4.898962222,43.913355278],[4.899343056,43.91338],[4.899310278,43.913489167],[4.898790833,43.913448056],[4.898413611,43.913391111],[4.898318889,43.913396667],[4.898250278,43.913404722],[4.898187778,43.913412778],[4.898157778,43.913419167],[4.898140833,43.913426111],[4.898143056,43.913424444],[4.898138056,43.913425],[4.898234722,43.913086944]]]}},{"type":"Feature","id":"LFMV-82f3939389700ffb14ee","properties":{"airport":"LFMV","name":"LFMV AVISO","layer":"Airfield surfaces","category":"Hard Surface 2","object_type":"Area","style_id":"polygon.hardsurface2.595e5b","source_group":"LFMV AVISO","vsmr_group_ids":[],"geometry_role":"filled_region"},"geometry":{"type":"Polygon","coordinates":[[[4.899978889,43.905920833],[4.900568611,43.903829444],[4.900721944,43.903854722],[4.900163333,43.905946944],[4.899978889,43.905920833]]]}},{"type":"Feature","id":"LFMV-5a51a5fa52038c1c2ebb","properties":{"airport":"LFMV","name":"LFMV AVISO","layer":"Terrain","category":"Gras Surface 2","object_type":"Area","style_id":"polygon.grassurface2.339933","source_group":"LFMV AVISO","vsmr_group_ids":[],"geometry_role":"filled_region"},"geometry":{"type":"Polygon","coordinates":[[[4.903482778,43.910834167],[4.9035075,43.910813056],[4.903550833,43.91064],[4.903890833,43.909391111],[4.904015833,43.909410833],[4.903672222,43.910658333],[4.903665,43.910871111],[4.903625556,43.910936111],[4.903529722,43.910895833],[4.903482778,43.910834167]]]}},{"type":"Feature","id":"LFMV-9aa5777934ef48ea48c9","properties":{"airport":"LFMV","name":"LFMV AVISO","layer":"Terrain","category":"Gras Surface 2","object_type":"Area","style_id":"polygon.grassurface2.339933","source_group":"LFMV AVISO","vsmr_group_ids":[],"geometry_role":"filled_region"},"geometry":{"type":"Polygon","coordinates":[[[4.901190833,43.902135278],[4.901053611,43.902115833],[4.901616944,43.8997825],[4.901674722,43.899623611],[4.901781944,43.899477778],[4.901894167,43.899359167],[4.902025,43.899250833],[4.902111667,43.899190833],[4.902234722,43.899110833],[4.902340278,43.899055833],[4.902474444,43.898990278],[4.902518333,43.898965556],[4.902552222,43.898946944],[4.902571111,43.898935556],[4.902669722,43.898911389],[4.902881944,43.898895],[4.903186111,43.898923611],[4.903499444,43.898961944],[4.903770278,43.898996111],[4.9038,43.899000833],[4.9037625,43.8991425],[4.903736111,43.899128056],[4.903468333,43.899097778],[4.903124722,43.899065556],[4.902905833,43.899056944],[4.902601667,43.899086389],[4.902197222,43.899274444],[4.901996111,43.899433056],[4.901903889,43.899529444],[4.901811389,43.899665556],[4.901190833,43.902135278]]]}},{"type":"Feature","id":"LFMV-6537e8de27671278046a","properties":{"airport":"LFMV","name":"LFMV AVISO","layer":"Airfield surfaces","category":"Grass runways","object_type":"Area","style_id":"polygon.runwaygrass.008000","source_group":"LFMV AVISO","vsmr_group_ids":[],"geometry_role":"filled_region"},"geometry":{"type":"Polygon","coordinates":[[[4.904519167,43.906590833],[4.904896389,43.906633889],[4.904125278,43.909429167],[4.9037725,43.909371389],[4.904519167,43.906590833]]]}},{"type":"Feature","id":"LFMV-09e737f97e172cb85daf","properties":{"airport":"LFMV","name":"LFMV AVISO","layer":"Airfield surfaces","category":"Runways","object_type":"Area","style_id":"polygon.runwayconcrete.555555","source_group":"LFMV AVISO","vsmr_group_ids":[],"geometry_role":"filled_region"},"geometry":{"type":"Polygon","coordinates":[[[4.899357222,43.915636667],[4.899291111,43.915619722],[4.8992425,43.915599722],[4.899184444,43.915575833],[4.899138611,43.915548333],[4.899089444,43.9155],[4.899056389,43.915449722],[4.899008333,43.915368889],[4.898985278,43.915300556],[4.898983056,43.915242778],[4.898995,43.915185833],[4.899032222,43.915100556],[4.899085833,43.915039444],[4.899128333,43.914998889],[4.8992,43.914951389],[4.899280833,43.914924167],[4.899354167,43.914903056],[4.899410278,43.914883333],[4.899460278,43.914858333],[4.899493889,43.9148375],[4.899527778,43.914804444],[4.899805833,43.913789167],[4.899758889,43.913780278],[4.899700278,43.913764167],[4.899656667,43.913746389],[4.899614167,43.913723056],[4.899573611,43.913690833],[4.899557222,43.913677222],[4.899540278,43.913660833],[4.89951,43.913623333],[4.899495,43.9135875],[4.899479722,43.913553611],[4.8994725,43.913512778],[4.899472222,43.9134675],[4.899482222,43.913430556],[4.899493333,43.913393611],[4.899507778,43.913365833],[4.899522778,43.913340556],[4.899543056,43.913311667],[4.899560278,43.913292778],[4.899579444,43.91327],[4.899615833,43.913239167],[4.900015278,43.913011389],[4.901676944,43.906849444],[4.901660833,43.906788611],[4.901643611,43.906751944],[4.901616667,43.906712222],[4.901589444,43.906680833],[4.901560278,43.906651667],[4.901534167,43.906631389],[4.901506111,43.906611111],[4.901471111,43.906593611],[4.901440556,43.906581111],[4.901394722,43.906569444],[4.900258333,43.906403889],[4.900307778,43.906234722],[4.901453889,43.906408333],[4.901536667,43.906417778],[4.901590278,43.906419444],[4.901639167,43.906405833],[4.901681944,43.906385833],[4.901724444,43.9063675],[4.901758611,43.906341389],[4.901788333,43.906315278],[4.901837222,43.906256944],[4.902435278,43.904036667],[4.902428056,43.903996667],[4.902416667,43.903971389],[4.902396944,43.903950833],[4.902374444,43.903934167],[4.902353611,43.903920278],[4.902321944,43.903906667],[4.902276667,43.903897222],[4.9014625,43.903783333],[4.901487222,43.903681944],[4.902299444,43.903793889],[4.902336111,43.903796944],[4.9023675,43.903795556],[4.902393889,43.903791667],[4.902429722,43.903780833],[4.902461111,43.903769167],[4.902486111,43.903756389],[4.902518611,43.903741944],[4.903819444,43.898916944],[4.90443,43.899001667],[4.904475833,43.899020278],[4.904527222,43.899041667],[4.90456,43.899061944],[4.904586111,43.899082222],[4.9046175,43.899111667],[4.904643889,43.899139722],[4.904665,43.899172222],[4.904686111,43.899216389],[4.9047,43.899263333],[4.90471,43.899314167],[4.904708611,43.899351111],[4.9047,43.899408333],[4.904684722,43.89945],[4.904666389,43.899486389],[4.904644444,43.899520556],[4.904620833,43.899551389],[4.904572778,43.899593889],[4.904520556,43.899634444],[4.904451389,43.899670833],[4.904389167,43.899693611],[4.904308333,43.899718056],[4.904206667,43.899751944],[4.904154444,43.899796111],[4.901447778,43.909801111],[4.901444444,43.909887778],[4.901448889,43.909918611],[4.90147,43.909976111],[4.901490833,43.91001],[4.901520278,43.910041111],[4.901549444,43.910065],[4.901582222,43.910089167],[4.902840556,43.910653889],[4.9028525,43.910648056],[4.902861667,43.910649167],[4.902885,43.910653333],[4.902915556,43.9106575],[4.902978611,43.910665278],[4.902812222,43.910846944],[4.902758611,43.910755],[4.901520833,43.910216389],[4.901469167,43.910205],[4.901418611,43.910208333],[4.901371667,43.910218611],[4.9013325,43.910236667],[4.899851389,43.915704167],[4.899357222,43.915636667]]]}},{"type":"Feature","id":"LFMV-7f44376c65ca10f60e58","properties":{"airport":"LFMV","name":"LFMV AVISO","layer":"Airfield surfaces","category":"Runways","object_type":"Area","style_id":"polygon.runwayconcrete.555555","source_group":"LFMV AVISO","vsmr_group_ids":[],"geometry_role":"filled_region"},"geometry":{"type":"Polygon","coordinates":[[[4.898995833,43.915332778],[4.898931667,43.9152825],[4.898876111,43.915243611],[4.898805278,43.915225],[4.898176389,43.915132222],[4.898118333,43.915113056],[4.898066111,43.915093611],[4.898021111,43.915076389],[4.8979825,43.915051389],[4.897945833,43.915030278],[4.897905,43.9150075],[4.897860833,43.914975556],[4.897818611,43.914937778],[4.897783611,43.914902222],[4.897752222,43.914863333],[4.897728611,43.914823333],[4.897704444,43.9147875],[4.897680556,43.914738056],[4.897664167,43.914698333],[4.897655,43.914638056],[4.897651667,43.914600278],[4.897649167,43.914558333],[4.897844722,43.914561944],[4.897846944,43.914608333],[4.897851111,43.914645278],[4.897863056,43.914688611],[4.8978775,43.914716944],[4.897889167,43.914743056],[4.897910556,43.914771111],[4.897935278,43.914806667],[4.897957222,43.9148375],[4.897994167,43.914868056],[4.898026944,43.914895278],[4.89806,43.914919722],[4.898115278,43.914944722],[4.898160833,43.914965556],[4.898188056,43.914979444],[4.8982375,43.914995],[4.898335278,43.915016944],[4.8988675,43.915074444],[4.898911944,43.915072778],[4.898947778,43.915071111],[4.898985278,43.915060556],[4.899023056,43.915045556],[4.899061111,43.915031944],[4.899116389,43.915007778],[4.898995833,43.915332778]]]}},{"type":"Feature","id":"LFMV-d9c080a87f4f6a74bdf5","properties":{"airport":"LFMV","name":"LFMV AVISO","layer":"Airfield surfaces","category":"Grass runways","object_type":"Area","style_id":"polygon.runwaygrass.008000","source_group":"LFMV AVISO","vsmr_group_ids":[],"geometry_role":"filled_region"},"geometry":{"type":"Polygon","coordinates":[[[4.900731944,43.906946944],[4.900443056,43.906905556],[4.900474167,43.906786111],[4.900761667,43.906824167],[4.900805833,43.9066775],[4.90141,43.906775278],[4.899738611,43.912945833],[4.899133056,43.912864444],[4.900731944,43.906946944]]]}},{"type":"Feature","id":"LFMV-a6c4f4237e4df3a13341","properties":{"airport":"LFMV","name":"LFMV AVISO","layer":"Surface markings","category":"Stopbars","object_type":"Area","style_id":"polygon.stopbar.7e0000","source_group":"LFMV AVISO","vsmr_group_ids":[],"geometry_role":"filled_region"},"geometry":{"type":"Polygon","coordinates":[[[4.900275833,43.906231667],[4.900309722,43.906234444],[4.900262778,43.906405556],[4.900231667,43.906402222],[4.900275833,43.906231667]]]}},{"type":"Feature","id":"LFMV-efdc0fbd04cf7867bbb6","properties":{"airport":"LFMV","name":"LFMV AVISO","layer":"Surface markings","category":"Stopbars","object_type":"Area","style_id":"polygon.stopbar.7e0000","source_group":"LFMV AVISO","vsmr_group_ids":[],"geometry_role":"filled_region"},"geometry":{"type":"Polygon","coordinates":[[[4.901480278,43.903681111],[4.901495,43.903683056],[4.901470278,43.903784722],[4.901455278,43.903783333],[4.901480278,43.903681111]]]}},{"type":"Feature","id":"LFMV-52b987ee8e5f462b78aa","properties":{"airport":"LFMV","name":"LFMV AVISO","layer":"Surface markings","category":"Stopbars","object_type":"Area","style_id":"polygon.stopbar.7e0000","source_group":"LFMV AVISO","vsmr_group_ids":[],"geometry_role":"filled_region"},"geometry":{"type":"Polygon","coordinates":[[[4.902812778,43.910846111],[4.902968056,43.910664722],[4.902981667,43.910664444],[4.902819444,43.9108575],[4.902812778,43.910846111]]]}},{"type":"Feature","id":"LFMV-c5f053149b811e99780c","properties":{"airport":"LFMV","name":"LFMV AVISO","layer":"Surface markings","category":"Stopbars","object_type":"Area","style_id":"polygon.stopbar.7e0000","source_group":"LFMV AVISO","vsmr_group_ids":[],"geometry_role":"filled_region"},"geometry":{"type":"Polygon","coordinates":[[[4.902741667,43.898904444],[4.902794722,43.898901667],[4.902811111,43.899066111],[4.902758333,43.899071389],[4.902741667,43.898904444]]]}},{"type":"Feature","id":"LFMV-725e8e14659cf11163b7","properties":{"airport":"LFMV","name":"LFMV AVISO","layer":"Surface markings","category":"Stopbars","object_type":"Area","style_id":"polygon.stopbar.7e0000","source_group":"LFMV AVISO","vsmr_group_ids":[],"geometry_role":"filled_region"},"geometry":{"type":"Polygon","coordinates":[[[4.898635,43.913425556],[4.898694167,43.913216667],[4.898758611,43.913225833],[4.898701111,43.913435278],[4.898635,43.913425556]]]}},{"type":"Feature","id":"LFMV-190144ca355936dbad9c","properties":{"airport":"LFMV","name":"LFMV AVISO","layer":"Surface markings","category":"Stopbars","object_type":"Area","style_id":"polygon.stopbar.7e0000","source_group":"LFMV AVISO","vsmr_group_ids":[],"geometry_role":"filled_region"},"geometry":{"type":"Polygon","coordinates":[[[4.897650278,43.914561944],[4.89765,43.914536389],[4.897847778,43.914537222],[4.897843333,43.914563056],[4.897650278,43.914561944]]]}},{"type":"Feature","id":"LFMV-10221e8c699503183d7b","properties":{"airport":"LFMV","name":"LFMV AVISO","layer":"Surface markings","category":"Stopbars","object_type":"Area","style_id":"polygon.stopbar.7e0000","source_group":"LFMV AVISO","vsmr_group_ids":[],"geometry_role":"filled_region"},"geometry":{"type":"Polygon","coordinates":[[[4.900440833,43.906777222],[4.900471111,43.906783056],[4.9004475,43.906907222],[4.900407778,43.906902778],[4.900440833,43.906777222]]]}},{"type":"Feature","id":"LFMV-6f9ff5e72488c8c5f90c","properties":{"airport":"LFMV","name":"1","layer":"Labels","category":"Gates","object_type":"Label","style_id":"label.gates","source_group":"LFMV Gates","vsmr_group_ids":[],"geometry_role":"text_label","text-field":"1"},"geometry":{"type":"Point","coordinates":[4.897277778,43.906777778]}},{"type":"Feature","id":"LFMV-99f1f4126c4d0d2d9799","properties":{"airport":"LFMV","name":"G1","layer":"Labels","category":"Gates","object_type":"Label","style_id":"label.gates","source_group":"LFMV Gates","vsmr_group_ids":[],"geometry_role":"text_label","text-field":"G1"},"geometry":{"type":"Point","coordinates":[4.898027778,43.9075]}},{"type":"Feature","id":"LFMV-595dd8c5a562e645f176","properties":{"airport":"LFMV","name":"2","layer":"Labels","category":"Gates","object_type":"Label","style_id":"label.gates","source_group":"LFMV Gates","vsmr_group_ids":[],"geometry_role":"text_label","text-field":"2"},"geometry":{"type":"Point","coordinates":[4.898444444,43.906277778]}},{"type":"Feature","id":"LFMV-511d8d3de1562fd47ebe","properties":{"airport":"LFMV","name":"3","layer":"Labels","category":"Gates","object_type":"Label","style_id":"label.gates","source_group":"LFMV Gates","vsmr_group_ids":[],"geometry_role":"text_label","text-field":"3"},"geometry":{"type":"Point","coordinates":[4.898555556,43.907583333]}},{"type":"Feature","id":"LFMV-dda22dcf1d427ab0c386","properties":{"airport":"LFMV","name":"4","layer":"Labels","category":"Gates","object_type":"Label","style_id":"label.gates","source_group":"LFMV Gates","vsmr_group_ids":[],"geometry_role":"text_label","text-field":"4"},"geometry":{"type":"Point","coordinates":[4.898333333,43.906583333]}},{"type":"Feature","id":"LFMV-c2f808c9486a7f5f9c55","properties":{"airport":"LFMV","name":"5","layer":"Labels","category":"Gates","object_type":"Label","style_id":"label.gates","source_group":"LFMV Gates","vsmr_group_ids":[],"geometry_role":"text_label","text-field":"5"},"geometry":{"type":"Point","coordinates":[4.899083333,43.904888889]}},{"type":"Feature","id":"LFMV-c22c5c9106460b8e108c","properties":{"airport":"LFMV","name":"6","layer":"Labels","category":"Gates","object_type":"Label","style_id":"label.gates","source_group":"LFMV Gates","vsmr_group_ids":[],"geometry_role":"text_label","text-field":"6"},"geometry":{"type":"Point","coordinates":[4.899138889,43.904666667]}},{"type":"Feature","id":"LFMV-6f5346e11cc50deebeef","properties":{"airport":"LFMV","name":"7","layer":"Labels","category":"Gates","object_type":"Label","style_id":"label.gates","source_group":"LFMV Gates","vsmr_group_ids":[],"geometry_role":"text_label","text-field":"7"},"geometry":{"type":"Point","coordinates":[4.9045,43.912333333]}},{"type":"Feature","id":"LFMV-9cf62eb67a19a9390743","properties":{"airport":"LFMV","name":"8","layer":"Labels","category":"Gates","object_type":"Label","style_id":"label.gates","source_group":"LFMV Gates","vsmr_group_ids":[],"geometry_role":"text_label","text-field":"8"},"geometry":{"type":"Point","coordinates":[4.904944444,43.911888889]}},{"type":"Feature","id":"LFMV-8e62832e93b08a65724c","properties":{"airport":"LFMV","name":"Apron F","layer":"Labels","category":"Gates","object_type":"Label","style_id":"label.gates","source_group":"LFMV Gates","vsmr_group_ids":[],"geometry_role":"text_label","text-field":"Apron F"},"geometry":{"type":"Point","coordinates":[4.8975,43.906258333]}},{"type":"Feature","id":"LFMV-37ef049139b2b31008ea","properties":{"airport":"LFMV","name":"Apron C","layer":"Labels","category":"Gates","object_type":"Label","style_id":"label.gates","source_group":"LFMV Gates","vsmr_group_ids":[],"geometry_role":"text_label","text-field":"Apron C"},"geometry":{"type":"Point","coordinates":[4.89915,43.905619444]}},{"type":"Feature","id":"LFMV-2db26f4ce82861332144","properties":{"airport":"LFMV","name":"Apron B","layer":"Labels","category":"Gates","object_type":"Label","style_id":"label.gates","source_group":"LFMV Gates","vsmr_group_ids":[],"geometry_role":"text_label","text-field":"Apron B"},"geometry":{"type":"Point","coordinates":[4.899858333,43.903527778]}},{"type":"Feature","id":"LFMV-41c1e0004acb5d2c3579","properties":{"airport":"LFMV","name":"Grass apron A","layer":"Labels","category":"Gates","object_type":"Label","style_id":"label.gates","source_group":"LFMV Gates","vsmr_group_ids":[],"geometry_role":"text_label","text-field":"Grass apron A"},"geometry":{"type":"Point","coordinates":[4.900505556,43.902425]}},{"type":"Feature","id":"LFMV-4444d20abf586282f7a7","properties":{"airport":"LFMV","name":"LFMV Groundlayout AVISO","layer":"Guidance lines","category":"Taxiways","object_type":"Line","style_id":"line.taxiway.c0b631","source_group":"LFMV Groundlayout AVISO","vsmr_group_ids":[],"geometry_role":"linework"},"geometry":{"type":"MultiLineString","coordinates":[[[4.899215833,43.902920278],[4.899444444,43.903094722]],[[4.897946111,43.906339444],[4.897966111,43.906263056]],[[4.897434444,43.906256944],[4.897458889,43.906178889]],[[4.8976025,43.906286389],[4.897628056,43.906198889]],[[4.897775278,43.9063125],[4.897794722,43.906228056]],[[4.898627222,43.905915],[4.8987825,43.9053575]],[[4.898543056,43.905678056],[4.898841667,43.90572]],[[4.898625556,43.905400556],[4.898915556,43.905441944]],[[4.898665556,43.905235833],[4.898963611,43.905278611]],[[4.899449722,43.905966389],[4.899676944,43.9051275]],[[4.8994075,43.905960833],[4.899487222,43.905971667]],[[4.8994675,43.905746111],[4.899550833,43.905758611]],[[4.899528611,43.905509444],[4.899612222,43.905522222]],[[4.899599167,43.905258611],[4.899678056,43.905271389]],[[4.899749444,43.904860278],[4.899507222,43.9049925]],[[4.899694167,43.904753611],[4.899966944,43.904792778]],[[4.899939167,43.904525556],[4.900035833,43.904180833]],[[4.899893889,43.904526111],[4.899985,43.904538889]],[[4.899962222,43.904285556],[4.900041944,43.904295556]],[[4.899460833,43.904552222],[4.899568611,43.904163333]],[[4.899431111,43.904458611],[4.89952,43.9044725]],[[4.899583056,43.904231944],[4.899506111,43.9042225]],[[4.899585278,43.903903333],[4.899602222,43.903848056]],[[4.899749444,43.903925833],[4.899767222,43.903869167]],[[4.899908333,43.903953333],[4.8999225,43.903894722]],[[4.899656111,43.903656111],[4.899673333,43.903598889]],[[4.8998275,43.903680278],[4.899846111,43.903623333]],[[4.899988056,43.9036975],[4.900003056,43.903643056]],[[4.900062222,43.903455833],[4.900082222,43.903396389]],[[4.8998925,43.903430278],[4.899908333,43.903371944]],[[4.899723333,43.903405833],[4.899739722,43.903358056]],[[4.899103333,43.906835556],[4.899184167,43.906522222]],[[4.898551667,43.906757778],[4.898636944,43.906442778]],[[4.897266667,43.906234444],[4.897301944,43.906149444]],[[4.8994325,43.902841667],[4.899579722,43.902949722]],[[4.898971111,43.904840278],[4.8989,43.905095556]],[[4.8967,43.913999722],[4.896216667,43.913939167]]]}},{"type":"Feature","id":"LFMV-d95992c1dbe0451eecb0","properties":{"airport":"LFMV","name":"LFMV Groundlayout","layer":"Guidance lines","category":"Taxiways","object_type":"Line","style_id":"line.taxiway.c0b631","source_group":"LFMV Groundlayout","vsmr_group_ids":[],"geometry_role":"linework"},"geometry":{"type":"MultiLineString","coordinates":[[[4.899666667,43.914305556],[4.899388889,43.914277778]],[[4.899444444,43.914083333],[4.898083333,43.913916667]],[[4.899388889,43.914277778],[4.897777778,43.914055556]],[[4.898083333,43.913916667],[4.899194444,43.909805556]],[[4.897777778,43.914055556],[4.898972222,43.909638889]],[[4.89925,43.909611111],[4.899833333,43.9075]],[[4.898972222,43.909638889],[4.899555556,43.907472222]],[[4.899861111,43.907305556],[4.899944444,43.907055556]],[[4.899611111,43.907277778],[4.899694444,43.907]],[[4.9,43.906861111],[4.900527778,43.904861111]],[[4.89975,43.906833333],[4.900277778,43.904833333]],[[4.900583333,43.904666667],[4.901416667,43.901666667]],[[4.900333333,43.904638889],[4.901194444,43.901444444]],[[4.901416667,43.901666667],[4.90275,43.901861111]],[[4.901194444,43.901444444],[4.902805556,43.901666667]],[[4.90275,43.901861111],[4.903,43.901888889]],[[4.902805556,43.901666667],[4.903055556,43.901694444]],[[4.902194444,43.904888889],[4.901944444,43.904861111]],[[4.902138889,43.905083333],[4.901888889,43.905055556]],[[4.901944444,43.904861111],[4.900583333,43.904666667]],[[4.901888889,43.905055556],[4.900527778,43.904861111]],[[4.900333333,43.904638889],[4.900166667,43.904611111]],[[4.900277778,43.904833333],[4.899833333,43.904777778]],[[4.901611111,43.907083333],[4.901333333,43.907027778]],[[4.901555556,43.90725],[4.901305556,43.907222222]],[[4.901333333,43.907027778],[4.9,43.906861111]],[[4.901305556,43.907222222],[4.899944444,43.907055556]],[[4.89975,43.906833333],[4.899111111,43.90675]],[[4.899694444,43.907],[4.899444444,43.906972222]],[[4.900444444,43.907388889],[4.900166667,43.907361111]],[[4.900388889,43.907583333],[4.900111111,43.907527778]],[[4.900166667,43.907361111],[4.899861111,43.907305556]],[[4.900111111,43.907527778],[4.899833333,43.9075]],[[4.899611111,43.907277778],[4.899166667,43.907222222]],[[4.899555556,43.907472222],[4.899111111,43.907416667]],[[4.899194444,43.909805556],[4.899444444,43.909916667]],[[4.89925,43.909611111],[4.899583333,43.90975]],[[4.899444444,43.909916667],[4.899722222,43.910055556]],[[4.899583333,43.90975],[4.899777778,43.909861111]],[[4.90125,43.910555556],[4.901444444,43.910638889]],[[4.901305556,43.910361111],[4.901583333,43.910472222]],[[4.901444444,43.910638889],[4.904388889,43.912027778]],[[4.901583333,43.910472222],[4.904555556,43.911861111]],[[4.897222222,43.907055556],[4.897444444,43.907138889]],[[4.897277778,43.907],[4.897472222,43.907083333]],[[4.897222222,43.907055556],[4.897277778,43.907]],[[4.897444444,43.907138889],[4.898111111,43.907222222]],[[4.897472222,43.907083333],[4.898111111,43.907166667]],[[4.898111111,43.907222222],[4.898638889,43.907277778]],[[4.898111111,43.907166667],[4.898611111,43.907222222]],[[4.898638889,43.907277778],[4.899138889,43.907333333]],[[4.898722222,43.907222222],[4.899138889,43.907277778]],[[4.898861111,43.906333333],[4.898777778,43.906638889]],[[4.898944444,43.906333333],[4.898861111,43.906638889]],[[4.898861111,43.906333333],[4.898944444,43.906333333]],[[4.898777778,43.906638889],[4.898611111,43.907222222]],[[4.898861111,43.906694444],[4.898722222,43.907222222]],[[4.898861111,43.906694444],[4.899444444,43.906972222]],[[4.898861111,43.906638889],[4.899111111,43.90675]],[[4.899666667,43.905],[4.899833333,43.904777778]],[[4.899583333,43.904944444],[4.899777778,43.904722222]],[[4.899666667,43.905],[4.899583333,43.904944444]],[[4.899472222,43.90475],[4.899555556,43.904722222]],[[4.899472222,43.904666667],[4.899944444,43.904638889]],[[4.899472222,43.90475],[4.899472222,43.904666667]],[[4.904277778,43.91225],[4.904555556,43.911972222]],[[4.904222222,43.912194444],[4.904388889,43.912027778]],[[4.904277778,43.91225],[4.904222222,43.912194444]],[[4.904555556,43.911972222],[4.90475,43.911777778]],[[4.904555556,43.911861111],[4.904666667,43.911722222]],[[4.90475,43.911777778],[4.904666667,43.911722222]]]}},{"type":"Feature","id":"LFMV-528467c66aa4f6bd5740","properties":{"airport":"LFMV","name":"LFMV Groundlayout","layer":"Guidance lines","category":"Runways","object_type":"Line","style_id":"line.runwayconcrete.555555","source_group":"LFMV Groundlayout","vsmr_group_ids":[],"geometry_role":"linework"},"geometry":{"type":"MultiLineString","coordinates":[[[4.903222222,43.907305556],[4.902305556,43.910666667]],[[4.9035,43.907361111],[4.902583333,43.910722222]],[[4.903222222,43.907305556],[4.9035,43.907361111]],[[4.902305556,43.910666667],[4.902583333,43.910722222]],[[4.903638889,43.899527778],[4.903055556,43.901694444]],[[4.904194444,43.899611111],[4.903583333,43.901888889]],[[4.903638889,43.899527778],[4.904194444,43.899611111]],[[4.903,43.901888889],[4.902194444,43.904888889]],[[4.903583333,43.901888889],[4.902722222,43.905055556]],[[4.902138889,43.905083333],[4.901611111,43.907083333]],[[4.902722222,43.905055556],[4.902138889,43.90725]],[[4.901555556,43.90725],[4.90075,43.910305556]],[[4.902138889,43.90725],[4.901305556,43.910361111]],[[4.90075,43.910305556],[4.899694444,43.914138889]],[[4.90125,43.910555556],[4.900222222,43.914305556]],[[4.899666667,43.914305556],[4.899166667,43.916111111]],[[4.900222222,43.914305556],[4.899722222,43.916194444]],[[4.899166667,43.916111111],[4.899722222,43.916194444]],[[4.900472222,43.907277778],[4.900444444,43.907388889]],[[4.901055556,43.907361111],[4.901027778,43.907555556]],[[4.900472222,43.907277778],[4.901055556,43.907361111]],[[4.900388889,43.907583333],[4.899777778,43.909861111]],[[4.901027778,43.907555556],[4.900333333,43.910111111]],[[4.899722222,43.910055556],[4.898805556,43.913444444]],[[4.900333333,43.910111111],[4.899416667,43.913527778]],[[4.898805556,43.913444444],[4.899416667,43.913527778]]]}},{"type":"Feature","id":"LFMV-3337251cbe1eaef888bc","properties":{"airport":"LFMV","name":"LFMV Groundlayout","layer":"Guidance lines","category":"Apron Surface","object_type":"Line","style_id":"line.apronsurface.808080","source_group":"LFMV Groundlayout","vsmr_group_ids":[],"geometry_role":"linework"},"geometry":{"type":"MultiLineString","coordinates":[[[4.899166667,43.907805556],[4.899416667,43.906833333],[4.899277778,43.906638889],[4.8995,43.905666667],[4.899722222,43.905583333],[4.900083333,43.904277778],[4.899083333,43.904138889],[4.898666667,43.905861111],[4.898361111,43.905805556],[4.898111111,43.906833333],[4.897638889,43.906805556],[4.897666667,43.906694444],[4.896944444,43.906583333],[4.896777778,43.907527778]],[[4.899166667,43.907805556],[4.896777778,43.907527778]],[[4.899277778,43.91575],[4.899166667,43.915722222],[4.899,43.915777778],[4.898944444,43.915916667],[4.898944444,43.916027778],[4.899055556,43.916111111],[4.899194444,43.916111111]],[[4.899277778,43.91575],[4.899194444,43.916111111]],[[4.904055556,43.912333333],[4.904777778,43.911583333],[4.905277778,43.911861111],[4.904555556,43.912583333]],[[4.904055556,43.912333333],[4.904555556,43.912583333]],[[4.899694444,43.914333333],[4.899472222,43.914277778],[4.899416667,43.914166667],[4.899472222,43.913972222],[4.899638889,43.913888889],[4.899805556,43.913916667]],[[4.899694444,43.914333333],[4.899805556,43.913916667]],[[4.904138889,43.899611111],[4.904583333,43.899666667],[4.904527778,43.899888889],[4.904388889,43.900055556],[4.904194444,43.900166667],[4.904,43.900222222]],[[4.904138889,43.899611111],[4.904,43.900222222]]]}},{"type":"Feature","id":"LFMV-ff8db07b035ee90e6f1a","properties":{"airport":"LFMV","name":"A","layer":"Labels","category":"Taxiways","object_type":"Label","style_id":"label.taxiways","source_group":"LFMV Taxiways","vsmr_group_ids":[],"geometry_role":"text_label","text-field":"A"},"geometry":{"type":"Point","coordinates":[4.90265,43.898991667]}},{"type":"Feature","id":"LFMV-2c530bd7a90452beef5c","properties":{"airport":"LFMV","name":"A1","layer":"Labels","category":"Taxiways","object_type":"Label","style_id":"label.taxiways","source_group":"LFMV Taxiways","vsmr_group_ids":[],"geometry_role":"text_label","text-field":"A1"},"geometry":{"type":"Point","coordinates":[4.900605556,43.902088889]}},{"type":"Feature","id":"LFMV-4c05f6d7f76c53b271c1","properties":{"airport":"LFMV","name":"A2","layer":"Labels","category":"Taxiways","object_type":"Label","style_id":"label.taxiways","source_group":"LFMV Taxiways","vsmr_group_ids":[],"geometry_role":"text_label","text-field":"A2"},"geometry":{"type":"Point","coordinates":[4.900633333,43.902838889]}},{"type":"Feature","id":"LFMV-1df72304a0d838a6fe62","properties":{"airport":"LFMV","name":"B","layer":"Labels","category":"Taxiways","object_type":"Label","style_id":"label.taxiways","source_group":"LFMV Taxiways","vsmr_group_ids":[],"geometry_role":"text_label","text-field":"B"},"geometry":{"type":"Point","coordinates":[4.901325,43.903716667]}},{"type":"Feature","id":"LFMV-b49964171d3df6803b76","properties":{"airport":"LFMV","name":"C","layer":"Labels","category":"Taxiways","object_type":"Label","style_id":"label.taxiways","source_group":"LFMV Taxiways","vsmr_group_ids":[],"geometry_role":"text_label","text-field":"C"},"geometry":{"type":"Point","coordinates":[4.900375,43.906325]}},{"type":"Feature","id":"LFMV-21b64a548f5cc8f6c975","properties":{"airport":"LFMV","name":"C2","layer":"Labels","category":"Taxiways","object_type":"Label","style_id":"label.taxiways","source_group":"LFMV Taxiways","vsmr_group_ids":[],"geometry_role":"text_label","text-field":"C2"},"geometry":{"type":"Point","coordinates":[4.899575,43.909016667]}},{"type":"Feature","id":"LFMV-c066bedf5a28c2f3f0f2","properties":{"airport":"LFMV","name":"C3","layer":"Labels","category":"Taxiways","object_type":"Label","style_id":"label.taxiways","source_group":"LFMV Taxiways","vsmr_group_ids":[],"geometry_role":"text_label","text-field":"C3"},"geometry":{"type":"Point","coordinates":[4.898494444,43.913291667]}},{"type":"Feature","id":"LFMV-9afcf9dfedabf56c021a","properties":{"airport":"LFMV","name":"D","layer":"Labels","category":"Taxiways","object_type":"Label","style_id":"label.taxiways","source_group":"LFMV Taxiways","vsmr_group_ids":[],"geometry_role":"text_label","text-field":"D"},"geometry":{"type":"Point","coordinates":[4.89775,43.914541667]}},{"type":"Feature","id":"LFMV-28f9dfeb792ebf59f3e4","properties":{"airport":"LFMV","name":"E","layer":"Labels","category":"Taxiways","object_type":"Label","style_id":"label.taxiways","source_group":"LFMV Taxiways","vsmr_group_ids":[],"geometry_role":"text_label","text-field":"E"},"geometry":{"type":"Point","coordinates":[4.903083333,43.910808333]}},{"type":"Feature","id":"LFMV-c136b585a394e58eab00","properties":{"airport":"LFMV","name":"P","layer":"Labels","category":"Taxiways","object_type":"Label","style_id":"label.taxiways","source_group":"LFMV Taxiways","vsmr_group_ids":[],"geometry_role":"text_label","text-field":"P"},"geometry":{"type":"Point","coordinates":[4.900622222,43.904922222]}}]}
