{"type":"FeatureCollection","name":"LFMY AVISO","bbox":[5.100552222,43.596707222,5.12087,43.618520556],"metadata":{"schema":"vSMR AVISO","schema_version":2,"geometry_mode":"shared","airport":"LFMY","coordinate_reference_system":"WGS84","coordinate_order":"longitude, latitude","default_color_palette":"dark","color_palettes":["dark","light"],"background_colors":{"dark":"#434A4F","light":"#434A4F"},"runways":[{"ends":["16R","34L"],"headings":[163,343],"thresholds":[[5.114416944,43.612896944],[5.118141944,43.603341944]]},{"ends":["16L","34R"],"headings":[163,343],"thresholds":[[5.115921944,43.614721944],[5.119232778,43.606346944]]},{"ends":["16","34"],"headings":[158,338],"thresholds":[[5.104410833,43.615652778],[5.113035833,43.598766944]]},{"ends":["09","27"],"headings":[85,265],"thresholds":[[5.109263889,43.609116944],[5.118963889,43.608971944]]}],"saved_active_runways":[],"saved_active_airport_modes":[],"airport_reference":[5.108332778,43.603055833],"feature_count":35,"style_count":12,"layer_counts":{"Airfield surfaces":13,"Buildings and structures":10,"Guidance lines":2,"Surface markings":6,"Terrain":4},"category_counts":{"Buildings":10,"Gras Surface 2":1,"Grass":3,"Grass runways":3,"Hard Surface 2":2,"Hard Surface 3":4,"Runways":2,"Stopbars":6,"coastline":2,"gate":1,"white":1},"geometry_source":"local GNG","geometry_source_url":"","geometry_license":"GPL-3.0"},"styles":{"line.runwayconcrete.555555":{"name":"Runways","layer":"Guidance lines","object_type":"Line","paint":{"stroke":"#111318","stroke-opacity":1,"stroke-width":1,"palette-overrides":{"light":{"stroke":"#555555"}}},"feature_count":1},"polygon.grassurface.00512f":{"name":"Grass","layer":"Terrain","object_type":"Area","paint":{"fill":"#010D19","fill-opacity":1,"palette-overrides":{"light":{"fill":"#00512F"}}},"feature_count":3},"polygon.white":{"name":"white","layer":"Airfield surfaces","object_type":"Area","paint":{"fill":"#FFFFFF","fill-opacity":1},"feature_count":1},"polygon.coastline":{"name":"coastline","layer":"Airfield surfaces","object_type":"Area","paint":{"fill":"#5C7888","fill-opacity":1},"feature_count":2},"polygon.building.394446":{"name":"Buildings","layer":"Buildings and structures","object_type":"Area","paint":{"fill":"#475570","fill-opacity":1,"palette-overrides":{"light":{"fill":"#394446"}}},"feature_count":10},"polygon.grassurface2.339933":{"name":"Gras Surface 2","layer":"Terrain","object_type":"Area","paint":{"fill":"#339933","fill-opacity":1,"palette-overrides":{"light":{"fill":"#339933"}}},"feature_count":1},"polygon.hardsurface3.8a807f":{"name":"Hard Surface 3","layer":"Airfield surfaces","object_type":"Area","paint":{"fill":"#222D3C","fill-opacity":1,"palette-overrides":{"light":{"fill":"#8A807F"}}},"feature_count":4},"polygon.hardsurface2.595e5b":{"name":"Hard Surface 2","layer":"Airfield surfaces","object_type":"Area","paint":{"fill":"#2F3949","fill-opacity":1,"palette-overrides":{"light":{"fill":"#595E5B"}}},"feature_count":2},"polygon.stopbar.7e0000":{"name":"Stopbars","layer":"Surface markings","object_type":"Area","paint":{"fill":"#7E0000","fill-opacity":1,"palette-overrides":{"light":{"fill":"#7E0000"}}},"feature_count":6},"polygon.runwaygrass.008000":{"name":"Grass runways","layer":"Airfield surfaces","object_type":"Area","paint":{"fill":"#859A77","fill-opacity":1,"palette-overrides":{"light":{"fill":"#008000"}}},"feature_count":3},"polygon.runwayconcrete.555555":{"name":"Runways","layer":"Airfield surfaces","object_type":"Area","paint":{"fill":"#111318","fill-opacity":1,"palette-overrides":{"light":{"fill":"#555555"}}},"feature_count":1},"line.gate":{"name":"gate","layer":"Guidance lines","object_type":"Line","paint":{"stroke":"#A8A8A8","stroke-width":1,"stroke-opacity":1},"feature_count":1}},"vsmr_groups":[],"features":[{"type":"Feature","id":"LFMY-28f73664d9826619765f","properties":{"airport":"LFMY","name":"LFMY AVISO","layer":"Terrain","category":"Grass","object_type":"Area","style_id":"polygon.grassurface.00512f","source_group":"LFMY AVISO","vsmr_group_ids":[],"geometry_role":"filled_region"},"geometry":{"type":"Polygon","coordinates":[[[5.114450556,43.597301944],[5.11458,43.597560278],[5.114682778,43.597869167],[5.1147025,43.598286111],[5.114637778,43.598570556],[5.114534444,43.598790556],[5.114503611,43.598968056],[5.114517222,43.599250833],[5.114506944,43.599449167],[5.114621389,43.599595],[5.114774444,43.5997325],[5.115005833,43.599875278],[5.115848611,43.6003425],[5.1160325,43.600507778],[5.116171111,43.600546667],[5.116340278,43.600613333],[5.119213333,43.601864444],[5.119323889,43.6019325],[5.119358333,43.602037778],[5.119363333,43.602143889],[5.119588611,43.604181944],[5.119635278,43.604343333],[5.119841389,43.604571667],[5.1207275,43.605533056],[5.1208675,43.605805278],[5.12087,43.606066944],[5.120699167,43.606375556],[5.120435,43.606778333],[5.120034167,43.607389722],[5.119729722,43.607970278],[5.119497778,43.608451389],[5.119273333,43.6090725],[5.118866389,43.610172222],[5.118161111,43.612168056],[5.118114167,43.612416944],[5.117966111,43.613205833],[5.117502778,43.615852778],[5.117506111,43.615921667],[5.117551111,43.615965278],[5.117923889,43.616268889],[5.117933889,43.616348889],[5.118441111,43.616465278],[5.120362222,43.616477778],[5.120455833,43.616954444],[5.120415278,43.616941944],[5.120368333,43.616925278],[5.1202875,43.616909722],[5.120228611,43.6169],[5.120167222,43.616903611],[5.120084167,43.616908056],[5.119968056,43.616921944],[5.119943333,43.6169225],[5.11993,43.616898333],[5.119836944,43.616624444],[5.118440833,43.616848611],[5.118448611,43.616884167],[5.116642222,43.617203333],[5.1166025,43.617148611],[5.115302778,43.617388056],[5.1154775,43.617843889],[5.115346667,43.617823611],[5.115190278,43.6178025],[5.115014722,43.617771389],[5.114822778,43.617734167],[5.112068056,43.617151389],[5.111985833,43.61713],[5.111934444,43.617075833],[5.111892778,43.617026389],[5.111810278,43.616951389],[5.111737778,43.616891111],[5.111654167,43.616839444],[5.111601667,43.616806944],[5.111459167,43.616750278],[5.1118525,43.616045278],[5.111066944,43.615876389],[5.110935278,43.616648889],[5.110824444,43.616631944],[5.110748611,43.616631111],[5.110618611,43.616641944],[5.110501944,43.616649722],[5.110372222,43.616670556],[5.110221944,43.616691667],[5.110093611,43.616699444],[5.108968056,43.616455833],[5.108697222,43.616908333],[5.109212778,43.6169775],[5.105769722,43.617815556],[5.105647222,43.617848611],[5.105520833,43.617861667],[5.105417222,43.617856667],[5.105296389,43.617844722],[5.103879167,43.617540278],[5.103847222,43.617521111],[5.103832222,43.617494167],[5.103834722,43.617471667],[5.103846667,43.617431667],[5.104572778,43.615987778],[5.104648333,43.615983333],[5.105270556,43.616129722],[5.105406667,43.61588],[5.104701111,43.615718056],[5.113279722,43.598836389],[5.113841389,43.598994444],[5.113992222,43.598757778],[5.11349,43.598610278],[5.114246389,43.597090833],[5.114450556,43.597301944]]]}},{"type":"Feature","id":"LFMY-f26959ba6bdc08649f27","properties":{"airport":"LFMY","name":"LFMY AVISO","layer":"Terrain","category":"Grass","object_type":"Area","style_id":"polygon.grassurface.00512f","source_group":"LFMY AVISO","vsmr_group_ids":[],"geometry_role":"filled_region"},"geometry":{"type":"Polygon","coordinates":[[[5.110966111,43.616643889],[5.111113889,43.615941667],[5.111124722,43.615933333],[5.111135833,43.615926944],[5.111153889,43.615924444],[5.111181389,43.615932778],[5.111414167,43.615984444],[5.111410556,43.615992778],[5.111415278,43.616005833],[5.111418333,43.616013056],[5.111428611,43.616020833],[5.111374444,43.6161575],[5.111275,43.616146667],[5.111252222,43.616208611],[5.111408611,43.616253889],[5.111457778,43.616128889],[5.111431944,43.616119167],[5.11146,43.616025278],[5.111482778,43.616026667],[5.1114925,43.616024444],[5.111500833,43.616017222],[5.111504167,43.616002778],[5.111762778,43.616053611],[5.111774167,43.6160575],[5.111783056,43.616065278],[5.111783611,43.616077778],[5.111771944,43.6161025],[5.111400556,43.616740556],[5.111236111,43.616701667],[5.111235556,43.616689444],[5.111235,43.616675],[5.111225556,43.61666],[5.111209722,43.616648889],[5.111181389,43.616648611],[5.111156389,43.616660556],[5.111138889,43.616680556],[5.110966111,43.616643889]]]}},{"type":"Feature","id":"LFMY-7efc4877faeea826a804","properties":{"airport":"LFMY","name":"LFMY AVISO","layer":"Terrain","category":"Grass","object_type":"Area","style_id":"polygon.grassurface.00512f","source_group":"LFMY AVISO","vsmr_group_ids":[],"geometry_role":"filled_region"},"geometry":{"type":"Polygon","coordinates":[[[5.113693611,43.596805833],[5.11283,43.598431111],[5.112302778,43.598294444],[5.112098889,43.598235833],[5.111931111,43.5984975],[5.112786667,43.598743889],[5.109156111,43.605791111],[5.1090825,43.605858889],[5.109011944,43.605934722],[5.108940556,43.605986111],[5.108839722,43.606021389],[5.108744444,43.606048611],[5.1086425,43.606061389],[5.108528611,43.606058056],[5.1084425,43.606043611],[5.107829167,43.605888056],[5.10776,43.605866944],[5.107718611,43.605835],[5.107671389,43.605801389],[5.107631667,43.6057425],[5.107629444,43.605697222],[5.107637222,43.605616667],[5.107439722,43.605955278],[5.108053611,43.606100833],[5.108131944,43.606115833],[5.108235278,43.606144444],[5.108405833,43.606190278],[5.108614722,43.606245833],[5.108675,43.606275],[5.108731111,43.6063175],[5.108762222,43.606366667],[5.108781667,43.6064275],[5.108788056,43.606465556],[5.108790278,43.606513333],[5.105196389,43.613633611],[5.104188889,43.615581389],[5.103558333,43.615411111],[5.103451667,43.615635],[5.104022222,43.615803611],[5.103411944,43.617033056],[5.103388889,43.617061111],[5.103364722,43.617066389],[5.1033425,43.617063611],[5.103315,43.617040278],[5.103305278,43.616881944],[5.1032775,43.616543333],[5.103237222,43.616350278],[5.103156667,43.615982222],[5.103011389,43.615430556],[5.10279,43.614743889],[5.102701111,43.614439722],[5.102645833,43.614157222],[5.102553056,43.613849167],[5.102466111,43.61356],[5.102350833,43.613331944],[5.1021975,43.613074722],[5.102098889,43.612978611],[5.10201,43.6128675],[5.102972778,43.611783889],[5.102806667,43.611696944],[5.102713889,43.611839444],[5.102794722,43.611890278],[5.101948611,43.612789444],[5.100805,43.611355278],[5.100625556,43.611094722],[5.100552222,43.610873333],[5.100588611,43.610645278],[5.100686667,43.610396667],[5.101084167,43.609849444],[5.102658611,43.607601111],[5.104789722,43.604410556],[5.105622778,43.604713889],[5.106645556,43.603218889],[5.105808611,43.602923889],[5.1057625,43.602895556],[5.105736667,43.602866667],[5.105750278,43.602813333],[5.105800833,43.602761944],[5.106548333,43.602542778],[5.106689722,43.602491667],[5.106723333,43.602285833],[5.105868611,43.600796111],[5.105624444,43.600868056],[5.105225833,43.600169722],[5.105118056,43.600318611],[5.105004722,43.600127222],[5.104613333,43.600240278],[5.104587778,43.600215833],[5.104283611,43.600280278],[5.104191111,43.600206389],[5.104226667,43.600100278],[5.104319722,43.600021944],[5.104626667,43.599844444],[5.105006111,43.599665278],[5.105313611,43.599505556],[5.105496111,43.599261111],[5.106536667,43.598029722],[5.109123333,43.597532222],[5.109453611,43.5975125],[5.109839444,43.597467778],[5.110227778,43.597475556],[5.111505,43.597484722],[5.111858611,43.597365278],[5.112418611,43.597076389],[5.113148611,43.596794722],[5.113226111,43.596722778],[5.113370833,43.596707222],[5.113558889,43.596755278],[5.113693611,43.596805833]]]}},{"type":"Feature","id":"LFMY-605dfba875fa6edaf528","properties":{"airport":"LFMY","name":"LFMY AVISO","layer":"Airfield surfaces","category":"white","object_type":"Area","style_id":"polygon.white","source_group":"LFMY AVISO","vsmr_group_ids":[],"geometry_role":"filled_region"},"geometry":{"type":"Polygon","coordinates":[[[5.119821389,43.605628333],[5.120560833,43.605653056],[5.120528889,43.606194444],[5.119793056,43.606165278],[5.119821389,43.605628333]]]}},{"type":"Feature","id":"LFMY-1003fb6c0609eec9c6e0","properties":{"airport":"LFMY","name":"LFMY AVISO","layer":"Airfield surfaces","category":"coastline","object_type":"Area","style_id":"polygon.coastline","source_group":"LFMY AVISO","vsmr_group_ids":[],"geometry_role":"filled_region"},"geometry":{"type":"Polygon","coordinates":[[[5.119784722,43.606167778],[5.119801111,43.605899444],[5.120176389,43.605911389],[5.120153889,43.606181389],[5.119784722,43.606167778]]]}},{"type":"Feature","id":"LFMY-378a84e6d2b5793193f6","properties":{"airport":"LFMY","name":"LFMY AVISO","layer":"Airfield surfaces","category":"coastline","object_type":"Area","style_id":"polygon.coastline","source_group":"LFMY AVISO","vsmr_group_ids":[],"geometry_role":"filled_region"},"geometry":{"type":"Polygon","coordinates":[[[5.12018,43.605908611],[5.120198889,43.605639444],[5.120563333,43.605656111],[5.120546667,43.605919722],[5.12018,43.605908611]]]}},{"type":"Feature","id":"LFMY-9db14782b57caa0247f0","properties":{"airport":"LFMY","name":"LFMY AVISO","layer":"Buildings and structures","category":"Buildings","object_type":"Area","style_id":"polygon.building.394446","source_group":"LFMY AVISO","vsmr_group_ids":[],"geometry_role":"filled_region"},"geometry":{"type":"Polygon","coordinates":[[[5.1067525,43.600686111],[5.106079167,43.600892778],[5.105758333,43.600375556],[5.106431389,43.6001625],[5.1067525,43.600686111]]]}},{"type":"Feature","id":"LFMY-2b9fed776ec6ec5a83e9","properties":{"airport":"LFMY","name":"LFMY AVISO","layer":"Buildings and structures","category":"Buildings","object_type":"Area","style_id":"polygon.building.394446","source_group":"LFMY AVISO","vsmr_group_ids":[],"geometry_role":"filled_region"},"geometry":{"type":"Polygon","coordinates":[[[5.105488889,43.600944444],[5.105190833,43.6010275],[5.104905,43.600539722],[5.105183611,43.600457222],[5.105488889,43.600944444]]]}},{"type":"Feature","id":"LFMY-d08874d56e9b25c5f866","properties":{"airport":"LFMY","name":"LFMY AVISO","layer":"Buildings and structures","category":"Buildings","object_type":"Area","style_id":"polygon.building.394446","source_group":"LFMY AVISO","vsmr_group_ids":[],"geometry_role":"filled_region"},"geometry":{"type":"Polygon","coordinates":[[[5.107975,43.603370278],[5.107780278,43.603315833],[5.107875833,43.603125556],[5.108012778,43.603156667],[5.108043056,43.6030825],[5.107991667,43.603071389],[5.108152222,43.602762778],[5.108243611,43.602787222],[5.107975,43.603370278]]]}},{"type":"Feature","id":"LFMY-dade87b087bda3ec453d","properties":{"airport":"LFMY","name":"LFMY AVISO","layer":"Buildings and structures","category":"Buildings","object_type":"Area","style_id":"polygon.building.394446","source_group":"LFMY AVISO","vsmr_group_ids":[],"geometry_role":"filled_region"},"geometry":{"type":"Polygon","coordinates":[[[5.104963611,43.604423611],[5.105008889,43.604238889],[5.105198056,43.604097778],[5.105224167,43.603916389],[5.105416389,43.603755833],[5.105458056,43.603582222],[5.105659167,43.603446389],[5.105688611,43.603259167],[5.105885,43.603104167],[5.106430278,43.603341111],[5.106388333,43.603506389],[5.106198611,43.603641667],[5.106158056,43.603840278],[5.105953611,43.603981667],[5.105947222,43.604173889],[5.105748889,43.604284722],[5.105716111,43.604488611],[5.105503611,43.604624722],[5.104963611,43.604423611]]]}},{"type":"Feature","id":"LFMY-9d08c4d46c748e52f1c5","properties":{"airport":"LFMY","name":"LFMY AVISO","layer":"Buildings and structures","category":"Buildings","object_type":"Area","style_id":"polygon.building.394446","source_group":"LFMY AVISO","vsmr_group_ids":[],"geometry_role":"filled_region"},"geometry":{"type":"Polygon","coordinates":[[[5.104769722,43.605196667],[5.105056111,43.6047525],[5.105571944,43.604931667],[5.105269722,43.605367778],[5.104769722,43.605196667]]]}},{"type":"Feature","id":"LFMY-4b37a578aa59c1ead400","properties":{"airport":"LFMY","name":"LFMY AVISO","layer":"Buildings and structures","category":"Buildings","object_type":"Area","style_id":"polygon.building.394446","source_group":"LFMY AVISO","vsmr_group_ids":[],"geometry_role":"filled_region"},"geometry":{"type":"Polygon","coordinates":[[[5.119052222,43.617936389],[5.1188525,43.617353889],[5.119734444,43.617201389],[5.119914167,43.6177875],[5.119052222,43.617936389]]]}},{"type":"Feature","id":"LFMY-86cf5608010062ef7f54","properties":{"airport":"LFMY","name":"LFMY AVISO","layer":"Buildings and structures","category":"Buildings","object_type":"Area","style_id":"polygon.building.394446","source_group":"LFMY AVISO","vsmr_group_ids":[],"geometry_role":"filled_region"},"geometry":{"type":"Polygon","coordinates":[[[5.117068056,43.6180125],[5.116978056,43.617759722],[5.11721,43.617635278],[5.117452778,43.617658889],[5.117709167,43.617533889],[5.117961111,43.617571944],[5.118201111,43.617450278],[5.118485,43.61747],[5.11856,43.617755833],[5.117068056,43.6180125]]]}},{"type":"Feature","id":"LFMY-7828da83509d3cb0f8c7","properties":{"airport":"LFMY","name":"LFMY AVISO","layer":"Buildings and structures","category":"Buildings","object_type":"Area","style_id":"polygon.building.394446","source_group":"LFMY AVISO","vsmr_group_ids":[],"geometry_role":"filled_region"},"geometry":{"type":"Polygon","coordinates":[[[5.115858333,43.618520556],[5.115666389,43.617928889],[5.116523889,43.617776944],[5.116740278,43.618359167],[5.115858333,43.618520556]]]}},{"type":"Feature","id":"LFMY-5fefa676dc0e55f8f5ea","properties":{"airport":"LFMY","name":"LFMY AVISO","layer":"Buildings and structures","category":"Buildings","object_type":"Area","style_id":"polygon.building.394446","source_group":"LFMY AVISO","vsmr_group_ids":[],"geometry_role":"filled_region"},"geometry":{"type":"Polygon","coordinates":[[[5.117199167,43.618273333],[5.117108889,43.618011667],[5.118638056,43.617756944],[5.118740278,43.618009444],[5.117199167,43.618273333]]]}},{"type":"Feature","id":"LFMY-1ef15e22e7c2f1ee161f","properties":{"airport":"LFMY","name":"LFMY AVISO","layer":"Buildings and structures","category":"Buildings","object_type":"Area","style_id":"polygon.building.394446","source_group":"LFMY AVISO","vsmr_group_ids":[],"geometry_role":"filled_region"},"geometry":{"type":"Polygon","coordinates":[[[5.110756111,43.617168333],[5.110883889,43.616816111],[5.111238889,43.616888889],[5.111166944,43.617121667],[5.111427222,43.617178333],[5.111446667,43.617105],[5.111637778,43.617156667],[5.111430556,43.617630833],[5.111503056,43.617644444],[5.111457778,43.617769444],[5.110836944,43.6176425],[5.110789722,43.617688056],[5.110541667,43.617638056],[5.110568056,43.617589722],[5.110008611,43.617464167],[5.110065556,43.617365],[5.110210556,43.6174],[5.110382778,43.616885278],[5.110540556,43.616925833],[5.110527778,43.617001389],[5.1107975,43.617052778],[5.110753889,43.617166944],[5.110506389,43.617103333],[5.110372778,43.617416389],[5.110641111,43.617457222],[5.110749722,43.617166667],[5.1111025,43.617240278],[5.110998333,43.617530556],[5.111258333,43.617574722],[5.111363056,43.617296944],[5.111112222,43.617228611],[5.111099167,43.6172375],[5.110756111,43.617168333]]]}},{"type":"Feature","id":"LFMY-52163e3c6b4b31724cf4","properties":{"airport":"LFMY","name":"LFMY AVISO","layer":"Terrain","category":"Gras Surface 2","object_type":"Area","style_id":"polygon.grassurface2.339933","source_group":"LFMY AVISO","vsmr_group_ids":[],"geometry_role":"filled_region"},"geometry":{"type":"Polygon","coordinates":[[[5.117545833,43.603501111],[5.116770556,43.603354722],[5.116665556,43.603340556],[5.116584444,43.603340556],[5.116521944,43.603369167],[5.116453889,43.603400278],[5.116400556,43.6034375],[5.116356111,43.603478333],[5.116315,43.603590556],[5.112823056,43.612520278],[5.112803056,43.612554722],[5.112804444,43.612583056],[5.112827222,43.612608611],[5.112906944,43.612624722],[5.113811944,43.612781667],[5.113858889,43.612788333],[5.113876111,43.612769722],[5.11494,43.613021389],[5.114764444,43.613481389],[5.114708611,43.613664722],[5.114466389,43.614390833],[5.114251944,43.615093056],[5.114201667,43.615214167],[5.114194444,43.615289722],[5.114236667,43.615351111],[5.114344722,43.615431667],[5.1144375,43.615494167],[5.114554444,43.615538056],[5.116121389,43.615865556],[5.116383611,43.614811389],[5.119715556,43.606382778],[5.118773611,43.606196111],[5.118517222,43.606856111],[5.117431111,43.606598611],[5.117988889,43.605170833],[5.118026111,43.6052475],[5.118110556,43.605382778],[5.118214722,43.605507778],[5.118343056,43.605622778],[5.118499722,43.605723889],[5.118617778,43.605814722],[5.118704167,43.605890278],[5.118778889,43.605957778],[5.11883,43.606000278],[5.118887778,43.606032222],[5.118960556,43.606059444],[5.119114444,43.606099444],[5.119806944,43.606248611],[5.119873056,43.606279167],[5.119919444,43.606316944],[5.119959722,43.6063675],[5.119980556,43.606425278],[5.119983333,43.606485],[5.119938333,43.606620278],[5.119146389,43.608601389],[5.119120833,43.608645],[5.119096667,43.608678889],[5.119076389,43.608723611],[5.119039167,43.608794167],[5.119003611,43.608899444],[5.118887222,43.609250278],[5.116738056,43.614725],[5.116717778,43.614786944],[5.116680278,43.614862778],[5.116659722,43.614973611],[5.116336944,43.616219722],[5.116306389,43.616161389],[5.116050556,43.616094167],[5.116043333,43.616168889],[5.116013056,43.616118333],[5.115972778,43.616083889],[5.115925278,43.616055833],[5.115806667,43.616020833],[5.114035278,43.615601389],[5.113958056,43.615574167],[5.113917222,43.615559722],[5.113884722,43.615524444],[5.113851389,43.615472222],[5.1138725,43.615370278],[5.114425833,43.613585278],[5.114403889,43.613526111],[5.114378056,43.613449444],[5.114329167,43.613401111],[5.114241111,43.613331667],[5.113937222,43.613155],[5.113709722,43.613041667],[5.113633611,43.612999722],[5.113591944,43.612985],[5.112866389,43.612834444],[5.112761944,43.612828889],[5.112705,43.612842222],[5.112660278,43.612881111],[5.112632778,43.6129375],[5.112603333,43.613083889],[5.112576111,43.613199722],[5.112525278,43.613284167],[5.112462778,43.613414722],[5.112407778,43.613583056],[5.112362778,43.613731111],[5.112326111,43.613882778],[5.112315278,43.614057778],[5.112299722,43.614230278],[5.112319444,43.614358611],[5.112358333,43.614482778],[5.112382778,43.6145975],[5.112455556,43.614740556],[5.112509444,43.614838333],[5.112564722,43.614962222],[5.112648333,43.615108889],[5.112685556,43.615244167],[5.112704167,43.6153175],[5.112476944,43.615250833],[5.112413889,43.615186944],[5.112333333,43.615078611],[5.112273611,43.615009167],[5.112226667,43.614935278],[5.112167778,43.614804722],[5.112108889,43.614669722],[5.112045556,43.614529722],[5.112015278,43.614407778],[5.112007222,43.614276111],[5.112005556,43.614134722],[5.112012222,43.614009722],[5.112037778,43.613852778],[5.112064167,43.613659444],[5.112073333,43.613585556],[5.112160278,43.613386944],[5.1125375,43.612421111],[5.112885833,43.611526944],[5.113484722,43.609997222],[5.113481944,43.609941944],[5.113469444,43.609884444],[5.113441667,43.609858889],[5.113401111,43.609847778],[5.113340833,43.609834722],[5.113194444,43.609833611],[5.1105175,43.609886944],[5.110314167,43.609882222],[5.110161389,43.609880278],[5.109973333,43.609857778],[5.109789722,43.609819722],[5.109686111,43.609777778],[5.109548889,43.609709722],[5.109451389,43.609626944],[5.109331389,43.609519444],[5.109298333,43.609444722],[5.109267778,43.609360278],[5.109647778,43.609366389],[5.109663889,43.609426111],[5.109715556,43.609496389],[5.109758889,43.609566944],[5.109844167,43.609617222],[5.1099525,43.609647222],[5.110058056,43.609671944],[5.110298611,43.609667778],[5.113223333,43.609611667],[5.113340833,43.609608889],[5.113482222,43.609601389],[5.113588333,43.609579444],[5.113648333,43.609550833],[5.113695833,43.609478056],[5.113726667,43.609397778],[5.113746944,43.609315833],[5.113968056,43.608774167],[5.114188056,43.608224444],[5.114427778,43.607602222],[5.114785,43.606661944],[5.115042222,43.605997222],[5.115873611,43.603859722],[5.116053889,43.603386667],[5.116124722,43.603249444],[5.116194722,43.603143056],[5.116276389,43.603065556],[5.1163725,43.603001111],[5.116491389,43.602975],[5.116619167,43.602962222],[5.116729444,43.602976667],[5.1169325,43.603027778],[5.117655,43.6032075],[5.117545833,43.603501111]]]}},{"type":"Feature","id":"LFMY-fc7995b8e91c267c0bb1","properties":{"airport":"LFMY","name":"LFMY AVISO","layer":"Airfield surfaces","category":"Hard Surface 3","object_type":"Area","style_id":"polygon.hardsurface3.8a807f","source_group":"LFMY AVISO","vsmr_group_ids":[],"geometry_role":"filled_region"},"geometry":{"type":"Polygon","coordinates":[[[5.108017778,43.600123056],[5.107940833,43.600153611],[5.107843056,43.600162778],[5.107775556,43.600150278],[5.107687222,43.600119167],[5.107619167,43.600091111],[5.107855833,43.600503611],[5.108423889,43.601491389],[5.108473333,43.601520833],[5.108527778,43.601569722],[5.108609722,43.601628889],[5.108686389,43.60167],[5.108804167,43.601708056],[5.109085833,43.601782778],[5.109154444,43.601796389],[5.109199722,43.601800278],[5.109245,43.601800278],[5.109277222,43.601796389],[5.109132222,43.602081944],[5.109101389,43.602057222],[5.109063611,43.602031389],[5.109014444,43.602012222],[5.108805556,43.601950833],[5.108699722,43.601923889],[5.108605278,43.601900556],[5.108548889,43.601902222],[5.108472778,43.601906944],[5.108409722,43.601915833],[5.107569722,43.602165],[5.107666667,43.602321111],[5.107318333,43.602430278],[5.107454722,43.602809444],[5.107465556,43.602865833],[5.107468611,43.602931111],[5.107460833,43.602977778],[5.107436944,43.603026389],[5.107411389,43.603076667],[5.107151944,43.603462222],[5.1067225,43.604078056],[5.106723056,43.604093333],[5.106734722,43.604117222],[5.106755556,43.604139722],[5.106793056,43.604161944],[5.106848889,43.604191111],[5.106949167,43.604231389],[5.106873056,43.604352778],[5.106715833,43.604294167],[5.106688333,43.604287222],[5.1066475,43.604287222],[5.106612778,43.604290278],[5.106585833,43.604295278],[5.106565,43.604301111],[5.106135278,43.604918889],[5.105583333,43.604719444],[5.106631944,43.603197222],[5.106674444,43.602303333],[5.105827778,43.600848056],[5.105631389,43.600903611],[5.1052,43.600173611],[5.107279444,43.599536111],[5.107471944,43.599842778],[5.107503611,43.599845],[5.107590278,43.599836667],[5.107626111,43.599832778],[5.109079722,43.599154722],[5.109352778,43.5994625],[5.108017778,43.600123056]]]}},{"type":"Feature","id":"LFMY-459a79943a10a20f27ee","properties":{"airport":"LFMY","name":"LFMY AVISO","layer":"Airfield surfaces","category":"Hard Surface 3","object_type":"Area","style_id":"polygon.hardsurface3.8a807f","source_group":"LFMY AVISO","vsmr_group_ids":[],"geometry_role":"filled_region"},"geometry":{"type":"Polygon","coordinates":[[[5.112116389,43.615605833],[5.11191,43.6160725],[5.1110175,43.615886389],[5.111163611,43.615463889],[5.112116389,43.615605833]]]}},{"type":"Feature","id":"LFMY-7436be5f47bfa569c9ee","properties":{"airport":"LFMY","name":"LFMY AVISO","layer":"Airfield surfaces","category":"Hard Surface 3","object_type":"Area","style_id":"polygon.hardsurface3.8a807f","source_group":"LFMY AVISO","vsmr_group_ids":[],"geometry_role":"filled_region"},"geometry":{"type":"Polygon","coordinates":[[[5.118460833,43.616850278],[5.118634167,43.617470278],[5.1167975,43.617793333],[5.116788611,43.61777],[5.116773889,43.617753611],[5.116750278,43.617741944],[5.116728333,43.617734722],[5.116700556,43.617735556],[5.116656667,43.617748889],[5.116606389,43.617763333],[5.115668611,43.617929167],[5.115460278,43.617845],[5.115272778,43.617389167],[5.115278611,43.617378333],[5.115310278,43.617371389],[5.1161925,43.617206667],[5.116329444,43.617176944],[5.116395556,43.617161389],[5.116425833,43.617153333],[5.116433889,43.617136389],[5.116437222,43.617115],[5.116431389,43.617085833],[5.116419722,43.617055556],[5.116597222,43.6170225],[5.116652778,43.617180278],[5.118089722,43.616920278],[5.118144444,43.616904444],[5.118460833,43.616850278]]]}},{"type":"Feature","id":"LFMY-c9701482b4b4bc841104","properties":{"airport":"LFMY","name":"LFMY AVISO","layer":"Airfield surfaces","category":"Hard Surface 3","object_type":"Area","style_id":"polygon.hardsurface3.8a807f","source_group":"LFMY AVISO","vsmr_group_ids":[],"geometry_role":"filled_region"},"geometry":{"type":"Polygon","coordinates":[[[5.108535,43.603495278],[5.108015278,43.60336],[5.108149167,43.603093333],[5.108670278,43.603229444],[5.108535,43.603495278]]]}},{"type":"Feature","id":"LFMY-ce61210da7ee71851214","properties":{"airport":"LFMY","name":"LFMY AVISO","layer":"Airfield surfaces","category":"Hard Surface 2","object_type":"Area","style_id":"polygon.hardsurface2.595e5b","source_group":"LFMY AVISO","vsmr_group_ids":[],"geometry_role":"filled_region"},"geometry":{"type":"Polygon","coordinates":[[[5.111921944,43.598611111],[5.111849167,43.598595],[5.111774167,43.598580556],[5.111681667,43.598574722],[5.111586111,43.598576389],[5.111498889,43.598592222],[5.111416667,43.598619444],[5.111334444,43.598653611],[5.111271389,43.598681111],[5.111212778,43.598725278],[5.111172222,43.598771389],[5.111122778,43.598823056],[5.111063889,43.598930556],[5.108262778,43.604411111],[5.108242778,43.604464722],[5.108225833,43.604501944],[5.1082175,43.604529167],[5.108221389,43.604569722],[5.108246111,43.604612778],[5.108287778,43.604663333],[5.108328333,43.604690833],[5.108371111,43.604709444],[5.1084375,43.604730833],[5.108762222,43.604821667],[5.108704167,43.604951111],[5.108318333,43.604845556],[5.108286111,43.604841944],[5.108233889,43.604840833],[5.108176111,43.604845556],[5.108119722,43.604859167],[5.10808,43.604875556],[5.108047778,43.604895278],[5.108014444,43.604919167],[5.107988056,43.604955556],[5.107475278,43.605952222],[5.108058889,43.606101944],[5.108012222,43.606098889],[5.107961667,43.606102222],[5.107918889,43.606111944],[5.107876111,43.606126111],[5.107833889,43.606145556],[5.1077975,43.606165833],[5.107764444,43.606191389],[5.107738333,43.606212778],[5.107094167,43.607478333],[5.107076111,43.607508056],[5.107080833,43.607543611],[5.107090278,43.607585556],[5.107101111,43.607628611],[5.107119167,43.607663889],[5.1071475,43.607693333],[5.107175556,43.607719722],[5.107200278,43.607733611],[5.107253333,43.607748611],[5.107180833,43.607878889],[5.106908056,43.607803611],[5.106853056,43.607795278],[5.106795278,43.607786111],[5.106736111,43.607786111],[5.106684444,43.607789444],[5.106639167,43.607797778],[5.106589722,43.607810278],[5.106553333,43.607831111],[5.106516111,43.607851667],[5.106483889,43.607902778],[5.103783333,43.613192778],[5.103772778,43.61322],[5.103765833,43.613245278],[5.103768333,43.613281389],[5.103781389,43.613325],[5.103805556,43.613358056],[5.103836111,43.613388889],[5.103870278,43.613415],[5.103905,43.613439167],[5.103920833,43.61345],[5.103960556,43.613464167],[5.104285,43.613556667],[5.104219722,43.613683056],[5.103607778,43.613525278],[5.103371944,43.613983056],[5.103329444,43.6140675],[5.103295556,43.614138333],[5.103276667,43.61418],[5.103258611,43.61422],[5.103247778,43.614261111],[5.103250278,43.614311111],[5.1032575,43.6143725],[5.103277778,43.614433333],[5.103405556,43.614835833],[5.103433333,43.6149275],[5.1034475,43.6149725],[5.103461667,43.615003056],[5.103474444,43.615025],[5.10349,43.615045],[5.103507778,43.615055833],[5.103533889,43.615068889],[5.103319167,43.615157778],[5.103236111,43.614895833],[5.103101389,43.614448056],[5.103079722,43.614354167],[5.103079167,43.614307222],[5.103077778,43.614252778],[5.103085556,43.614206667],[5.103115,43.614139444],[5.103140833,43.614071944],[5.103200833,43.613934167],[5.103644444,43.613061389],[5.104145833,43.612077222],[5.1048825,43.610609722],[5.10551,43.609399444],[5.106260556,43.607931944],[5.1067725,43.606925833],[5.107551667,43.605405833],[5.107808889,43.604895278],[5.107824444,43.604838611],[5.107829444,43.604791389],[5.107813333,43.604753056],[5.107793056,43.604715556],[5.107749167,43.604681944],[5.1077125,43.604656111],[5.106863889,43.604351667],[5.106944444,43.6042275],[5.1075475,43.604446667],[5.107639444,43.604479444],[5.107698611,43.604498333],[5.107769444,43.604508333],[5.10785,43.604509167],[5.107943333,43.604486389],[5.108007778,43.604451389],[5.108067222,43.604388889],[5.108106389,43.604322222],[5.108728056,43.603101944],[5.108953889,43.6026525],[5.10917,43.602240556],[5.109175833,43.602193889],[5.109169444,43.6021475],[5.109151389,43.602105833],[5.109134444,43.602088611],[5.109121944,43.602075833],[5.109271111,43.601792778],[5.109303333,43.601790556],[5.109332778,43.601779722],[5.109374444,43.601764167],[5.109403611,43.601745833],[5.109439722,43.601702778],[5.110469722,43.599683056],[5.1104975,43.599637778],[5.110523056,43.599584722],[5.110548889,43.599534444],[5.110568611,43.5994875],[5.11058,43.599431944],[5.11058,43.599388333],[5.110560278,43.5993525],[5.110542778,43.599320833],[5.110496944,43.599288333],[5.110438889,43.599249167],[5.110388056,43.599234444],[5.110343056,43.599221111],[5.110288611,43.599216389],[5.110234444,43.599216389],[5.110184722,43.599227778],[5.110127222,43.599245278],[5.107983889,43.600292778],[5.107946667,43.600315556],[5.107921667,43.600335],[5.107893056,43.600367778],[5.10787,43.600394444],[5.107863889,43.600431111],[5.107859444,43.600464444],[5.107858333,43.600486389],[5.107859722,43.600516944],[5.107575833,43.600033611],[5.107607222,43.600063333],[5.107632222,43.600080278],[5.107659444,43.600101389],[5.107716667,43.600121944],[5.107759444,43.600136667],[5.107798333,43.600148889],[5.107830278,43.600148056],[5.107874722,43.60015],[5.107938611,43.6001425],[5.107983889,43.6001225],[5.110828333,43.598728333],[5.110973333,43.598657778],[5.110996667,43.598645556],[5.111011389,43.598616111],[5.111175833,43.598310833],[5.111233056,43.5982875],[5.111341944,43.598255556],[5.111429444,43.598234444],[5.111511111,43.598223889],[5.111637222,43.598211944],[5.11175,43.598216389],[5.1118225,43.598223333],[5.111937778,43.598239444],[5.112094167,43.598271944],[5.111921944,43.598611111]]]}},{"type":"Feature","id":"LFMY-7c526aee6d14fb2e76c2","properties":{"airport":"LFMY","name":"LFMY AVISO","layer":"Airfield surfaces","category":"Hard Surface 2","object_type":"Area","style_id":"polygon.hardsurface2.595e5b","source_group":"LFMY AVISO","vsmr_group_ids":[],"geometry_role":"filled_region"},"geometry":{"type":"Polygon","coordinates":[[[5.105561944,43.615544722],[5.105580556,43.615584167],[5.105613333,43.615625556],[5.105653333,43.615663611],[5.105692778,43.615685833],[5.105752222,43.615706667],[5.105815556,43.615713889],[5.1058725,43.615718056],[5.105958333,43.615712778],[5.111074444,43.615204722],[5.1111925,43.615201667],[5.111234167,43.615199167],[5.111776111,43.615283056],[5.112008889,43.615318889],[5.112238889,43.61536],[5.112460833,43.615411111],[5.1124675,43.615388889],[5.112464444,43.615258889],[5.112456111,43.615229444],[5.1127,43.615308056],[5.112715278,43.615343056],[5.112726667,43.615373056],[5.112746944,43.615401944],[5.112772778,43.615432222],[5.112806111,43.615455556],[5.112839167,43.615478056],[5.112858056,43.615493056],[5.112892778,43.615515278],[5.116060556,43.616272222],[5.116041389,43.616156944],[5.116050556,43.616091389],[5.116308611,43.616158333],[5.116336389,43.616213056],[5.116335833,43.616256667],[5.116337778,43.616279444],[5.116347778,43.616303333],[5.116366667,43.616331111],[5.116400556,43.616348611],[5.118328056,43.616805278],[5.118458056,43.6168275],[5.118463333,43.616853056],[5.118140278,43.616907222],[5.116538056,43.616525833],[5.116505556,43.616523611],[5.116483889,43.616525278],[5.116468056,43.616531389],[5.116450556,43.616539722],[5.116443333,43.6165575],[5.116600278,43.617025833],[5.116416667,43.617058889],[5.116224444,43.616513333],[5.116216667,43.616490833],[5.116205833,43.616474167],[5.116183889,43.616461667],[5.116158056,43.616444167],[5.116126111,43.616434167],[5.112248333,43.615513056],[5.112215833,43.615523611],[5.112181944,43.615547778],[5.112161667,43.615565833],[5.112142778,43.615590556],[5.112116667,43.615614444],[5.111157778,43.615472778],[5.111162778,43.615448333],[5.111163333,43.615428611],[5.111162778,43.615413056],[5.111157222,43.615396667],[5.111128889,43.615373056],[5.111091667,43.615360833],[5.111028889,43.615351389],[5.111003056,43.615353056],[5.107556111,43.615689167],[5.105779722,43.615865],[5.105699167,43.615870278],[5.105634167,43.6158775],[5.105579444,43.61588],[5.105541389,43.615883056],[5.105482222,43.615884444],[5.105456111,43.615884167],[5.1054275,43.615889167],[5.105561944,43.615544722]]]}},{"type":"Feature","id":"LFMY-ded0d52f297a4737ed39","properties":{"airport":"LFMY","name":"LFMY AVISO","layer":"Surface markings","category":"Stopbars","object_type":"Area","style_id":"polygon.stopbar.7e0000","source_group":"LFMY AVISO","vsmr_group_ids":[],"geometry_role":"filled_region"},"geometry":{"type":"Polygon","coordinates":[[[5.111906944,43.598609444],[5.111969444,43.598483333],[5.111985278,43.598486667],[5.111926389,43.598614722],[5.111906944,43.598609444]]]}},{"type":"Feature","id":"LFMY-353fa0ce0a59f7e7c82a","properties":{"airport":"LFMY","name":"LFMY AVISO","layer":"Surface markings","category":"Stopbars","object_type":"Area","style_id":"polygon.stopbar.7e0000","source_group":"LFMY AVISO","vsmr_group_ids":[],"geometry_role":"filled_region"},"geometry":{"type":"Polygon","coordinates":[[[5.108684444,43.604945833],[5.108751111,43.604816944],[5.108764167,43.604820556],[5.108698333,43.604950278],[5.108684444,43.604945833]]]}},{"type":"Feature","id":"LFMY-74fdcbaf07da4253c256","properties":{"airport":"LFMY","name":"LFMY AVISO","layer":"Surface markings","category":"Stopbars","object_type":"Area","style_id":"polygon.stopbar.7e0000","source_group":"LFMY AVISO","vsmr_group_ids":[],"geometry_role":"filled_region"},"geometry":{"type":"Polygon","coordinates":[[[5.107170833,43.607875833],[5.107246944,43.607745833],[5.107259167,43.607748333],[5.107183056,43.607880556],[5.107170833,43.607875833]]]}},{"type":"Feature","id":"LFMY-6999433facc782a0c5e4","properties":{"airport":"LFMY","name":"LFMY AVISO","layer":"Surface markings","category":"Stopbars","object_type":"Area","style_id":"polygon.stopbar.7e0000","source_group":"LFMY AVISO","vsmr_group_ids":[],"geometry_role":"filled_region"},"geometry":{"type":"Polygon","coordinates":[[[5.104211944,43.61368],[5.104277222,43.613552778],[5.104293889,43.613558333],[5.104231111,43.613684444],[5.104211944,43.61368]]]}},{"type":"Feature","id":"LFMY-d360ba1ac17062d8e6f9","properties":{"airport":"LFMY","name":"LFMY AVISO","layer":"Surface markings","category":"Stopbars","object_type":"Area","style_id":"polygon.stopbar.7e0000","source_group":"LFMY AVISO","vsmr_group_ids":[],"geometry_role":"filled_region"},"geometry":{"type":"Polygon","coordinates":[[[5.103309444,43.615153056],[5.103534444,43.615062778],[5.10354,43.615071111],[5.103316111,43.615160556],[5.103309444,43.615153056]]]}},{"type":"Feature","id":"LFMY-458f150f215b35a29b64","properties":{"airport":"LFMY","name":"LFMY AVISO","layer":"Surface markings","category":"Stopbars","object_type":"Area","style_id":"polygon.stopbar.7e0000","source_group":"LFMY AVISO","vsmr_group_ids":[],"geometry_role":"filled_region"},"geometry":{"type":"Polygon","coordinates":[[[5.105432778,43.615889722],[5.105545278,43.615556111],[5.105559167,43.615561389],[5.105453889,43.6158875],[5.105432778,43.615889722]]]}},{"type":"Feature","id":"LFMY-82640d10e08e86d46fb9","properties":{"airport":"LFMY","name":"LFMY AVISO","layer":"Airfield surfaces","category":"Grass runways","object_type":"Area","style_id":"polygon.runwaygrass.008000","source_group":"LFMY AVISO","vsmr_group_ids":[],"geometry_role":"filled_region"},"geometry":{"type":"Polygon","coordinates":[[[5.109196111,43.609379444],[5.1092175,43.608855833],[5.119172778,43.608697222],[5.1191775,43.609246667],[5.109196111,43.609379444]]]}},{"type":"Feature","id":"LFMY-195fc48518fa0f361125","properties":{"airport":"LFMY","name":"LFMY AVISO","layer":"Airfield surfaces","category":"Grass runways","object_type":"Area","style_id":"polygon.runwaygrass.008000","source_group":"LFMY AVISO","vsmr_group_ids":[],"geometry_role":"filled_region"},"geometry":{"type":"Polygon","coordinates":[[[5.1176425,43.603184444],[5.118698056,43.603370556],[5.114935556,43.613035833],[5.113861389,43.612777778],[5.1176425,43.603184444]]]}},{"type":"Feature","id":"LFMY-decc82906b2e97d435d9","properties":{"airport":"LFMY","name":"LFMY AVISO","layer":"Airfield surfaces","category":"Grass runways","object_type":"Area","style_id":"polygon.runwaygrass.008000","source_group":"LFMY AVISO","vsmr_group_ids":[],"geometry_role":"filled_region"},"geometry":{"type":"Polygon","coordinates":[[[5.1154075,43.614622222],[5.118770556,43.606190833],[5.119724722,43.6063775],[5.116388333,43.614826944],[5.1154075,43.614622222]]]}},{"type":"Feature","id":"LFMY-cb5077f56419e6778ac5","properties":{"airport":"LFMY","name":"LFMY AVISO","layer":"Airfield surfaces","category":"Runways","object_type":"Area","style_id":"polygon.runwayconcrete.555555","source_group":"LFMY AVISO","vsmr_group_ids":[],"geometry_role":"filled_region"},"geometry":{"type":"Polygon","coordinates":[[[5.111972222,43.598480278],[5.113291944,43.5988325],[5.104964722,43.615145833],[5.104968333,43.615174167],[5.104975556,43.615194167],[5.10499,43.6152275],[5.105010556,43.615268611],[5.105035278,43.615313611],[5.105063611,43.615337778],[5.105103056,43.615358333],[5.105138889,43.615373333],[5.105185,43.615391667],[5.105563611,43.615495],[5.105571667,43.615531389],[5.1054525,43.615890278],[5.105446389,43.615890556],[5.105413889,43.615889444],[5.105379722,43.615885278],[5.105355833,43.61588],[5.105288056,43.615871111],[5.105225278,43.615861667],[5.105158889,43.615845833],[5.105091667,43.615830278],[5.104675,43.615728056],[5.103695833,43.615462778],[5.103570556,43.615428889],[5.103511944,43.615410833],[5.103454722,43.615390278],[5.103411944,43.615366389],[5.103388333,43.615340556],[5.103371944,43.615306667],[5.103354722,43.615269444],[5.103315556,43.615153333],[5.10353,43.615064167],[5.103555,43.615081111],[5.103591111,43.615096389],[5.103621111,43.615105],[5.103659444,43.615116111],[5.103700556,43.615123056],[5.103745556,43.615123889],[5.103786944,43.615122222],[5.103830833,43.615116944],[5.103895556,43.615096389],[5.103964167,43.615070278],[5.104100833,43.6150925],[5.104146944,43.615098889],[5.104182222,43.615094722],[5.104238333,43.615092222],[5.104286389,43.615084722],[5.104332222,43.615068056],[5.104374722,43.615048056],[5.104405556,43.615028611],[5.104435833,43.615008889],[5.104992778,43.613894444],[5.104214167,43.613682222],[5.104280278,43.613552778],[5.104546389,43.613627222],[5.104588333,43.613632222],[5.104639167,43.613635],[5.104741667,43.613634444],[5.104812222,43.613628611],[5.104936944,43.613607222],[5.105000278,43.613587222],[5.105076667,43.613558056],[5.105143889,43.613525833],[5.105183056,43.613490556],[5.105210833,43.613463333],[5.105235556,43.613431944],[5.107791667,43.608431667],[5.107800833,43.608388611],[5.107796111,43.60835],[5.107790278,43.608306944],[5.107773889,43.608249722],[5.107757222,43.608203333],[5.107733333,43.6081675],[5.107703889,43.608126667],[5.107669444,43.608086944],[5.107637778,43.608056111],[5.107602778,43.608026667],[5.107560278,43.607997778],[5.10752,43.607980556],[5.107489167,43.607964722],[5.107443889,43.607950278],[5.107171944,43.607877222],[5.107246944,43.607745278],[5.107740278,43.607885278],[5.107780833,43.607897222],[5.107836389,43.607910833],[5.107865,43.607908889],[5.107891111,43.607903333],[5.107934444,43.607893611],[5.107968056,43.607883333],[5.108008056,43.607868333],[5.108048611,43.607846944],[5.1080725,43.607826111],[5.108101389,43.607801944],[5.108121667,43.607781667],[5.109301667,43.605463889],[5.109303333,43.605434167],[5.109295,43.605385833],[5.10929,43.605338611],[5.109274167,43.60529],[5.109252222,43.605234722],[5.109224167,43.60519],[5.109186111,43.605156111],[5.109150556,43.605126944],[5.109117222,43.605100278],[5.109089722,43.605081944],[5.109060278,43.60506],[5.109023611,43.605043056],[5.1089875,43.605029444],[5.1089625,43.605019167],[5.108913611,43.605008056],[5.108683889,43.604946667],[5.108750556,43.604815278],[5.109099722,43.604905],[5.109124167,43.604908611],[5.109151389,43.604907778],[5.109213056,43.604906944],[5.109276667,43.604900556],[5.109374722,43.604881944],[5.109458889,43.604865278],[5.109530556,43.604845278],[5.109581944,43.604825833],[5.109626111,43.604797222],[5.109652778,43.604770833],[5.112496389,43.599212778],[5.112503889,43.599180556],[5.112493611,43.599154722],[5.112470833,43.5991275],[5.112448056,43.599101667],[5.112418611,43.599081111],[5.112141944,43.599008611],[5.112197222,43.598896944],[5.112205278,43.598863611],[5.112201667,43.5988275],[5.112198056,43.598791944],[5.112183611,43.5987575],[5.112160556,43.598727778],[5.112136944,43.598701389],[5.112096111,43.598668333],[5.112053056,43.598648889],[5.111998611,43.598634444],[5.111945,43.598620833],[5.111908056,43.598608333],[5.111972222,43.598480278]]]}},{"type":"Feature","id":"LFMY-35ed7c31b04549603d26","properties":{"airport":"LFMY","name":"LFMY Groundlayout AVISO","layer":"Guidance lines","category":"gate","object_type":"Line","style_id":"line.gate","source_group":"LFMY Groundlayout AVISO","vsmr_group_ids":[],"geometry_role":"linework"},"geometry":{"type":"MultiLineString","coordinates":[[[5.103722222,43.617183333],[5.103700833,43.616843611]],[[5.103553611,43.617139722],[5.103868889,43.616883333]],[[5.104091667,43.616457222],[5.104075556,43.616113611]],[[5.103928611,43.616411667],[5.104244167,43.616160833]],[[5.104747222,43.615113056],[5.104666111,43.615263056]],[[5.104634722,43.615081944],[5.10467,43.615119722],[5.104606667,43.615250833],[5.104540278,43.615228333],[5.104581944,43.615148056],[5.104649722,43.6151675]],[[5.105921389,43.612224722],[5.106115278,43.611846944],[5.106221111,43.611873889],[5.106021944,43.612248056],[5.105921389,43.612224722]],[[5.106236389,43.6123075],[5.106334722,43.612336389],[5.106538611,43.611954722],[5.106437778,43.6119275],[5.106236389,43.6123075]],[[5.112643333,43.599292778],[5.112715833,43.599312778],[5.112742778,43.599261944],[5.112721389,43.599246667],[5.1127525,43.599241111],[5.112791944,43.599159722],[5.1127175,43.599141667]],[[5.1127825,43.599335278],[5.112798056,43.599228611],[5.112811111,43.599213333],[5.1128925,43.5992375],[5.112867778,43.599230278],[5.1128325,43.599294444],[5.112891944,43.599185833]],[[5.113353056,43.598323333],[5.113336944,43.597980556]],[[5.113187222,43.598275556],[5.113509167,43.598018333]],[[5.113861111,43.597315556],[5.113851389,43.596967778]],[[5.113695278,43.597267778],[5.114023611,43.597005278]],[[5.107821389,43.605986667],[5.107776944,43.60592]],[[5.107752222,43.605976389],[5.107855,43.605938056]],[[5.108605833,43.606200556],[5.108566389,43.606127778]],[[5.108541389,43.606182222],[5.108636111,43.606146111]]]}},{"type":"Feature","id":"LFMY-f7431029c237b86afc3d","properties":{"airport":"LFMY","name":"LFMY Groundlayout","layer":"Guidance lines","category":"Runways","object_type":"Line","style_id":"line.runwayconcrete.555555","source_group":"LFMY Groundlayout","vsmr_group_ids":[],"geometry_role":"linework"},"geometry":{"type":"MultiLineString","coordinates":[[[5.102277778,43.615111111],[5.110861111,43.598222222]],[[5.106527778,43.616277778],[5.102277778,43.615111111]],[[5.115138889,43.599388889],[5.110861111,43.598222222]]]}}]}
