{"type":"FeatureCollection","name":"LFOQ AVISO","bbox":[1.134264167,47.616603611,1.294216389,47.722033333],"metadata":{"schema":"vSMR AVISO","schema_version":2,"geometry_mode":"shared","airport":"LFOQ","coordinate_reference_system":"WGS84","coordinate_order":"longitude, latitude","default_color_palette":"dark","color_palettes":["dark","light"],"background_colors":{"dark":"#434A4F","light":"#434A4F"},"runways":[{"ends":["12R","30L"],"headings":[120,300],"thresholds":[[1.200671944,47.680477778],[1.20785,47.677521944]]},{"ends":["12L","30R"],"headings":[121,301],"thresholds":[[1.201916944,47.680810833],[1.210052778,47.6775]]},{"ends":["12","30"],"headings":[121,301],"thresholds":[[1.201977778,47.681405833],[1.215591944,47.675775]]},{"ends":["02R","20L"],"headings":[22,202],"thresholds":[[1.205052778,47.670327778],[1.209396944,47.677302778]]},{"ends":["02L","20R"],"headings":[21,201],"thresholds":[[1.204338889,47.670532778],[1.208546944,47.677605833]]},{"ends":["02","20"],"headings":[21,201],"thresholds":[[1.2027,47.670902778],[1.203966944,47.673002778]]}],"saved_active_runways":[],"saved_active_airport_modes":[],"airport_reference":[1.205832778,47.679721944],"feature_count":25,"style_count":9,"layer_counts":{"Airfield surfaces":2,"Buildings and structures":11,"Guidance lines":4,"Terrain":8},"category_counts":{"Buildings":11,"Gras Surface 2":5,"Grass":3,"Grass runways":1,"Hard Surface 2":2,"Runways":1,"Stopbars":1,"Taxiways":1},"geometry_source":"local GNG","geometry_source_url":"","geometry_license":"GPL-3.0"},"styles":{"line.runwayconcrete.555555":{"name":"Runways","layer":"Guidance lines","object_type":"Line","paint":{"stroke":"#111318","stroke-opacity":1,"stroke-width":1,"palette-overrides":{"light":{"stroke":"#555555"}}},"feature_count":1},"line.runwaygrass.008000":{"name":"Grass runways","layer":"Guidance lines","object_type":"Line","paint":{"stroke":"#859A77","stroke-opacity":1,"stroke-width":1,"palette-overrides":{"light":{"stroke":"#008000"}}},"feature_count":1},"polygon.terrain2.868686":{"name":"Hard Surface 2","layer":"Airfield surfaces","object_type":"Area","paint":{"fill":"#2F3949","fill-opacity":1,"palette-overrides":{"light":{"fill":"#595E5B"}}},"feature_count":1},"polygon.hardsurface2.595e5b":{"name":"Hard Surface 2","layer":"Airfield surfaces","object_type":"Area","paint":{"fill":"#2F3949","fill-opacity":1,"palette-overrides":{"light":{"fill":"#595E5B"}}},"feature_count":1},"polygon.grassurface.00512f":{"name":"Grass","layer":"Terrain","object_type":"Area","paint":{"fill":"#010D19","fill-opacity":1,"palette-overrides":{"light":{"fill":"#00512F"}}},"feature_count":3},"polygon.grassurface2.339933":{"name":"Gras Surface 2","layer":"Terrain","object_type":"Area","paint":{"fill":"#339933","fill-opacity":1,"palette-overrides":{"light":{"fill":"#339933"}}},"feature_count":5},"polygon.building.394446":{"name":"Buildings","layer":"Buildings and structures","object_type":"Area","paint":{"fill":"#475570","fill-opacity":1,"palette-overrides":{"light":{"fill":"#394446"}}},"feature_count":11},"line.taxiway.c0b631":{"name":"Taxiways","layer":"Guidance lines","object_type":"Line","paint":{"stroke":"#4E5A69","stroke-opacity":1,"stroke-width":1,"palette-overrides":{"light":{"stroke":"#C0B631"}}},"feature_count":1},"line.stopbar.7e0000":{"name":"Stopbars","layer":"Guidance lines","object_type":"Line","paint":{"stroke":"#7E0000","stroke-opacity":1,"stroke-width":1,"palette-overrides":{"light":{"stroke":"#7E0000"}}},"feature_count":1}},"vsmr_groups":[],"features":[{"type":"Feature","id":"LFOQ-b25914da957b3f295aee","properties":{"airport":"LFOQ","name":"LFOQ AVISO","layer":"Airfield surfaces","category":"Hard Surface 2","object_type":"Area","style_id":"polygon.terrain2.868686","source_group":"LFOQ AVISO","vsmr_group_ids":[],"geometry_role":"filled_region"},"geometry":{"type":"Polygon","coordinates":[[[1.134264167,47.663578611],[1.243880278,47.616603611],[1.294216389,47.678319722],[1.185456111,47.722033333],[1.134264167,47.663578611]]]}},{"type":"Feature","id":"LFOQ-567c54486ea513715ef4","properties":{"airport":"LFOQ","name":"LFOQ AVISO","layer":"Airfield surfaces","category":"Hard Surface 2","object_type":"Area","style_id":"polygon.hardsurface2.595e5b","source_group":"LFOQ AVISO","vsmr_group_ids":[],"geometry_role":"filled_region"},"geometry":{"type":"Polygon","coordinates":[[[1.215490556,47.675663889],[1.215696389,47.6758925],[1.211200278,47.677751111],[1.2111325,47.677816111],[1.211093611,47.677866111],[1.210467778,47.679624167],[1.210467778,47.679671944],[1.210451667,47.679719722],[1.210387222,47.679774167],[1.210309722,47.679805833],[1.210229167,47.679825556],[1.208995,47.68034],[1.208946667,47.680370556],[1.208927222,47.680398889],[1.209807778,47.681368333],[1.209585278,47.681448889],[1.209404722,47.681264167],[1.204753056,47.683192778],[1.204514167,47.682932222],[1.207121944,47.681838611],[1.207196111,47.681775556],[1.207250833,47.681664722],[1.207247778,47.681575833],[1.207189722,47.681471389],[1.206999444,47.681338889],[1.206892778,47.681308611],[1.206789722,47.681304167],[1.206692778,47.681317222],[1.204121944,47.682386111],[1.204012222,47.682409722],[1.203883333,47.682414167],[1.203793056,47.682411944],[1.202143889,47.682163056],[1.201989167,47.682136944],[1.201860278,47.682086944],[1.201718333,47.6819675],[1.201311944,47.681533333],[1.215490556,47.675663889]]]}},{"type":"Feature","id":"LFOQ-eca8cb2859c5c7557550","properties":{"airport":"LFOQ","name":"LFOQ AVISO","layer":"Terrain","category":"Grass","object_type":"Area","style_id":"polygon.grassurface.00512f","source_group":"LFOQ AVISO","vsmr_group_ids":[],"geometry_role":"filled_region"},"geometry":{"type":"Polygon","coordinates":[[[1.205569444,47.680086111],[1.2056175,47.680074722],[1.205730278,47.680074722],[1.205831667,47.680084444],[1.205938889,47.680122222],[1.206051667,47.680183056],[1.206884167,47.681123889],[1.204023889,47.682314167],[1.203956389,47.682333333],[1.203868889,47.682336944],[1.203733611,47.682329444],[1.202138889,47.682066944],[1.202026111,47.682042222],[1.201921667,47.682013611],[1.201865278,47.6819625],[1.201823056,47.681913056],[1.201800556,47.681835278],[1.201789167,47.681753611],[1.201797778,47.681691111],[1.205569444,47.680086111]]]}},{"type":"Feature","id":"LFOQ-6d90590bae7f184e731e","properties":{"airport":"LFOQ","name":"LFOQ AVISO","layer":"Terrain","category":"Grass","object_type":"Area","style_id":"polygon.grassurface.00512f","source_group":"LFOQ AVISO","vsmr_group_ids":[],"geometry_role":"filled_region"},"geometry":{"type":"Polygon","coordinates":[[[1.206102778,47.679924722],[1.2061175,47.679901111],[1.206155833,47.6798475],[1.206256111,47.67979],[1.210191944,47.678161389],[1.210259722,47.678145556],[1.210351111,47.678137778],[1.210457222,47.678155556],[1.210586667,47.678195278],[1.210686944,47.678268611],[1.2107575,47.678391667],[1.210763611,47.678478889],[1.210336111,47.679617222],[1.210309722,47.679666667],[1.210241944,47.679718333],[1.210147778,47.679764722],[1.206996944,47.681078056],[1.206139167,47.680138333],[1.206111111,47.680096667],[1.206097222,47.680041667],[1.206094167,47.680001944],[1.206102778,47.679924722]]]}},{"type":"Feature","id":"LFOQ-6f9066a090c209e8385f","properties":{"airport":"LFOQ","name":"LFOQ AVISO","layer":"Terrain","category":"Grass","object_type":"Area","style_id":"polygon.grassurface.00512f","source_group":"LFOQ AVISO","vsmr_group_ids":[],"geometry_role":"filled_region"},"geometry":{"type":"Polygon","coordinates":[[[1.207196389,47.6812175],[1.2072075,47.681185556],[1.207224167,47.681153889],[1.207254722,47.681109167],[1.207332222,47.681034722],[1.207581389,47.680930278],[1.20785,47.680822222],[1.207985833,47.680803333],[1.208143611,47.680814722],[1.20826,47.680865],[1.208345833,47.680950833],[1.208379167,47.681043889],[1.208365278,47.681161389],[1.208279444,47.681254722],[1.207584167,47.681536389],[1.207545278,47.681536389],[1.207456667,47.681536389],[1.207398611,47.681530556],[1.207213056,47.681295556],[1.207196389,47.6812175]]]}},{"type":"Feature","id":"LFOQ-cc4c8146ddbf56a0952c","properties":{"airport":"LFOQ","name":"LFOQ AVISO","layer":"Terrain","category":"Gras Surface 2","object_type":"Area","style_id":"polygon.grassurface2.339933","source_group":"LFOQ AVISO","vsmr_group_ids":[],"geometry_role":"filled_region"},"geometry":{"type":"Polygon","coordinates":[[[1.202135556,47.681123333],[1.2016725,47.680606944],[1.209837222,47.677221944],[1.210285833,47.677743333],[1.202135556,47.681123333]]]}},{"type":"Feature","id":"LFOQ-e30e71fe054f943c9e0d","properties":{"airport":"LFOQ","name":"LFOQ AVISO","layer":"Terrain","category":"Gras Surface 2","object_type":"Area","style_id":"polygon.grassurface2.339933","source_group":"LFOQ AVISO","vsmr_group_ids":[],"geometry_role":"filled_region"},"geometry":{"type":"Polygon","coordinates":[[[1.207689444,47.677307222],[1.208041944,47.677883056],[1.200863889,47.680806944],[1.200386389,47.680266111],[1.207689444,47.677307222]]]}},{"type":"Feature","id":"LFOQ-dc3ca2f14c4dd93ae05c","properties":{"airport":"LFOQ","name":"LFOQ AVISO","layer":"Terrain","category":"Gras Surface 2","object_type":"Area","style_id":"polygon.grassurface2.339933","source_group":"LFOQ AVISO","vsmr_group_ids":[],"geometry_role":"filled_region"},"geometry":{"type":"Polygon","coordinates":[[[1.203469722,47.669922222],[1.204338056,47.669693333],[1.208929167,47.677525556],[1.208118889,47.677866667],[1.203469722,47.669922222]]]}},{"type":"Feature","id":"LFOQ-4e8c4415f2b9cf41c859","properties":{"airport":"LFOQ","name":"LFOQ AVISO","layer":"Terrain","category":"Gras Surface 2","object_type":"Area","style_id":"polygon.grassurface2.339933","source_group":"LFOQ AVISO","vsmr_group_ids":[],"geometry_role":"filled_region"},"geometry":{"type":"Polygon","coordinates":[[[1.204461111,47.669654167],[1.205170278,47.669459444],[1.209715556,47.677202222],[1.209049722,47.677479722],[1.204461111,47.669654167]]]}},{"type":"Feature","id":"LFOQ-ca292bbe5b2f220bd603","properties":{"airport":"LFOQ","name":"LFOQ AVISO","layer":"Terrain","category":"Gras Surface 2","object_type":"Area","style_id":"polygon.grassurface2.339933","source_group":"LFOQ AVISO","vsmr_group_ids":[],"geometry_role":"filled_region"},"geometry":{"type":"Polygon","coordinates":[[[1.207259722,47.672493889],[1.207271389,47.672379722],[1.2073125,47.672308889],[1.207429167,47.672214444],[1.207808889,47.672025833],[1.208025278,47.671919444],[1.208112778,47.671707222],[1.208106944,47.671573333],[1.206927778,47.669600278],[1.206775833,47.669521389],[1.206489722,47.669470278],[1.206326111,47.669470278],[1.206068889,47.669513611],[1.205438056,47.669674722],[1.205356389,47.669533056],[1.206145,47.669324722],[1.206378611,47.669305],[1.206536389,47.669320833],[1.206939444,47.669403333],[1.207103056,47.669513611],[1.20832,47.671579722],[1.208314167,47.671674167],[1.208261667,47.671784444],[1.208162222,47.671933889],[1.207928611,47.672099167],[1.207490278,47.672346944],[1.207437778,47.672413889],[1.207449444,47.672488611],[1.208274167,47.673917778],[1.210576667,47.6777025],[1.210438056,47.677755833],[1.207259722,47.672493889]]]}},{"type":"Feature","id":"LFOQ-c918a30cad4082c2635a","properties":{"airport":"LFOQ","name":"LFOQ AVISO","layer":"Buildings and structures","category":"Buildings","object_type":"Area","style_id":"polygon.building.394446","source_group":"LFOQ AVISO","vsmr_group_ids":[],"geometry_role":"filled_region"},"geometry":{"type":"Polygon","coordinates":[[[1.204945278,47.683352222],[1.204796389,47.683175278],[1.205480833,47.682887222],[1.205572778,47.682974722],[1.205636111,47.683064167],[1.204945278,47.683352222]]]}},{"type":"Feature","id":"LFOQ-ff39da9042f327060cad","properties":{"airport":"LFOQ","name":"LFOQ AVISO","layer":"Buildings and structures","category":"Buildings","object_type":"Area","style_id":"polygon.building.394446","source_group":"LFOQ AVISO","vsmr_group_ids":[],"geometry_role":"filled_region"},"geometry":{"type":"Polygon","coordinates":[[[1.205858056,47.682966111],[1.205766111,47.682861667],[1.205699444,47.682789167],[1.2073125,47.68213],[1.207417222,47.682268611],[1.206101944,47.682814722],[1.206130556,47.682846667],[1.205858056,47.682966111]]]}},{"type":"Feature","id":"LFOQ-18706d398767deab91ed","properties":{"airport":"LFOQ","name":"LFOQ AVISO","layer":"Buildings and structures","category":"Buildings","object_type":"Area","style_id":"polygon.building.394446","source_group":"LFOQ AVISO","vsmr_group_ids":[],"geometry_role":"filled_region"},"geometry":{"type":"Polygon","coordinates":[[[1.208751111,47.681867778],[1.208529444,47.681624444],[1.208960278,47.681441111],[1.208991944,47.681488056],[1.209036389,47.681464444],[1.209277222,47.681716111],[1.208925556,47.681842222],[1.208893889,47.681814444],[1.208751111,47.681867778]]]}},{"type":"Feature","id":"LFOQ-65133edb38bb4dd4b66f","properties":{"airport":"LFOQ","name":"LFOQ AVISO","layer":"Buildings and structures","category":"Buildings","object_type":"Area","style_id":"polygon.building.394446","source_group":"LFOQ AVISO","vsmr_group_ids":[],"geometry_role":"filled_region"},"geometry":{"type":"Polygon","coordinates":[[[1.209299444,47.6815775],[1.209115556,47.681376944],[1.209397778,47.681251111],[1.209584444,47.681466667],[1.209299444,47.6815775]]]}},{"type":"Feature","id":"LFOQ-5ffec6bf253fcb7328a8","properties":{"airport":"LFOQ","name":"LFOQ AVISO","layer":"Buildings and structures","category":"Buildings","object_type":"Area","style_id":"polygon.building.394446","source_group":"LFOQ AVISO","vsmr_group_ids":[],"geometry_role":"filled_region"},"geometry":{"type":"Polygon","coordinates":[[[1.207455,47.6822325],[1.207353611,47.682117222],[1.207553333,47.682029722],[1.207664167,47.682149167],[1.207455,47.6822325]]]}},{"type":"Feature","id":"LFOQ-37fcf5701c8777674ae9","properties":{"airport":"LFOQ","name":"LFOQ AVISO","layer":"Buildings and structures","category":"Buildings","object_type":"Area","style_id":"polygon.building.394446","source_group":"LFOQ AVISO","vsmr_group_ids":[],"geometry_role":"filled_region"},"geometry":{"type":"Polygon","coordinates":[[[1.207602222,47.668764722],[1.207701111,47.6689325],[1.207778333,47.668900556],[1.207851389,47.669022222],[1.207795556,47.669036667],[1.20783,47.669083056],[1.207950278,47.669045278],[1.208036389,47.66919],[1.207894444,47.669236389],[1.207920278,47.669273889],[1.208010556,47.669392778],[1.2078,47.669456389],[1.207395833,47.6688225],[1.207602222,47.668764722]]]}},{"type":"Feature","id":"LFOQ-c629ba3329ac792c8618","properties":{"airport":"LFOQ","name":"LFOQ AVISO","layer":"Buildings and structures","category":"Buildings","object_type":"Area","style_id":"polygon.building.394446","source_group":"LFOQ AVISO","vsmr_group_ids":[],"geometry_role":"filled_region"},"geometry":{"type":"Polygon","coordinates":[[[1.208061944,47.669470833],[1.208135,47.669595278],[1.207920278,47.669641667],[1.207855833,47.669531667],[1.208061944,47.669470833]]]}},{"type":"Feature","id":"LFOQ-40a87b44b23b8dacf6de","properties":{"airport":"LFOQ","name":"LFOQ AVISO","layer":"Buildings and structures","category":"Buildings","object_type":"Area","style_id":"polygon.building.394446","source_group":"LFOQ AVISO","vsmr_group_ids":[],"geometry_role":"filled_region"},"geometry":{"type":"Polygon","coordinates":[[[1.208225278,47.669658889],[1.208294167,47.669780556],[1.208053333,47.669858611],[1.207984722,47.669731389],[1.208225278,47.669658889]]]}},{"type":"Feature","id":"LFOQ-d5fb85da9ec1548e9ef8","properties":{"airport":"LFOQ","name":"LFOQ AVISO","layer":"Buildings and structures","category":"Buildings","object_type":"Area","style_id":"polygon.building.394446","source_group":"LFOQ AVISO","vsmr_group_ids":[],"geometry_role":"filled_region"},"geometry":{"type":"Polygon","coordinates":[[[1.208294167,47.670223333],[1.208096389,47.669881944],[1.2082425,47.669841389],[1.208466111,47.670174167],[1.208294167,47.670223333]]]}},{"type":"Feature","id":"LFOQ-d406cd91d83286b60209","properties":{"airport":"LFOQ","name":"LFOQ AVISO","layer":"Buildings and structures","category":"Buildings","object_type":"Area","style_id":"polygon.building.394446","source_group":"LFOQ AVISO","vsmr_group_ids":[],"geometry_role":"filled_region"},"geometry":{"type":"Polygon","coordinates":[[[1.208728056,47.670206111],[1.208994722,47.670663333],[1.208646389,47.670747222],[1.208371389,47.670310278],[1.208728056,47.670206111]]]}},{"type":"Feature","id":"LFOQ-bef274b64da57af882ed","properties":{"airport":"LFOQ","name":"LFOQ AVISO","layer":"Buildings and structures","category":"Buildings","object_type":"Area","style_id":"polygon.building.394446","source_group":"LFOQ AVISO","vsmr_group_ids":[],"geometry_role":"filled_region"},"geometry":{"type":"Polygon","coordinates":[[[1.209325556,47.671780556],[1.208826944,47.671004722],[1.209157778,47.670886111],[1.209235278,47.671028056],[1.209175,47.671045278],[1.209480278,47.671589444],[1.209583333,47.671575],[1.209652222,47.671693611],[1.209325556,47.671780556]]]}},{"type":"Feature","id":"LFOQ-7e83409ad254a0a68a12","properties":{"airport":"LFOQ","name":"LFOQ Groundlayout AVISO","layer":"Guidance lines","category":"Taxiways","object_type":"Line","style_id":"line.taxiway.c0b631","source_group":"LFOQ Groundlayout AVISO","vsmr_group_ids":[],"geometry_role":"linework"},"geometry":{"type":"MultiLineString","coordinates":[[[1.201983889,47.681418611],[1.201786111,47.681502222],[1.201732222,47.681558611],[1.201681944,47.681637778],[1.201685278,47.681755],[1.201732222,47.681908611],[1.201809444,47.6819875],[1.20194,47.682071111],[1.202087778,47.682116389],[1.203765556,47.682376111],[1.203896111,47.682380556],[1.204003611,47.682367222],[1.2041075,47.682333333],[1.210179444,47.679797778],[1.210345556,47.679696389],[1.210383611,47.679630833],[1.210467222,47.679415278],[1.211083333,47.677719444],[1.211090278,47.677693611],[1.211121667,47.677651389]],[[1.210099167,47.678054167],[1.210207222,47.678033056],[1.2102975,47.678035556],[1.210453889,47.678075278],[1.210714722,47.678211111],[1.210780833,47.678293056],[1.210805278,47.678363333],[1.210815556,47.678461667]],[[1.205169722,47.680094167],[1.205395833,47.680003333],[1.205478611,47.679973611],[1.205594167,47.679955],[1.205701667,47.679956944],[1.205839722,47.679990278],[1.206015833,47.680092222],[1.205974722,47.679938333],[1.206016111,47.6798475],[1.206087778,47.679763889],[1.206142778,47.679708333],[1.206225556,47.679656389],[1.206283333,47.679630278]],[[1.206010556,47.680088611],[1.207295278,47.6814925],[1.207317222,47.681544444],[1.20732,47.681642778],[1.207295278,47.681713333],[1.207253889,47.6817875]],[[1.206625833,47.681281667],[1.206791111,47.681250278],[1.206909722,47.681251944],[1.207017222,47.681278056],[1.207188056,47.681372778],[1.207138611,47.6812575],[1.207144167,47.681168611],[1.207193611,47.681103611],[1.207284722,47.681005278]],[[1.207926944,47.680738056],[1.208028889,47.680726944],[1.208136389,47.680741667],[1.208221667,47.680776944],[1.208298889,47.680827222],[1.208265833,47.680758611],[1.208260278,47.680697222],[1.208274167,47.680636111],[1.208312778,47.680585833],[1.208348611,47.680563611]],[[1.208293333,47.680821667],[1.208469722,47.681049722],[1.208676389,47.681406111]],[[1.208398056,47.680960833],[1.208489167,47.681010833],[1.2086075,47.681040556],[1.208723333,47.681059167],[1.208806111,47.681057222],[1.208908056,47.681038611],[1.209134167,47.680953333]]]}},{"type":"Feature","id":"LFOQ-506eeef789d5416940d4","properties":{"airport":"LFOQ","name":"LFOQ Groundlayout AVISO","layer":"Guidance lines","category":"Stopbars","object_type":"Line","style_id":"line.stopbar.7e0000","source_group":"LFOQ Groundlayout AVISO","vsmr_group_ids":[],"geometry_role":"linework"},"geometry":{"type":"MultiLineString","coordinates":[[[1.201580833,47.681821667],[1.201791667,47.681804722]],[[1.206431667,47.680607222],[1.206526667,47.680565556]],[[1.210764444,47.678486667],[1.210876111,47.678500556]]]}},{"type":"Feature","id":"LFOQ-cb4cd20e570a0378440e","properties":{"airport":"LFOQ","name":"LFOQ Groundlayout","layer":"Guidance lines","category":"Runways","object_type":"Line","style_id":"line.runwayconcrete.555555","source_group":"LFOQ Groundlayout","vsmr_group_ids":[],"geometry_role":"linework"},"geometry":{"type":"MultiLineString","coordinates":[[[1.205777778,47.66925],[1.210083333,47.676527778]],[[1.201611111,47.670555556],[1.205777778,47.66925]],[[1.205916667,47.677861111],[1.210083333,47.676527778]]]}},{"type":"Feature","id":"LFOQ-a14a9213f1519ef36d4a","properties":{"airport":"LFOQ","name":"LFOQ Groundlayout","layer":"Guidance lines","category":"Grass runways","object_type":"Line","style_id":"line.runwaygrass.008000","source_group":"LFOQ Groundlayout","vsmr_group_ids":[],"geometry_role":"linework"},"geometry":{"type":"MultiLineString","coordinates":[[[1.202611111,47.67025],[1.206805556,47.677444444]],[[1.206777778,47.668944444],[1.211,47.676138889]],[[1.202611111,47.67025],[1.206777778,47.668944444]],[[1.206805556,47.677444444],[1.211,47.676138889]],[[1.203111111,47.682861111],[1.216722222,47.67725]],[[1.200888889,47.679944444],[1.2145,47.674333333]],[[1.203111111,47.682861111],[1.200888889,47.679944444]],[[1.203138889,47.68225],[1.211222222,47.678833333]],[[1.200861111,47.679361111],[1.208972222,47.675944444]],[[1.203138889,47.68225],[1.200861111,47.679361111]],[[1.211222222,47.678833333],[1.208972222,47.675944444]],[[1.201527778,47.682055556],[1.210611111,47.67825]],[[1.199277778,47.679138889],[1.208388889,47.675361111]],[[1.201527778,47.682055556],[1.199277778,47.679138889]],[[1.210611111,47.67825],[1.208388889,47.675361111]]]}}]}
