{"type":"FeatureCollection","name":"LFOT AVISO","bbox":[0.580921944,47.302471944,0.847868056,47.499729444],"metadata":{"schema":"vSMR AVISO","schema_version":2,"geometry_mode":"shared","airport":"LFOT","coordinate_reference_system":"WGS84","coordinate_order":"longitude, latitude","default_color_palette":"dark","color_palettes":["dark","light"],"background_colors":{"dark":"#434A4F","light":"#434A4F"},"runways":[{"ends":["02","20"],"headings":[15,195],"thresholds":[[0.723410833,47.421788889],[0.7318,47.442652778]]}],"saved_active_runways":[],"saved_active_airport_modes":[],"airport_reference":[0.723055833,47.431943889],"feature_count":39,"style_count":9,"layer_counts":{"Airfield surfaces":2,"Buildings and structures":23,"Guidance lines":4,"Terrain":10},"category_counts":{"Buildings":23,"Grass":10,"Hard Surface 2":2,"Landmark 3":1,"Runways":1,"Stopbars":1,"Taxiway Border":1},"geometry_source":"local GNG","geometry_source_url":"","geometry_license":"GPL-3.0"},"styles":{"line.taxiwayborder.0000ff":{"name":"Taxiway Border","layer":"Guidance lines","object_type":"Line","paint":{"stroke":"#0000FF","stroke-opacity":1,"stroke-width":1,"palette-overrides":{"light":{"stroke":"#0000FF"}}},"feature_count":1},"line.runwayconcrete.555555":{"name":"Runways","layer":"Guidance lines","object_type":"Line","paint":{"stroke":"#111318","stroke-opacity":1,"stroke-width":1,"palette-overrides":{"light":{"stroke":"#555555"}}},"feature_count":1},"line.landmark3.b4424b":{"name":"Landmark 3","layer":"Guidance lines","object_type":"Line","paint":{"stroke":"#B4424B","stroke-opacity":1,"stroke-width":1,"palette-overrides":{"light":{"stroke":"#B4424B"}}},"feature_count":0},"polygon.terrain2.868686":{"name":"Hard Surface 2","layer":"Airfield surfaces","object_type":"Area","paint":{"fill":"#2F3949","fill-opacity":1,"palette-overrides":{"light":{"fill":"#595E5B"}}},"feature_count":1},"polygon.hardsurface2.595e5b":{"name":"Hard Surface 2","layer":"Airfield surfaces","object_type":"Area","paint":{"fill":"#2F3949","fill-opacity":1,"palette-overrides":{"light":{"fill":"#595E5B"}}},"feature_count":1},"polygon.grassurface.00512f":{"name":"Grass","layer":"Terrain","object_type":"Area","paint":{"fill":"#010D19","fill-opacity":1,"palette-overrides":{"light":{"fill":"#00512F"}}},"feature_count":10},"polygon.building.394446":{"name":"Buildings","layer":"Buildings and structures","object_type":"Area","paint":{"fill":"#475570","fill-opacity":1,"palette-overrides":{"light":{"fill":"#394446"}}},"feature_count":23},"line.stopbar.7e0000":{"name":"Stopbars","layer":"Guidance lines","object_type":"Line","paint":{"stroke":"#7E0000","stroke-opacity":1,"stroke-width":1,"palette-overrides":{"light":{"stroke":"#7E0000"}}},"feature_count":1},"line.landmark3.7e7e7e":{"name":"Landmark 3","layer":"Guidance lines","object_type":"Line","paint":{"stroke":"#7E7E7E","stroke-opacity":1,"stroke-width":1,"palette-overrides":{"light":{"stroke":"#7E7E7E"}}},"feature_count":1}},"vsmr_groups":[],"features":[{"type":"Feature","id":"LFOT-2f02be53607fcea0f9bf","properties":{"airport":"LFOT","name":"LFOT AVISO","layer":"Airfield surfaces","category":"Hard Surface 2","object_type":"Area","style_id":"polygon.terrain2.868686","source_group":"LFOT AVISO","vsmr_group_ids":[],"geometry_role":"filled_region"},"geometry":{"type":"Polygon","coordinates":[[[0.580921944,47.343188056],[0.773789167,47.302471944],[0.847868056,47.465682778],[0.653588333,47.499729444],[0.580921944,47.343188056]]]}},{"type":"Feature","id":"LFOT-2ef3c8ca04acb8715f9e","properties":{"airport":"LFOT","name":"LFOT AVISO","layer":"Airfield surfaces","category":"Hard Surface 2","object_type":"Area","style_id":"polygon.hardsurface2.595e5b","source_group":"LFOT AVISO","vsmr_group_ids":[],"geometry_role":"filled_region"},"geometry":{"type":"Polygon","coordinates":[[[0.732106389,47.442609722],[0.730631111,47.442857778],[0.730565,47.442879167],[0.730295833,47.443213333],[0.729459167,47.443358889],[0.728757778,47.442912222],[0.727759722,47.443311944],[0.727355278,47.443235],[0.727746944,47.442578056],[0.728028056,47.442665556],[0.728106944,47.442663333],[0.728179722,47.442644167],[0.728223889,47.442556667],[0.728214444,47.442439167],[0.727595833,47.440929722],[0.727570556,47.4409125],[0.727535833,47.440914722],[0.727046389,47.441711667],[0.727090556,47.441906111],[0.726869444,47.441946667],[0.726806389,47.441790833],[0.7269075,47.441752222],[0.726834722,47.441594167],[0.727144167,47.441083611],[0.727313333,47.441093333],[0.727472778,47.440859722],[0.727495556,47.440785278],[0.727499167,47.440723611],[0.725955556,47.436854722],[0.725890833,47.436808333],[0.725837778,47.436785278],[0.725739167,47.4367725],[0.725363611,47.436795556],[0.725245833,47.436828889],[0.725158611,47.43687],[0.72506,47.436916389],[0.7205575,47.437158611],[0.720534722,47.437059167],[0.720511944,47.437011111],[0.720468889,47.436966667],[0.720083056,47.436824722],[0.718223889,47.436736944],[0.718132778,47.436714722],[0.717966389,47.436641944],[0.717603611,47.436481944],[0.716462778,47.436153611],[0.716507222,47.436126667],[0.716661667,47.436083889],[0.716703889,47.436072778],[0.716746111,47.436036389],[0.717851944,47.434861667],[0.717860556,47.434798056],[0.717839167,47.434734444],[0.716789167,47.434263889],[0.716720833,47.434261111],[0.716575833,47.434298611],[0.715666389,47.435219444],[0.714953889,47.434952778],[0.7144,47.434701667],[0.715094444,47.433958056],[0.715512222,47.434138056],[0.715595833,47.434148611],[0.715691667,47.434144444],[0.715772222,47.4340775],[0.7158,47.4340125],[0.715756667,47.433943333],[0.715305,47.433750833],[0.715983611,47.433010278],[0.716435556,47.433190278],[0.716540556,47.433190278],[0.716627222,47.433167222],[0.716670556,47.433121389],[0.716673889,47.433056389],[0.716633611,47.432987222],[0.716184722,47.432794167],[0.716865,47.432059722],[0.717282778,47.432241944],[0.717378889,47.432252222],[0.717453056,47.432235556],[0.717518056,47.432210556],[0.718814722,47.430815833],[0.718836389,47.430784444],[0.718833333,47.430734167],[0.7188025,47.430679722],[0.718178611,47.430414444],[0.718132222,47.430410278],[0.718061111,47.430418611],[0.7179775,47.430443889],[0.717878333,47.430523333],[0.717590556,47.430410278],[0.717745278,47.430234444],[0.717398611,47.430085833],[0.71734,47.430087778],[0.717175833,47.430159167],[0.717191389,47.430255278],[0.716953056,47.430336944],[0.716875556,47.430259722],[0.716826111,47.430280556],[0.716711667,47.430152778],[0.717474444,47.429854722],[0.717526944,47.429817222],[0.717626111,47.429722778],[0.717831667,47.429476944],[0.717834722,47.429437222],[0.717822222,47.429382778],[0.717775833,47.429328333],[0.717689167,47.429399444],[0.717398333,47.429401667],[0.717413889,47.429148333],[0.717905833,47.429166944],[0.718011111,47.429150278],[0.718082222,47.429104167],[0.718113333,47.429041389],[0.71811,47.428980833],[0.717816111,47.4287525],[0.718100833,47.428603889],[0.718259722,47.428767222],[0.718204167,47.42883],[0.718262778,47.428903333],[0.718402222,47.428936667],[0.718464167,47.428934722],[0.71856,47.428915833],[0.718594167,47.428890556],[0.718600278,47.428819444],[0.718600278,47.428566111],[0.718953056,47.428561944],[0.718940556,47.428744167],[0.718878889,47.428771389],[0.7188325,47.428783889],[0.718816944,47.428809167],[0.718835556,47.428863611],[0.718909722,47.428903333],[0.718959167,47.428911667],[0.719479444,47.4289075],[0.719538333,47.428903333],[0.719615833,47.428871944],[0.719646667,47.428823611],[0.719755,47.428501389],[0.720089167,47.428549444],[0.720027222,47.428710556],[0.719891111,47.428748333],[0.719878889,47.4288175],[0.719900556,47.428861389],[0.719940556,47.428895],[0.720024167,47.428901111],[0.720476111,47.428888611],[0.720571944,47.428869722],[0.720705,47.428790278],[0.722038611,47.427341111],[0.722060278,47.427282778],[0.7220725,47.427197778],[0.721658611,47.426166667],[0.721606667,47.426112778],[0.721511389,47.426071389],[0.721355,47.426067222],[0.721207778,47.4261025],[0.721048333,47.426177222],[0.720974444,47.426251944],[0.72095,47.426320278],[0.7210525,47.426696667],[0.720356111,47.426844167],[0.720359167,47.426879444],[0.720359167,47.426910556],[0.720343889,47.4269375],[0.719846944,47.427037222],[0.719859167,47.4270725],[0.719481944,47.427143056],[0.7192725,47.426605556],[0.719681389,47.426533611],[0.719277778,47.425488889],[0.720256389,47.4253025],[0.720111111,47.425089167],[0.719456389,47.424877778],[0.718905,47.424863611],[0.718696111,47.424744722],[0.719329167,47.424141944],[0.719683611,47.424221944],[0.719842222,47.424463611],[0.720402778,47.425269167],[0.7204725,47.425258889],[0.720644167,47.425661389],[0.720683611,47.425718889],[0.720735278,47.425751667],[0.7208625,47.425803056],[0.721004722,47.425815278],[0.72112,47.425815278],[0.721198611,47.425806944],[0.721310833,47.425763889],[0.721374444,47.425708611],[0.721410833,47.425645],[0.72142,47.425585556],[0.720579167,47.423498889],[0.7204625,47.4231275],[0.720474722,47.422965556],[0.720529167,47.422799444],[0.720617222,47.422639444],[0.721071944,47.421936944],[0.721859722,47.421803611],[0.722298056,47.421981944],[0.722331389,47.421994167],[0.72238,47.421994167],[0.723719167,47.42174],[0.732106389,47.442609722]]]}},{"type":"Feature","id":"LFOT-826a33f36eac5bd049f4","properties":{"airport":"LFOT","name":"LFOT AVISO","layer":"Terrain","category":"Grass","object_type":"Area","style_id":"polygon.grassurface.00512f","source_group":"LFOT AVISO","vsmr_group_ids":[],"geometry_role":"filled_region"},"geometry":{"type":"Polygon","coordinates":[[[0.720759444,47.423324444],[0.720714167,47.423178333],[0.720701389,47.423040833],[0.720711111,47.422920833],[0.720778889,47.422785556],[0.720926944,47.422608889],[0.721120556,47.422458333],[0.7213625,47.422349167],[0.721571944,47.422301111],[0.722339444,47.422161667],[0.722594167,47.422152778],[0.7228875,47.422192222],[0.723213333,47.422305556],[0.723335833,47.422373056],[0.725213889,47.427055278],[0.725217222,47.427188611],[0.725179167,47.427339167],[0.725131389,47.427418611],[0.724705556,47.427873889],[0.72461,47.427931944],[0.724533889,47.427949167],[0.722669444,47.428101667],[0.720759444,47.423324444]]]}},{"type":"Feature","id":"LFOT-1f0c85369f7758386dd4","properties":{"airport":"LFOT","name":"LFOT AVISO","layer":"Terrain","category":"Grass","object_type":"Area","style_id":"polygon.grassurface.00512f","source_group":"LFOT AVISO","vsmr_group_ids":[],"geometry_role":"filled_region"},"geometry":{"type":"Polygon","coordinates":[[[0.719109444,47.436688611],[0.718499444,47.436433056],[0.717915556,47.436435556],[0.717735833,47.436395],[0.717631111,47.436311389],[0.717586111,47.436225278],[0.7175825,47.436136667],[0.717638611,47.436035556],[0.722142222,47.431266667],[0.722588611,47.431463056],[0.7228275,47.431173611],[0.722961667,47.431076111],[0.723086111,47.431045833],[0.723385833,47.431011944],[0.723499722,47.431028889],[0.723601111,47.431068889],[0.723645833,47.431104167],[0.723665556,47.431140833],[0.725795278,47.436426667],[0.724796944,47.436448056],[0.724643056,47.436340556],[0.723657222,47.436376389],[0.723360556,47.436512778],[0.720313611,47.436706389],[0.720165278,47.43671],[0.719109444,47.436688611]]]}},{"type":"Feature","id":"LFOT-e9506c0457b50b4f42c2","properties":{"airport":"LFOT","name":"LFOT AVISO","layer":"Terrain","category":"Grass","object_type":"Area","style_id":"polygon.grassurface.00512f","source_group":"LFOT AVISO","vsmr_group_ids":[],"geometry_role":"filled_region"},"geometry":{"type":"Polygon","coordinates":[[[0.722186389,47.427476111],[0.722443611,47.4281275],[0.722424722,47.428159722],[0.722389722,47.428168333],[0.722148333,47.428191944],[0.721605,47.428245833],[0.721423889,47.428271667],[0.722186389,47.427476111]]]}},{"type":"Feature","id":"LFOT-375345d2d9d6a3a273e4","properties":{"airport":"LFOT","name":"LFOT AVISO","layer":"Terrain","category":"Grass","object_type":"Area","style_id":"polygon.grassurface.00512f","source_group":"LFOT AVISO","vsmr_group_ids":[],"geometry_role":"filled_region"},"geometry":{"type":"Polygon","coordinates":[[[0.723733889,47.428155556],[0.723870278,47.428187778],[0.724064167,47.42825],[0.724124722,47.428297222],[0.724162778,47.428383333],[0.724156389,47.42848],[0.723730556,47.428931389],[0.723578056,47.429060556],[0.723473333,47.429079722],[0.723301667,47.429075556],[0.723165,47.429036667],[0.722987222,47.428916389],[0.722732778,47.428247778],[0.723733889,47.428155556]]]}},{"type":"Feature","id":"LFOT-09f23dc17343ad2169ce","properties":{"airport":"LFOT","name":"LFOT AVISO","layer":"Terrain","category":"Grass","object_type":"Area","style_id":"polygon.grassurface.00512f","source_group":"LFOT AVISO","vsmr_group_ids":[],"geometry_role":"filled_region"},"geometry":{"type":"Polygon","coordinates":[[[0.720974722,47.428765],[0.721303056,47.428416667],[0.721368611,47.428379167],[0.7215,47.428344167],[0.722277222,47.428278889],[0.722398333,47.4282975],[0.722526111,47.428339444],[0.722584722,47.428381667],[0.7226125,47.428433056],[0.722969722,47.429384444],[0.722959444,47.429538611],[0.722876389,47.429800556],[0.722769444,47.429947778],[0.722627778,47.430106667],[0.721674167,47.431115556],[0.721558611,47.431158611],[0.721454722,47.431189722],[0.721342222,47.431195556],[0.721189167,47.431170278],[0.719961111,47.430631111],[0.72148,47.428978889],[0.720974722,47.428765]]]}},{"type":"Feature","id":"LFOT-a8ff7f91bf76542e53f6","properties":{"airport":"LFOT","name":"LFOT AVISO","layer":"Terrain","category":"Grass","object_type":"Area","style_id":"polygon.grassurface.00512f","source_group":"LFOT AVISO","vsmr_group_ids":[],"geometry_role":"filled_region"},"geometry":{"type":"Polygon","coordinates":[[[0.7199725,47.430770833],[0.721133889,47.431291944],[0.721306111,47.431333333],[0.721481111,47.431323333],[0.72102,47.4318525],[0.720993889,47.431868333],[0.720961667,47.431872222],[0.7195375,47.431307778],[0.719490833,47.43128],[0.719470556,47.431203056],[0.719488056,47.431135833],[0.719800278,47.430808333],[0.7199725,47.430770833]]]}},{"type":"Feature","id":"LFOT-72d24271cd3ba3dcc997","properties":{"airport":"LFOT","name":"LFOT AVISO","layer":"Terrain","category":"Grass","object_type":"Area","style_id":"polygon.grassurface.00512f","source_group":"LFOT AVISO","vsmr_group_ids":[],"geometry_role":"filled_region"},"geometry":{"type":"Polygon","coordinates":[[[0.722788611,47.430161944],[0.722879444,47.430121944],[0.722943333,47.430106944],[0.723051389,47.430106944],[0.723137222,47.430123611],[0.723245278,47.430158611],[0.723296667,47.430225],[0.723463611,47.430618611],[0.723468611,47.430685],[0.723448889,47.430769722],[0.723377778,47.4308625],[0.723306667,47.430900833],[0.723206111,47.430920833],[0.723066111,47.430920833],[0.722543333,47.430714722],[0.722503889,47.430656667],[0.722481944,47.430596944],[0.722476944,47.430540556],[0.722486667,47.430495556],[0.722788611,47.430161944]]]}},{"type":"Feature","id":"LFOT-39507186bb00bf33c4ac","properties":{"airport":"LFOT","name":"LFOT AVISO","layer":"Terrain","category":"Grass","object_type":"Area","style_id":"polygon.grassurface.00512f","source_group":"LFOT AVISO","vsmr_group_ids":[],"geometry_role":"filled_region"},"geometry":{"type":"Polygon","coordinates":[[[0.718361389,47.429974722],[0.718356667,47.42983],[0.717929167,47.429839722],[0.717886667,47.429826667],[0.717848611,47.429785],[0.717881944,47.429720833],[0.718366111,47.429193889],[0.718423333,47.429148889],[0.718485,47.429123333],[0.718551389,47.429123333],[0.718693889,47.429171389],[0.718879167,47.429354444],[0.719159444,47.429248611],[0.719055,47.429113611],[0.719040556,47.429075],[0.719107222,47.429049444],[0.720351389,47.429036389],[0.720394167,47.429046111],[0.720408333,47.429071667],[0.720413056,47.429116667],[0.719126111,47.430511111],[0.719069167,47.430543333],[0.718969444,47.430556111],[0.718888611,47.430546389],[0.717801111,47.430093333],[0.717767778,47.430061389],[0.717767778,47.430022778],[0.717801111,47.429984167],[0.718361389,47.429974722]]]}},{"type":"Feature","id":"LFOT-f6eba2edc7ddd7a1699c","properties":{"airport":"LFOT","name":"LFOT AVISO","layer":"Terrain","category":"Grass","object_type":"Area","style_id":"polygon.grassurface.00512f","source_group":"LFOT AVISO","vsmr_group_ids":[],"geometry_role":"filled_region"},"geometry":{"type":"Polygon","coordinates":[[[0.7234175,47.429970833],[0.723336111,47.429781389],[0.723341111,47.429674722],[0.723386944,47.429591944],[0.724809167,47.428065556],[0.725063611,47.427869167],[0.725318056,47.427851944],[0.725486111,47.427865833],[0.725628611,47.427924444],[0.725694722,47.428134444],[0.728518611,47.435260556],[0.728498333,47.435491111],[0.728350556,47.435656389],[0.728116389,47.435756389],[0.7276225,47.435883889],[0.726971111,47.435921667],[0.726105278,47.435990556],[0.725962778,47.435980278],[0.725860833,47.435921667],[0.725794722,47.435890833],[0.7234175,47.429970833]]]}},{"type":"Feature","id":"LFOT-6d0f52c4bee53f9ab2bc","properties":{"airport":"LFOT","name":"LFOT AVISO","layer":"Terrain","category":"Grass","object_type":"Area","style_id":"polygon.grassurface.00512f","source_group":"LFOT AVISO","vsmr_group_ids":[],"geometry_role":"filled_region"},"geometry":{"type":"Polygon","coordinates":[[[0.726076389,47.4366175],[0.726056111,47.436496944],[0.726112222,47.436345556],[0.726234167,47.436211111],[0.726397222,47.436128333],[0.727659722,47.436000833],[0.727934722,47.435959722],[0.728148333,47.435894167],[0.728316389,47.435835556],[0.728469167,47.435804722],[0.728586111,47.435804722],[0.728738889,47.435849444],[0.728815278,47.435959444],[0.731317222,47.442179444],[0.731225556,47.442368889],[0.731016944,47.442555],[0.730808056,47.442668611],[0.73008,47.442813333],[0.729688056,47.442878611],[0.729367222,47.442871944],[0.7291075,47.442827222],[0.728863056,47.442727222],[0.728578056,47.442565556],[0.728435556,47.442434722],[0.726076389,47.4366175]]]}},{"type":"Feature","id":"LFOT-6088422d0bf02cec918f","properties":{"airport":"LFOT","name":"LFOT AVISO","layer":"Buildings and structures","category":"Buildings","object_type":"Area","style_id":"polygon.building.394446","source_group":"LFOT AVISO","vsmr_group_ids":[],"geometry_role":"filled_region"},"geometry":{"type":"Polygon","coordinates":[[[0.71889,47.424095278],[0.719119444,47.424211111],[0.718773889,47.424551667],[0.718531389,47.424437778],[0.71889,47.424095278]]]}},{"type":"Feature","id":"LFOT-e89d4f6d1bfd1ae008b6","properties":{"airport":"LFOT","name":"LFOT AVISO","layer":"Buildings and structures","category":"Buildings","object_type":"Area","style_id":"polygon.building.394446","source_group":"LFOT AVISO","vsmr_group_ids":[],"geometry_role":"filled_region"},"geometry":{"type":"Polygon","coordinates":[[[0.718209722,47.424798056],[0.71836,47.424633889],[0.7186,47.424740833],[0.718444444,47.424897778],[0.718209722,47.424798056]]]}},{"type":"Feature","id":"LFOT-67172b126a62a1b1e58e","properties":{"airport":"LFOT","name":"LFOT AVISO","layer":"Buildings and structures","category":"Buildings","object_type":"Area","style_id":"polygon.building.394446","source_group":"LFOT AVISO","vsmr_group_ids":[],"geometry_role":"filled_region"},"geometry":{"type":"Polygon","coordinates":[[[0.718541944,47.424493056],[0.718702778,47.424569722],[0.718573611,47.424703333],[0.718420556,47.424623056],[0.718541944,47.424493056]]]}},{"type":"Feature","id":"LFOT-f213b35aaef214a2a6e2","properties":{"airport":"LFOT","name":"LFOT AVISO","layer":"Buildings and structures","category":"Buildings","object_type":"Area","style_id":"polygon.building.394446","source_group":"LFOT AVISO","vsmr_group_ids":[],"geometry_role":"filled_region"},"geometry":{"type":"Polygon","coordinates":[[[0.719128611,47.426276111],[0.718900278,47.425687222],[0.719155556,47.425645278],[0.719341389,47.426174167],[0.71926,47.426184444],[0.719275556,47.426242222],[0.719128611,47.426276111]]]}},{"type":"Feature","id":"LFOT-20191d45d46adfebefaa","properties":{"airport":"LFOT","name":"LFOT AVISO","layer":"Buildings and structures","category":"Buildings","object_type":"Area","style_id":"polygon.building.394446","source_group":"LFOT AVISO","vsmr_group_ids":[],"geometry_role":"filled_region"},"geometry":{"type":"Polygon","coordinates":[[[0.718887778,47.425608333],[0.718788611,47.425413889],[0.718863611,47.425399167],[0.718855556,47.425373889],[0.719110833,47.425335556],[0.719153889,47.425490278],[0.719049167,47.42551],[0.719065278,47.425548333],[0.7190275,47.425553611],[0.719030278,47.425582778],[0.718887778,47.425608333]]]}},{"type":"Feature","id":"LFOT-d6837f583ef9036879a9","properties":{"airport":"LFOT","name":"LFOT AVISO","layer":"Buildings and structures","category":"Buildings","object_type":"Area","style_id":"polygon.building.394446","source_group":"LFOT AVISO","vsmr_group_ids":[],"geometry_role":"filled_region"},"geometry":{"type":"Polygon","coordinates":[[[0.719123889,47.427233889],[0.718908056,47.426665278],[0.719248889,47.426610556],[0.719478333,47.42717],[0.719123889,47.427233889]]]}},{"type":"Feature","id":"LFOT-29ffbd3dfc23cc4cdf8d","properties":{"airport":"LFOT","name":"LFOT AVISO","layer":"Buildings and structures","category":"Buildings","object_type":"Area","style_id":"polygon.building.394446","source_group":"LFOT AVISO","vsmr_group_ids":[],"geometry_role":"filled_region"},"geometry":{"type":"Polygon","coordinates":[[[0.718948611,47.426567222],[0.718901389,47.426430278],[0.719373611,47.426345556],[0.719400833,47.426436944],[0.719205,47.426478056],[0.719215,47.426519167],[0.718948611,47.426567222]]]}},{"type":"Feature","id":"LFOT-cc1b0cca4d6289db3008","properties":{"airport":"LFOT","name":"LFOT AVISO","layer":"Buildings and structures","category":"Buildings","object_type":"Area","style_id":"polygon.building.394446","source_group":"LFOT AVISO","vsmr_group_ids":[],"geometry_role":"filled_region"},"geometry":{"type":"Polygon","coordinates":[[[0.717724167,47.430436111],[0.717872222,47.430490556],[0.717616667,47.430748333],[0.717486667,47.430696944],[0.717724167,47.430436111]]]}},{"type":"Feature","id":"LFOT-f2eff5195a30b7467d7f","properties":{"airport":"LFOT","name":"LFOT AVISO","layer":"Buildings and structures","category":"Buildings","object_type":"Area","style_id":"polygon.building.394446","source_group":"LFOT AVISO","vsmr_group_ids":[],"geometry_role":"filled_region"},"geometry":{"type":"Polygon","coordinates":[[[0.716500833,47.430411944],[0.7164025,47.4302875],[0.716801111,47.430145],[0.716917778,47.4302725],[0.716500833,47.430411944]]]}},{"type":"Feature","id":"LFOT-64ee21273ba435f21428","properties":{"airport":"LFOT","name":"LFOT AVISO","layer":"Buildings and structures","category":"Buildings","object_type":"Area","style_id":"polygon.building.394446","source_group":"LFOT AVISO","vsmr_group_ids":[],"geometry_role":"filled_region"},"geometry":{"type":"Polygon","coordinates":[[[0.717029722,47.429287222],[0.717029722,47.429132778],[0.717482222,47.429153889],[0.717468889,47.429296389],[0.717029722,47.429287222]]]}},{"type":"Feature","id":"LFOT-177839c974613794ac91","properties":{"airport":"LFOT","name":"LFOT AVISO","layer":"Buildings and structures","category":"Buildings","object_type":"Area","style_id":"polygon.building.394446","source_group":"LFOT AVISO","vsmr_group_ids":[],"geometry_role":"filled_region"},"geometry":{"type":"Polygon","coordinates":[[[0.7183425,47.429975278],[0.7183425,47.429814722],[0.718898333,47.429826944],[0.718880278,47.429981389],[0.7183425,47.429975278]]]}},{"type":"Feature","id":"LFOT-a14fd1c668b4108b21ce","properties":{"airport":"LFOT","name":"LFOT AVISO","layer":"Buildings and structures","category":"Buildings","object_type":"Area","style_id":"polygon.building.394446","source_group":"LFOT AVISO","vsmr_group_ids":[],"geometry_role":"filled_region"},"geometry":{"type":"Polygon","coordinates":[[[0.718889167,47.429363056],[0.719050556,47.429278333],[0.719310556,47.429523611],[0.719135833,47.429608611],[0.718889167,47.429363056]]]}},{"type":"Feature","id":"LFOT-2822f166a6c09a42cab7","properties":{"airport":"LFOT","name":"LFOT AVISO","layer":"Buildings and structures","category":"Buildings","object_type":"Area","style_id":"polygon.building.394446","source_group":"LFOT AVISO","vsmr_group_ids":[],"geometry_role":"filled_region"},"geometry":{"type":"Polygon","coordinates":[[[0.717500278,47.428505278],[0.717688333,47.428393056],[0.717993056,47.428665833],[0.717836389,47.428771944],[0.717500278,47.428505278]]]}},{"type":"Feature","id":"LFOT-56844acf060c568b8731","properties":{"airport":"LFOT","name":"LFOT AVISO","layer":"Buildings and structures","category":"Buildings","object_type":"Area","style_id":"polygon.building.394446","source_group":"LFOT AVISO","vsmr_group_ids":[],"geometry_role":"filled_region"},"geometry":{"type":"Polygon","coordinates":[[[0.718557778,47.428217222],[0.7188175,47.428208056],[0.718848889,47.428568889],[0.718593611,47.428575],[0.718557778,47.428217222]]]}},{"type":"Feature","id":"LFOT-74f4ba49ea071d23c17f","properties":{"airport":"LFOT","name":"LFOT AVISO","layer":"Buildings and structures","category":"Buildings","object_type":"Area","style_id":"polygon.building.394446","source_group":"LFOT AVISO","vsmr_group_ids":[],"geometry_role":"filled_region"},"geometry":{"type":"Polygon","coordinates":[[[0.719879444,47.428153611],[0.720099167,47.42819],[0.719946667,47.428544722],[0.719758611,47.428517222],[0.719879444,47.428153611]]]}},{"type":"Feature","id":"LFOT-eecc9b14c188deec3eeb","properties":{"airport":"LFOT","name":"LFOT AVISO","layer":"Buildings and structures","category":"Buildings","object_type":"Area","style_id":"polygon.building.394446","source_group":"LFOT AVISO","vsmr_group_ids":[],"geometry_role":"filled_region"},"geometry":{"type":"Polygon","coordinates":[[[0.714475556,47.433697778],[0.715083333,47.433971944],[0.714403611,47.434683333],[0.713861389,47.434444722],[0.714475556,47.433697778]]]}},{"type":"Feature","id":"LFOT-a4d62faae551ca0ef39c","properties":{"airport":"LFOT","name":"LFOT AVISO","layer":"Buildings and structures","category":"Buildings","object_type":"Area","style_id":"polygon.building.394446","source_group":"LFOT AVISO","vsmr_group_ids":[],"geometry_role":"filled_region"},"geometry":{"type":"Polygon","coordinates":[[[0.715429444,47.432756667],[0.715978333,47.433004167],[0.715298889,47.433750833],[0.714723889,47.433512222],[0.715429444,47.432756667]]]}},{"type":"Feature","id":"LFOT-29e7fb5c7c7c6bf89b7e","properties":{"airport":"LFOT","name":"LFOT AVISO","layer":"Buildings and structures","category":"Buildings","object_type":"Area","style_id":"polygon.building.394446","source_group":"LFOT AVISO","vsmr_group_ids":[],"geometry_role":"filled_region"},"geometry":{"type":"Polygon","coordinates":[[[0.716272222,47.431806389],[0.716873333,47.432040833],[0.716174167,47.432774167],[0.715618889,47.432553333],[0.716272222,47.431806389]]]}},{"type":"Feature","id":"LFOT-c34078805fb32a3c5e83","properties":{"airport":"LFOT","name":"LFOT AVISO","layer":"Buildings and structures","category":"Buildings","object_type":"Area","style_id":"polygon.building.394446","source_group":"LFOT AVISO","vsmr_group_ids":[],"geometry_role":"filled_region"},"geometry":{"type":"Polygon","coordinates":[[[0.720668333,47.437769444],[0.7206125,47.437144722],[0.721486111,47.437095556],[0.721569722,47.437735556],[0.720668333,47.437769444]]]}},{"type":"Feature","id":"LFOT-f546dc1f65d784f7283c","properties":{"airport":"LFOT","name":"LFOT AVISO","layer":"Buildings and structures","category":"Buildings","object_type":"Area","style_id":"polygon.building.394446","source_group":"LFOT AVISO","vsmr_group_ids":[],"geometry_role":"filled_region"},"geometry":{"type":"Polygon","coordinates":[[[0.721959167,47.437697778],[0.721881111,47.437065556],[0.722832778,47.437020278],[0.722893889,47.437663889],[0.721959167,47.437697778]]]}},{"type":"Feature","id":"LFOT-5da5b9efbc7be1882e16","properties":{"airport":"LFOT","name":"LFOT AVISO","layer":"Buildings and structures","category":"Buildings","object_type":"Area","style_id":"polygon.building.394446","source_group":"LFOT AVISO","vsmr_group_ids":[],"geometry_role":"filled_region"},"geometry":{"type":"Polygon","coordinates":[[[0.723233333,47.437641389],[0.723161111,47.437001667],[0.724084722,47.436948889],[0.724168333,47.437588611],[0.723233333,47.437641389]]]}},{"type":"Feature","id":"LFOT-ad47450339e7e9885464","properties":{"airport":"LFOT","name":"LFOT AVISO","layer":"Buildings and structures","category":"Buildings","object_type":"Area","style_id":"polygon.building.394446","source_group":"LFOT AVISO","vsmr_group_ids":[],"geometry_role":"filled_region"},"geometry":{"type":"Polygon","coordinates":[[[0.727071667,47.443061667],[0.727164722,47.442900833],[0.727518056,47.442998889],[0.727428889,47.443165],[0.727071667,47.443061667]]]}},{"type":"Feature","id":"LFOT-f014a2f2b98c5853cd12","properties":{"airport":"LFOT","name":"LFOT AVISO","layer":"Buildings and structures","category":"Buildings","object_type":"Area","style_id":"polygon.building.394446","source_group":"LFOT AVISO","vsmr_group_ids":[],"geometry_role":"filled_region"},"geometry":{"type":"Polygon","coordinates":[[[0.727395278,47.442465556],[0.727767222,47.442568611],[0.727681667,47.442719722],[0.727302222,47.442636667],[0.727395278,47.442465556]]]}},{"type":"Feature","id":"LFOT-7e178417648e16439615","properties":{"airport":"LFOT","name":"LFOT Groundlayout AVISO","layer":"Guidance lines","category":"Stopbars","object_type":"Line","style_id":"line.stopbar.7e0000","source_group":"LFOT Groundlayout AVISO","vsmr_group_ids":[],"geometry_role":"linework"},"geometry":{"type":"MultiLineString","coordinates":[[[0.722307222,47.422173333],[0.722228056,47.421955]],[[0.724635278,47.427904167],[0.724737778,47.428144722]],[[0.727072222,47.4359225],[0.7271025,47.436053056]],[[0.730560833,47.442706667],[0.730621389,47.4428575]]]}},{"type":"Feature","id":"LFOT-cff13c5829f1a62b0f2b","properties":{"airport":"LFOT","name":"LFOT Groundlayout","layer":"Guidance lines","category":"Taxiway Border","object_type":"Line","style_id":"line.taxiwayborder.0000ff","source_group":"LFOT Groundlayout","vsmr_group_ids":[],"geometry_role":"linework"},"geometry":{"type":"MultiLineString","coordinates":[[[0.72325,47.422166667],[0.722861111,47.42225]],[[0.72275,47.422],[0.720583333,47.422388889]],[[0.722861111,47.42225],[0.720833333,47.422638889]],[[0.720583333,47.422388889],[0.720194444,47.422777778]],[[0.720833333,47.422638889],[0.720638889,47.422833333]],[[0.720194444,47.422777778],[0.721055556,47.424861111]],[[0.720638889,47.422833333],[0.7215,47.424916667]],[[0.721166667,47.425138889],[0.722277778,47.427888889]],[[0.7215,47.424916667],[0.722694444,47.427861111]],[[0.722444444,47.428277778],[0.722583333,47.428611111]],[[0.722694444,47.427861111],[0.722972222,47.428527778]],[[0.722694444,47.428861111],[0.723722222,47.431361111]],[[0.723083333,47.428777778],[0.724166667,47.431416667]],[[0.723833333,47.431611111],[0.724194444,47.4325]],[[0.724166667,47.431416667],[0.724527778,47.432305556]],[[0.724194444,47.4325],[0.725666667,47.436111111]],[[0.724638889,47.432555556],[0.726,47.435916667]],[[0.725666667,47.436111111],[0.728472222,47.442916667]],[[0.726111111,47.436166667],[0.728805556,47.442722222]],[[0.728472222,47.442916667],[0.72925,47.443138889]],[[0.728805556,47.442722222],[0.72925,47.442833333]],[[0.72925,47.443138889],[0.731111111,47.442722222]],[[0.72925,47.442833333],[0.731,47.442472222]],[[0.731111111,47.442722222],[0.7315,47.442638889]],[[0.731,47.442472222],[0.731388889,47.442388889]],[[0.724638889,47.432555556],[0.726833333,47.432083333]],[[0.724527778,47.432305556],[0.726722222,47.431833333]],[[0.726833333,47.432083333],[0.727222222,47.432]],[[0.726722222,47.431833333],[0.727111111,47.43175]],[[0.726111111,47.436166667],[0.728277778,47.435694444]],[[0.726,47.435916667],[0.728166667,47.435444444]],[[0.728277778,47.435694444],[0.728666667,47.435611111]],[[0.728166667,47.435444444],[0.728555556,47.435361111]],[[0.722277778,47.427888889],[0.721555556,47.428861111]],[[0.722444444,47.428277778],[0.722138889,47.428694444]],[[0.721555556,47.428861111],[0.721083333,47.429555556]],[[0.721888889,47.429027778],[0.721305556,47.429805556]],[[0.721083333,47.429555556],[0.718944444,47.429555556]],[[0.721305556,47.429805556],[0.719194444,47.429833333]],[[0.718944444,47.429555556],[0.717861111,47.431083333]],[[0.719194444,47.429833333],[0.718416667,47.430944444]],[[0.717861111,47.431083333],[0.719805556,47.431722222]],[[0.718416667,47.430944444],[0.719972222,47.431472222]],[[0.719805556,47.431722222],[0.719972222,47.431472222]],[[0.724222222,47.42825],[0.722972222,47.428527778]],[[0.724361111,47.4285],[0.723083333,47.428777778]],[[0.724222222,47.42825],[0.724361111,47.4285]],[[0.722583333,47.428611111],[0.722138889,47.428694444]],[[0.722694444,47.428861111],[0.721888889,47.429027778]],[[0.723722222,47.431361111],[0.723083333,47.4315]],[[0.723833333,47.431611111],[0.723388889,47.431722222]],[[0.723083333,47.4315],[0.719722222,47.436444444]],[[0.723388889,47.431722222],[0.720083333,47.436555556]],[[0.719722222,47.436444444],[0.720083333,47.436555556]],[[0.721055556,47.424861111],[0.720305556,47.425027778]],[[0.721166667,47.425138889],[0.720416667,47.425277778]],[[0.720305556,47.425027778],[0.720416667,47.425277778]]]}},{"type":"Feature","id":"LFOT-3a91ad6ecbe55867f8d6","properties":{"airport":"LFOT","name":"LFOT Groundlayout","layer":"Guidance lines","category":"Runways","object_type":"Line","style_id":"line.runwayconcrete.555555","source_group":"LFOT Groundlayout","vsmr_group_ids":[],"geometry_role":"linework"},"geometry":{"type":"MultiLineString","coordinates":[[[0.731916667,47.440222222],[0.726694444,47.427222222]],[[0.731166667,47.440361111],[0.725916667,47.427361111]],[[0.731916667,47.440222222],[0.731166667,47.440361111]],[[0.726694444,47.427222222],[0.725916667,47.427361111]],[[0.7325,47.443611111],[0.732027778,47.442388889]],[[0.731944444,47.443722222],[0.7315,47.442638889]],[[0.7325,47.443611111],[0.731944444,47.443722222]],[[0.732027778,47.442388889],[0.729194444,47.435361111]],[[0.731388889,47.442388889],[0.728666667,47.435611111]],[[0.729194444,47.435361111],[0.727722222,47.431777778]],[[0.728555556,47.435361111],[0.727222222,47.432]],[[0.727722222,47.431777778],[0.723777778,47.421944444]],[[0.727111111,47.43175],[0.72325,47.422166667]],[[0.723777778,47.421944444],[0.722666667,47.419194444]],[[0.723138889,47.421916667],[0.722083333,47.419305556]],[[0.722666667,47.419194444],[0.722083333,47.419305556]]]}},{"type":"Feature","id":"LFOT-cf4278f0725aac3fbd49","properties":{"airport":"LFOT","name":"LFOT Groundlayout","layer":"Guidance lines","category":"Landmark 3","object_type":"Line","style_id":"line.landmark3.7e7e7e","source_group":"LFOT Groundlayout","vsmr_group_ids":[],"geometry_role":"linework"},"geometry":{"type":"MultiLineString","coordinates":[[[0.720555556,47.436888889],[0.725916667,47.436222222],[0.726138889,47.43675],[0.721305556,47.437388889],[0.72125,47.437194444],[0.720444444,47.437111111],[0.718444444,47.436416667],[0.719222222,47.435277778],[0.717833333,47.434861111],[0.717388889,47.435472222],[0.717,47.435361111],[0.716722222,47.435722222],[0.716361111,47.435611111],[0.716638889,47.435222222],[0.716083333,47.435055556],[0.717777778,47.432666667],[0.718722222,47.432972222],[0.721166667,47.429444444],[0.721888889,47.429722222],[0.720472222,47.431888889],[0.721472222,47.432194444],[0.725222222,47.426638889],[0.7255,47.427388889],[0.719527778,47.436083333],[0.719916667,47.436277778],[0.720333333,47.436805556]],[[0.720555556,47.436888889],[0.720333333,47.436805556]],[[0.718694444,47.424777778],[0.720194444,47.424444444],[0.720777778,47.42575],[0.71975,47.42625],[0.719944444,47.42675],[0.719555556,47.426833333]],[[0.718694444,47.424777778],[0.719555556,47.426833333]],[[0.720694444,47.431361111],[0.721888889,47.43175],[0.722083333,47.4315],[0.720833333,47.431111111]],[[0.720694444,47.431361111],[0.720833333,47.431111111]]]}}]}
