{"type":"FeatureCollection","name":"LFPM AVISO","bbox":[0.902518333,48.155664722,3.681878611,49.096201111],"metadata":{"schema":"vSMR AVISO","schema_version":2,"geometry_mode":"shared","airport":"LFPM","coordinate_reference_system":"WGS84","coordinate_order":"longitude, latitude","default_color_palette":"dark","color_palettes":["dark","light"],"background_colors":{"dark":"#434A4F","light":"#434A4F"},"runways":[{"ends":["10","28"],"headings":[103,283],"thresholds":[[2.663285833,48.606477778],[2.688205833,48.602507778]]},{"ends":["01","19"],"headings":[12,192],"thresholds":[[2.671077778,48.606163889],[2.674974722,48.617582778]]}],"saved_active_runways":[],"saved_active_airport_modes":[],"airport_reference":[2.670832778,48.605277778],"feature_count":64,"style_count":8,"layer_counts":{"Airfield surfaces":2,"Buildings and structures":12,"Guidance lines":1,"Labels":43,"Terrain":6},"category_counts":{"Buildings":12,"Gates":11,"Grass":6,"Hard Surface 2":2,"Seine Airspace Information":13,"Stopbars":1,"Taxiways":19},"geometry_source":"local GNG","geometry_source_url":"","geometry_license":"GPL-3.0"},"styles":{"label.gates":{"name":"Gates","layer":"Labels","object_type":"Label","paint":{"text-color":"#CCCCCC","text-font":"Arial","text-size":12,"text-halo-color":"#000000","text-halo-width":1,"text-anchor":"center","zoomLevel":9},"feature_count":11},"label.taxiways":{"name":"Taxiways","layer":"Labels","object_type":"Label","paint":{"text-color":"#CCCCCC","text-font":"Arial","text-size":12,"text-halo-color":"#000000","text-halo-width":1,"text-anchor":"center","zoomLevel":7},"feature_count":19},"polygon.terrain2.868686":{"name":"Hard Surface 2","layer":"Airfield surfaces","object_type":"Area","paint":{"fill":"#2F3949","fill-opacity":1,"palette-overrides":{"light":{"fill":"#595E5B"}}},"feature_count":1},"polygon.hardsurface2.595e5b":{"name":"Hard Surface 2","layer":"Airfield surfaces","object_type":"Area","paint":{"fill":"#2F3949","fill-opacity":1,"palette-overrides":{"light":{"fill":"#595E5B"}}},"feature_count":1},"polygon.grassurface.00512f":{"name":"Grass","layer":"Terrain","object_type":"Area","paint":{"fill":"#010D19","fill-opacity":1,"palette-overrides":{"light":{"fill":"#00512F"}}},"feature_count":6},"polygon.building.394446":{"name":"Buildings","layer":"Buildings and structures","object_type":"Area","paint":{"fill":"#475570","fill-opacity":1,"palette-overrides":{"light":{"fill":"#394446"}}},"feature_count":12},"line.stopbar.7e0000":{"name":"Stopbars","layer":"Guidance lines","object_type":"Line","paint":{"stroke":"#7E0000","stroke-opacity":1,"stroke-width":1,"palette-overrides":{"light":{"stroke":"#7E0000"}}},"feature_count":1},"label.seine-airspace-information":{"name":"Seine Airspace Information","layer":"Labels","object_type":"Label","paint":{"text-color":"#CCCCCC","text-font":"Arial","text-size":12,"text-halo-color":"#000000","text-halo-width":1,"text-anchor":"center","zoomLevel":7},"feature_count":13}},"vsmr_groups":[],"features":[{"type":"Feature","id":"LFPM-c286dc9d1741a8cca122","properties":{"airport":"LFPM","name":"LFPM AVISO","layer":"Airfield surfaces","category":"Hard Surface 2","object_type":"Area","style_id":"polygon.terrain2.868686","source_group":"LFPM AVISO","vsmr_group_ids":[],"geometry_role":"filled_region"},"geometry":{"type":"Polygon","coordinates":[[[2.607480833,48.675873611],[2.536459722,48.565936667],[2.790048333,48.5173275],[2.825969722,48.641341667],[2.607480833,48.675873611]]]}},{"type":"Feature","id":"LFPM-6f708787c8ae9bccfab9","properties":{"airport":"LFPM","name":"LFPM AVISO","layer":"Airfield surfaces","category":"Hard Surface 2","object_type":"Area","style_id":"polygon.hardsurface2.595e5b","source_group":"LFPM AVISO","vsmr_group_ids":[],"geometry_role":"filled_region"},"geometry":{"type":"Polygon","coordinates":[[[2.663390278,48.606771667],[2.663176389,48.606214722],[2.689213333,48.602080556],[2.689749444,48.603509167],[2.689785278,48.604213611],[2.6897025,48.604691111],[2.689625556,48.6048125],[2.689519167,48.604883056],[2.682216944,48.6080225],[2.682057222,48.608147778],[2.68172,48.608586111],[2.681350833,48.609205833],[2.681360556,48.609851111],[2.680837222,48.610013333],[2.680733333,48.6098575],[2.680059444,48.610119444],[2.679955556,48.610007222],[2.680639167,48.609729722],[2.680521389,48.609620556],[2.680808889,48.609558333],[2.680672222,48.60939],[2.679965,48.609564444],[2.679818889,48.6093275],[2.680681389,48.609171667],[2.680714444,48.6091375],[2.680700278,48.6091],[2.680634444,48.609056389],[2.675710556,48.607439167],[2.675526667,48.607408056],[2.675215556,48.607433056],[2.672806944,48.6078275],[2.672326111,48.607945833],[2.672128056,48.608123611],[2.672090278,48.608235833],[2.672085833,48.608369722],[2.674003056,48.614137778],[2.67417,48.614248056],[2.674295,48.614306667],[2.674467222,48.614316944],[2.679962778,48.614245556],[2.6799575,48.614355833],[2.674438611,48.614427778],[2.674303056,48.614503611],[2.674203889,48.614613889],[2.674214444,48.614679444],[2.675213889,48.617556667],[2.674760278,48.617625556],[2.673758889,48.614676667],[2.673612778,48.6145525],[2.673498056,48.6145075],[2.673367778,48.614490278],[2.669323333,48.614548889],[2.669083611,48.6146075],[2.668979167,48.614700556],[2.668942778,48.61478],[2.668942778,48.614866111],[2.669326111,48.6159125],[2.667613333,48.616259722],[2.666263333,48.612178056],[2.665840833,48.612236667],[2.665679167,48.611785],[2.66618,48.611719444],[2.665898333,48.610902222],[2.666185278,48.6108575],[2.666289444,48.611209167],[2.667134444,48.611091944],[2.667249167,48.611043611],[2.667264722,48.610991944],[2.667243889,48.610878333],[2.666983333,48.610130278],[2.66686,48.610019167],[2.666599167,48.609984722],[2.664158611,48.610370833],[2.664398611,48.610970833],[2.663553611,48.611088056],[2.663355556,48.610491389],[2.660208056,48.611011389],[2.660156111,48.610854167],[2.666521389,48.609851667],[2.666640278,48.6098025],[2.666781667,48.609630556],[2.666774167,48.609468333],[2.665864167,48.606772778],[2.665715556,48.606610556],[2.665515,48.606487778],[2.665262222,48.606463056],[2.663390278,48.606771667]]]}},{"type":"Feature","id":"LFPM-e23742d3a7da68681e3c","properties":{"airport":"LFPM","name":"LFPM AVISO","layer":"Terrain","category":"Grass","object_type":"Area","style_id":"polygon.grassurface.00512f","source_group":"LFPM AVISO","vsmr_group_ids":[],"geometry_role":"filled_region"},"geometry":{"type":"Polygon","coordinates":[[[2.670055,48.605686389],[2.670225556,48.605705833],[2.670401111,48.605734722],[2.6705475,48.605805556],[2.670630278,48.605886111],[2.671163333,48.607552778],[2.671153333,48.607681667],[2.671109722,48.607791389],[2.671021944,48.607888056],[2.670783056,48.607984722],[2.667463889,48.608536667],[2.667200556,48.608575278],[2.666991111,48.6085625],[2.666815556,48.608510833],[2.666625278,48.608394722],[2.666156111,48.606986389],[2.666234167,48.606963889],[2.666166111,48.606721944],[2.666161111,48.606602778],[2.66621,48.606502778],[2.666288056,48.606403056],[2.666443889,48.606286944],[2.670055,48.605686389]]]}},{"type":"Feature","id":"LFPM-ed0015b8b462b1f945ea","properties":{"airport":"LFPM","name":"LFPM AVISO","layer":"Terrain","category":"Grass","object_type":"Area","style_id":"polygon.grassurface.00512f","source_group":"LFPM AVISO","vsmr_group_ids":[],"geometry_role":"filled_region"},"geometry":{"type":"Polygon","coordinates":[[[2.671394722,48.6056975],[2.671481389,48.605611944],[2.671553333,48.605529444],[2.671846111,48.605399167],[2.674414444,48.604992778],[2.674558611,48.604989722],[2.674731389,48.604992778],[2.674908889,48.605015],[2.675057778,48.605123056],[2.675706667,48.606909444],[2.675677778,48.607087222],[2.675610833,48.607179444],[2.675409167,48.607255556],[2.673109444,48.607620556],[2.672754167,48.607646111],[2.672451667,48.607636667],[2.672178056,48.6075825],[2.671976389,48.6074525],[2.671400278,48.605830278],[2.671394722,48.6056975]]]}},{"type":"Feature","id":"LFPM-80fb539e7656c4dd0004","properties":{"airport":"LFPM","name":"LFPM AVISO","layer":"Terrain","category":"Grass","object_type":"Area","style_id":"polygon.grassurface.00512f","source_group":"LFPM AVISO","vsmr_group_ids":[],"geometry_role":"filled_region"},"geometry":{"type":"Polygon","coordinates":[[[2.688922222,48.602678889],[2.68945,48.604154444],[2.689473611,48.6043875],[2.689459444,48.6045025],[2.689398333,48.604639167],[2.689281111,48.604741667],[2.682024167,48.607892222],[2.681859722,48.608000833],[2.681761944,48.608083611],[2.681221667,48.608860556],[2.681135556,48.608906944],[2.680982778,48.608927778],[2.680861389,48.608925278],[2.676814444,48.6075725],[2.676606389,48.607505],[2.676401944,48.607389722],[2.676205,48.607249722],[2.676042222,48.607044444],[2.6755225,48.605489167],[2.675461944,48.605246389],[2.675476944,48.605161111],[2.675503333,48.605066111],[2.675601944,48.604935833],[2.675700278,48.604853333],[2.675889444,48.604768333],[2.688922222,48.602678889]]]}},{"type":"Feature","id":"LFPM-ff17fb28558103c2198b","properties":{"airport":"LFPM","name":"LFPM AVISO","layer":"Terrain","category":"Grass","object_type":"Area","style_id":"polygon.grassurface.00512f","source_group":"LFPM AVISO","vsmr_group_ids":[],"geometry_role":"filled_region"},"geometry":{"type":"Polygon","coordinates":[[[2.667475,48.610831111],[2.666953333,48.609373889],[2.66706,48.609292222],[2.667783611,48.609488889],[2.668125833,48.608958611],[2.667643333,48.608799167],[2.667604167,48.608721111],[2.667626667,48.608658056],[2.667710833,48.608628333],[2.670571111,48.6081725],[2.670801111,48.608165],[2.671036667,48.608202222],[2.671350556,48.608316944],[2.671502222,48.608476389],[2.671608611,48.608780556],[2.671754444,48.608765833],[2.673558611,48.613963333],[2.673536111,48.614126389],[2.673457778,48.614245278],[2.673328611,48.614286111],[2.673182778,48.614311944],[2.668741944,48.614386111],[2.6679025,48.612068889],[2.667475,48.610831111]]]}},{"type":"Feature","id":"LFPM-b8f572587b2436990dfc","properties":{"airport":"LFPM","name":"LFPM AVISO","layer":"Terrain","category":"Grass","object_type":"Area","style_id":"polygon.grassurface.00512f","source_group":"LFPM AVISO","vsmr_group_ids":[],"geometry_role":"filled_region"},"geometry":{"type":"Polygon","coordinates":[[[2.667540833,48.6118],[2.667578889,48.611801944],[2.667597778,48.611829167],[2.667686111,48.612088056],[2.667657778,48.612125556],[2.667581944,48.612136111],[2.667506111,48.6121275],[2.667421111,48.611893889],[2.667427222,48.611848056],[2.667468333,48.611810278],[2.667540833,48.6118]]]}},{"type":"Feature","id":"LFPM-b0da82369ed65b31b798","properties":{"airport":"LFPM","name":"LFPM AVISO","layer":"Terrain","category":"Grass","object_type":"Area","style_id":"polygon.grassurface.00512f","source_group":"LFPM AVISO","vsmr_group_ids":[],"geometry_role":"filled_region"},"geometry":{"type":"Polygon","coordinates":[[[2.667288611,48.611269722],[2.667335833,48.611259444],[2.667373611,48.611259444],[2.667421111,48.611290556],[2.667506389,48.611528611],[2.6675,48.611578611],[2.66744,48.611599444],[2.667395833,48.611599444],[2.667348333,48.611564167],[2.667266389,48.611321944],[2.667288611,48.611269722]]]}},{"type":"Feature","id":"LFPM-aa531666a494b07b6257","properties":{"airport":"LFPM","name":"LFPM AVISO","layer":"Buildings and structures","category":"Buildings","object_type":"Area","style_id":"polygon.building.394446","source_group":"LFPM AVISO","vsmr_group_ids":[],"geometry_role":"filled_region"},"geometry":{"type":"Polygon","coordinates":[[[2.665345,48.612342778],[2.666352222,48.612205556],[2.666488611,48.612630556],[2.666412778,48.612653889],[2.666544167,48.613095556],[2.665663611,48.613236111],[2.665345,48.612342778]]]}},{"type":"Feature","id":"LFPM-975cc2bd590958127f19","properties":{"airport":"LFPM","name":"LFPM AVISO","layer":"Buildings and structures","category":"Buildings","object_type":"Area","style_id":"polygon.building.394446","source_group":"LFPM AVISO","vsmr_group_ids":[],"geometry_role":"filled_region"},"geometry":{"type":"Polygon","coordinates":[[[2.666696111,48.613232778],[2.666969167,48.614005833],[2.665840556,48.614186389],[2.665516944,48.613396667],[2.666696111,48.613232778]]]}},{"type":"Feature","id":"LFPM-db9e418e897787db930b","properties":{"airport":"LFPM","name":"LFPM AVISO","layer":"Buildings and structures","category":"Buildings","object_type":"Area","style_id":"polygon.building.394446","source_group":"LFPM AVISO","vsmr_group_ids":[],"geometry_role":"filled_region"},"geometry":{"type":"Polygon","coordinates":[[[2.666903333,48.616167222],[2.666791944,48.6158125],[2.666645278,48.615675278],[2.666675556,48.615478056],[2.666564167,48.615096389],[2.667181667,48.614996111],[2.667283056,48.615360833],[2.667455,48.615521389],[2.667404444,48.615728889],[2.667505556,48.616083611],[2.666903333,48.616167222]]]}},{"type":"Feature","id":"LFPM-5e2eadbb86ed8c3c8927","properties":{"airport":"LFPM","name":"LFPM AVISO","layer":"Buildings and structures","category":"Buildings","object_type":"Area","style_id":"polygon.building.394446","source_group":"LFPM AVISO","vsmr_group_ids":[],"geometry_role":"filled_region"},"geometry":{"type":"Polygon","coordinates":[[[2.666220278,48.614956111],[2.666154444,48.614818889],[2.666969167,48.614681667],[2.667024722,48.614852222],[2.666220278,48.614956111]]]}},{"type":"Feature","id":"LFPM-7645d4fdd37c648dc64e","properties":{"airport":"LFPM","name":"LFPM AVISO","layer":"Buildings and structures","category":"Buildings","object_type":"Area","style_id":"polygon.building.394446","source_group":"LFPM AVISO","vsmr_group_ids":[],"geometry_role":"filled_region"},"geometry":{"type":"Polygon","coordinates":[[[2.665908889,48.611752222],[2.665674722,48.611053611],[2.665950278,48.610996111],[2.666161389,48.611712778],[2.665908889,48.611752222]]]}},{"type":"Feature","id":"LFPM-35ccb2bb9ad84329e298","properties":{"airport":"LFPM","name":"LFPM AVISO","layer":"Buildings and structures","category":"Buildings","object_type":"Area","style_id":"polygon.building.394446","source_group":"LFPM AVISO","vsmr_group_ids":[],"geometry_role":"filled_region"},"geometry":{"type":"Polygon","coordinates":[[[2.663745556,48.611648889],[2.663543611,48.611065556],[2.663773056,48.611005],[2.664058056,48.610977778],[2.664186667,48.610977778],[2.664393056,48.611530278],[2.663745556,48.611648889]]]}},{"type":"Feature","id":"LFPM-e5c427b13c8d2bf70478","properties":{"airport":"LFPM","name":"LFPM AVISO","layer":"Buildings and structures","category":"Buildings","object_type":"Area","style_id":"polygon.building.394446","source_group":"LFPM AVISO","vsmr_group_ids":[],"geometry_role":"filled_region"},"geometry":{"type":"Polygon","coordinates":[[[2.681384444,48.609856111],[2.681891389,48.609858333],[2.681902222,48.609990556],[2.681380833,48.609990556],[2.681384444,48.609856111]]]}},{"type":"Feature","id":"LFPM-d1798cb61e3b54ad331d","properties":{"airport":"LFPM","name":"LFPM AVISO","layer":"Buildings and structures","category":"Buildings","object_type":"Area","style_id":"polygon.building.394446","source_group":"LFPM AVISO","vsmr_group_ids":[],"geometry_role":"filled_region"},"geometry":{"type":"Polygon","coordinates":[[[2.681391389,48.6097025],[2.681398611,48.609568056],[2.681884167,48.609563333],[2.681887778,48.609704722],[2.681391389,48.6097025]]]}},{"type":"Feature","id":"LFPM-d6638bca54cd6817ae05","properties":{"airport":"LFPM","name":"LFPM AVISO","layer":"Buildings and structures","category":"Buildings","object_type":"Area","style_id":"polygon.building.394446","source_group":"LFPM AVISO","vsmr_group_ids":[],"geometry_role":"filled_region"},"geometry":{"type":"Polygon","coordinates":[[[2.680227778,48.610245556],[2.680077778,48.610118056],[2.680656111,48.609898611],[2.6807775,48.610051944],[2.680227778,48.610245556]]]}},{"type":"Feature","id":"LFPM-33109d6e544a4e5e7c21","properties":{"airport":"LFPM","name":"LFPM AVISO","layer":"Buildings and structures","category":"Buildings","object_type":"Area","style_id":"polygon.building.394446","source_group":"LFPM AVISO","vsmr_group_ids":[],"geometry_role":"filled_region"},"geometry":{"type":"Polygon","coordinates":[[[2.679663333,48.609674444],[2.679445556,48.609398056],[2.679802778,48.609296667],[2.679999167,48.60958],[2.679663333,48.609674444]]]}},{"type":"Feature","id":"LFPM-9669cf0d79a240de2f18","properties":{"airport":"LFPM","name":"LFPM AVISO","layer":"Buildings and structures","category":"Buildings","object_type":"Area","style_id":"polygon.building.394446","source_group":"LFPM AVISO","vsmr_group_ids":[],"geometry_role":"filled_region"},"geometry":{"type":"Polygon","coordinates":[[[2.679984722,48.610016667],[2.679802778,48.609796944],[2.680220556,48.609634167],[2.680420278,48.609858333],[2.679984722,48.610016667]]]}},{"type":"Feature","id":"LFPM-a16119e63d5374761029","properties":{"airport":"LFPM","name":"LFPM AVISO","layer":"Buildings and structures","category":"Buildings","object_type":"Area","style_id":"polygon.building.394446","source_group":"LFPM AVISO","vsmr_group_ids":[],"geometry_role":"filled_region"},"geometry":{"type":"Polygon","coordinates":[[[2.680331111,48.609719167],[2.680209722,48.609532778],[2.680698889,48.609379167],[2.6808025,48.609568056],[2.680331111,48.609719167]]]}},{"type":"Feature","id":"LFPM-a7fbe605747dc90d9262","properties":{"airport":"LFPM","name":"1","layer":"Labels","category":"Gates","object_type":"Label","style_id":"label.gates","source_group":"LFPM Gates","vsmr_group_ids":[],"geometry_role":"text_label","text-field":"1"},"geometry":{"type":"Point","coordinates":[2.666055556,48.611083333]}},{"type":"Feature","id":"LFPM-bf3397db0660a4596291","properties":{"airport":"LFPM","name":"2","layer":"Labels","category":"Gates","object_type":"Label","style_id":"label.gates","source_group":"LFPM Gates","vsmr_group_ids":[],"geometry_role":"text_label","text-field":"2"},"geometry":{"type":"Point","coordinates":[2.666194444,48.611361111]}},{"type":"Feature","id":"LFPM-d77c17f3d3d98a59dc70","properties":{"airport":"LFPM","name":"3","layer":"Labels","category":"Gates","object_type":"Label","style_id":"label.gates","source_group":"LFPM Gates","vsmr_group_ids":[],"geometry_role":"text_label","text-field":"3"},"geometry":{"type":"Point","coordinates":[2.666277778,48.611666667]}},{"type":"Feature","id":"LFPM-577322d51bc7ec05abc5","properties":{"airport":"LFPM","name":"4","layer":"Labels","category":"Gates","object_type":"Label","style_id":"label.gates","source_group":"LFPM Gates","vsmr_group_ids":[],"geometry_role":"text_label","text-field":"4"},"geometry":{"type":"Point","coordinates":[2.666444444,48.612111111]}},{"type":"Feature","id":"LFPM-3057b16911da6953a270","properties":{"airport":"LFPM","name":"5","layer":"Labels","category":"Gates","object_type":"Label","style_id":"label.gates","source_group":"LFPM Gates","vsmr_group_ids":[],"geometry_role":"text_label","text-field":"5"},"geometry":{"type":"Point","coordinates":[2.666527778,48.612305556]}},{"type":"Feature","id":"LFPM-aa1faea2f9232548765b","properties":{"airport":"LFPM","name":"6","layer":"Labels","category":"Gates","object_type":"Label","style_id":"label.gates","source_group":"LFPM Gates","vsmr_group_ids":[],"geometry_role":"text_label","text-field":"6"},"geometry":{"type":"Point","coordinates":[2.666583333,48.6125]}},{"type":"Feature","id":"LFPM-a37454dfad1f35b48902","properties":{"airport":"LFPM","name":"7","layer":"Labels","category":"Gates","object_type":"Label","style_id":"label.gates","source_group":"LFPM Gates","vsmr_group_ids":[],"geometry_role":"text_label","text-field":"7"},"geometry":{"type":"Point","coordinates":[2.666972222,48.613361111]}},{"type":"Feature","id":"LFPM-ea93484a8eff1ca8aed3","properties":{"airport":"LFPM","name":"8","layer":"Labels","category":"Gates","object_type":"Label","style_id":"label.gates","source_group":"LFPM Gates","vsmr_group_ids":[],"geometry_role":"text_label","text-field":"8"},"geometry":{"type":"Point","coordinates":[2.667222222,48.614055556]}},{"type":"Feature","id":"LFPM-f5da89aa2f9663cd20cd","properties":{"airport":"LFPM","name":"9","layer":"Labels","category":"Gates","object_type":"Label","style_id":"label.gates","source_group":"LFPM Gates","vsmr_group_ids":[],"geometry_role":"text_label","text-field":"9"},"geometry":{"type":"Point","coordinates":[2.667694444,48.615083333]}},{"type":"Feature","id":"LFPM-08a11d39a565222181da","properties":{"airport":"LFPM","name":"10","layer":"Labels","category":"Gates","object_type":"Label","style_id":"label.gates","source_group":"LFPM Gates","vsmr_group_ids":[],"geometry_role":"text_label","text-field":"10"},"geometry":{"type":"Point","coordinates":[2.667833333,48.615444444]}},{"type":"Feature","id":"LFPM-9ad75cc72d0cdfb56e8c","properties":{"airport":"LFPM","name":"11","layer":"Labels","category":"Gates","object_type":"Label","style_id":"label.gates","source_group":"LFPM Gates","vsmr_group_ids":[],"geometry_role":"text_label","text-field":"11"},"geometry":{"type":"Point","coordinates":[2.668,48.615833333]}},{"type":"Feature","id":"LFPM-c4a07cc88af04ff412dd","properties":{"airport":"LFPM","name":"LFPM Groundlayout AVISO","layer":"Guidance lines","category":"Stopbars","object_type":"Line","style_id":"line.stopbar.7e0000","source_group":"LFPM Groundlayout AVISO","vsmr_group_ids":[],"geometry_role":"linework"},"geometry":{"type":"MultiLineString","coordinates":[[[2.666099167,48.607415833],[2.6662925,48.607381944]],[[2.670674444,48.6080225],[2.670707778,48.608148611]],[[2.672717778,48.607654167],[2.672789167,48.607871389]],[[2.675367222,48.605953889],[2.675657778,48.605903611]],[[2.689313333,48.603734722],[2.6897475,48.603661389]],[[2.672868056,48.614300833],[2.672868056,48.614465278]],[[2.674801111,48.614317778],[2.674801111,48.614402778]]]}},{"type":"Feature","id":"LFPM-e4cc802a4f4a1ee765f6","properties":{"airport":"LFPM","name":"FL85","layer":"Labels","category":"Seine Airspace Information","object_type":"Label","style_id":"label.seine-airspace-information","source_group":"LFPM Seine Airspace Information","vsmr_group_ids":[],"geometry_role":"text_label","text-field":"FL85"},"geometry":{"type":"Point","coordinates":[0.902518333,48.155664722]}},{"type":"Feature","id":"LFPM-6ca6f60753750f0631c1","properties":{"airport":"LFPM","name":"FL65","layer":"Labels","category":"Seine Airspace Information","object_type":"Label","style_id":"label.seine-airspace-information","source_group":"LFPM Seine Airspace Information","vsmr_group_ids":[],"geometry_role":"text_label","text-field":"FL65"},"geometry":{"type":"Point","coordinates":[1.408153056,48.336788889]}},{"type":"Feature","id":"LFPM-602786c7df47e4f517ab","properties":{"airport":"LFPM","name":"3500","layer":"Labels","category":"Seine Airspace Information","object_type":"Label","style_id":"label.seine-airspace-information","source_group":"LFPM Seine Airspace Information","vsmr_group_ids":[],"geometry_role":"text_label","text-field":"3500"},"geometry":{"type":"Point","coordinates":[1.616931389,48.814695]}},{"type":"Feature","id":"LFPM-27ebb5d1e5751a240171","properties":{"airport":"LFPM","name":"2500","layer":"Labels","category":"Seine Airspace Information","object_type":"Label","style_id":"label.seine-airspace-information","source_group":"LFPM Seine Airspace Information","vsmr_group_ids":[],"geometry_role":"text_label","text-field":"2500"},"geometry":{"type":"Point","coordinates":[1.828971667,48.705583889]}},{"type":"Feature","id":"LFPM-f8a9567f2423b7dd6a80","properties":{"airport":"LFPM","name":"2500","layer":"Labels","category":"Seine Airspace Information","object_type":"Label","style_id":"label.seine-airspace-information","source_group":"LFPM Seine Airspace Information","vsmr_group_ids":[],"geometry_role":"text_label","text-field":"2500"},"geometry":{"type":"Point","coordinates":[1.946409444,48.513548611]}},{"type":"Feature","id":"LFPM-ffd00eaaa366fd2b7079","properties":{"airport":"LFPM","name":"1500","layer":"Labels","category":"Seine Airspace Information","object_type":"Label","style_id":"label.seine-airspace-information","source_group":"LFPM Seine Airspace Information","vsmr_group_ids":[],"geometry_role":"text_label","text-field":"1500"},"geometry":{"type":"Point","coordinates":[2.236741667,48.583379722]}},{"type":"Feature","id":"LFPM-c2684c7bbd085935702d","properties":{"airport":"LFPM","name":"2500","layer":"Labels","category":"Seine Airspace Information","object_type":"Label","style_id":"label.seine-airspace-information","source_group":"LFPM Seine Airspace Information","vsmr_group_ids":[],"geometry_role":"text_label","text-field":"2500"},"geometry":{"type":"Point","coordinates":[2.576006389,48.454628611]}},{"type":"Feature","id":"LFPM-e5178c952379bfbfad5f","properties":{"airport":"LFPM","name":"3500","layer":"Labels","category":"Seine Airspace Information","object_type":"Label","style_id":"label.seine-airspace-information","source_group":"LFPM Seine Airspace Information","vsmr_group_ids":[],"geometry_role":"text_label","text-field":"3500"},"geometry":{"type":"Point","coordinates":[2.667346667,48.6008375]}},{"type":"Feature","id":"LFPM-f97e3b52ef9869122e92","properties":{"airport":"LFPM","name":"4500","layer":"Labels","category":"Seine Airspace Information","object_type":"Label","style_id":"label.seine-airspace-information","source_group":"LFPM Seine Airspace Information","vsmr_group_ids":[],"geometry_role":"text_label","text-field":"4500"},"geometry":{"type":"Point","coordinates":[2.846765556,48.439353056]}},{"type":"Feature","id":"LFPM-57c7ae2f4b7e3331803b","properties":{"airport":"LFPM","name":"FL65","layer":"Labels","category":"Seine Airspace Information","object_type":"Label","style_id":"label.seine-airspace-information","source_group":"LFPM Seine Airspace Information","vsmr_group_ids":[],"geometry_role":"text_label","text-field":"FL65"},"geometry":{"type":"Point","coordinates":[3.417643611,48.410984167]}},{"type":"Feature","id":"LFPM-b40e7b8e90ae2b63ca7c","properties":{"airport":"LFPM","name":"FL85","layer":"Labels","category":"Seine Airspace Information","object_type":"Label","style_id":"label.seine-airspace-information","source_group":"LFPM Seine Airspace Information","vsmr_group_ids":[],"geometry_role":"text_label","text-field":"FL85"},"geometry":{"type":"Point","coordinates":[3.681878611,48.247317778]}},{"type":"Feature","id":"LFPM-6bdbd55a405bec7d539c","properties":{"airport":"LFPM","name":"4500","layer":"Labels","category":"Seine Airspace Information","object_type":"Label","style_id":"label.seine-airspace-information","source_group":"LFPM Seine Airspace Information","vsmr_group_ids":[],"geometry_role":"text_label","text-field":"4500"},"geometry":{"type":"Point","coordinates":[3.570965,48.963085833]}},{"type":"Feature","id":"LFPM-08cf947468396f61e446","properties":{"airport":"LFPM","name":"3500","layer":"Labels","category":"Seine Airspace Information","object_type":"Label","style_id":"label.seine-airspace-information","source_group":"LFPM Seine Airspace Information","vsmr_group_ids":[],"geometry_role":"text_label","text-field":"3500"},"geometry":{"type":"Point","coordinates":[3.313254444,49.096201111]}},{"type":"Feature","id":"LFPM-8324d59ebcff6b1af5e7","properties":{"airport":"LFPM","name":"Z","layer":"Labels","category":"Taxiways","object_type":"Label","style_id":"label.taxiways","source_group":"LFPM Taxiways","vsmr_group_ids":[],"geometry_role":"text_label","text-field":"Z"},"geometry":{"type":"Point","coordinates":[2.677694444,48.608277778]}},{"type":"Feature","id":"LFPM-9c5a58b1dc9a0c983196","properties":{"airport":"LFPM","name":"W","layer":"Labels","category":"Taxiways","object_type":"Label","style_id":"label.taxiways","source_group":"LFPM Taxiways","vsmr_group_ids":[],"geometry_role":"text_label","text-field":"W"},"geometry":{"type":"Point","coordinates":[2.665888889,48.606305556]}},{"type":"Feature","id":"LFPM-f163add945bb4dbed21d","properties":{"airport":"LFPM","name":"W","layer":"Labels","category":"Taxiways","object_type":"Label","style_id":"label.taxiways","source_group":"LFPM Taxiways","vsmr_group_ids":[],"geometry_role":"text_label","text-field":"W"},"geometry":{"type":"Point","coordinates":[2.666361111,48.607611111]}},{"type":"Feature","id":"LFPM-c535a3326827265bc63e","properties":{"airport":"LFPM","name":"W","layer":"Labels","category":"Taxiways","object_type":"Label","style_id":"label.taxiways","source_group":"LFPM Taxiways","vsmr_group_ids":[],"geometry_role":"text_label","text-field":"W"},"geometry":{"type":"Point","coordinates":[2.667083333,48.609666667]}},{"type":"Feature","id":"LFPM-dddb20b5b3af4eaf4ca4","properties":{"airport":"LFPM","name":"Z","layer":"Labels","category":"Taxiways","object_type":"Label","style_id":"label.taxiways","source_group":"LFPM Taxiways","vsmr_group_ids":[],"geometry_role":"text_label","text-field":"Z"},"geometry":{"type":"Point","coordinates":[2.687972222,48.602805556]}},{"type":"Feature","id":"LFPM-15de463dbfc982ed1c4f","properties":{"airport":"LFPM","name":"Z","layer":"Labels","category":"Taxiways","object_type":"Label","style_id":"label.taxiways","source_group":"LFPM Taxiways","vsmr_group_ids":[],"geometry_role":"text_label","text-field":"Z"},"geometry":{"type":"Point","coordinates":[2.688388889,48.604027778]}},{"type":"Feature","id":"LFPM-007d92be8ead927dcd0d","properties":{"airport":"LFPM","name":"Z","layer":"Labels","category":"Taxiways","object_type":"Label","style_id":"label.taxiways","source_group":"LFPM Taxiways","vsmr_group_ids":[],"geometry_role":"text_label","text-field":"Z"},"geometry":{"type":"Point","coordinates":[2.68475,48.606666667]}},{"type":"Feature","id":"LFPM-02e78e5d9f958baa5b6c","properties":{"airport":"LFPM","name":"Z","layer":"Labels","category":"Taxiways","object_type":"Label","style_id":"label.taxiways","source_group":"LFPM Taxiways","vsmr_group_ids":[],"geometry_role":"text_label","text-field":"Z"},"geometry":{"type":"Point","coordinates":[2.680666667,48.608666667]}},{"type":"Feature","id":"LFPM-b51e1690445f5a1df6e2","properties":{"airport":"LFPM","name":"T","layer":"Labels","category":"Taxiways","object_type":"Label","style_id":"label.taxiways","source_group":"LFPM Taxiways","vsmr_group_ids":[],"geometry_role":"text_label","text-field":"T"},"geometry":{"type":"Point","coordinates":[2.674472222,48.606361111]}},{"type":"Feature","id":"LFPM-05323650297bbea6142f","properties":{"airport":"LFPM","name":"T","layer":"Labels","category":"Taxiways","object_type":"Label","style_id":"label.taxiways","source_group":"LFPM Taxiways","vsmr_group_ids":[],"geometry_role":"text_label","text-field":"T"},"geometry":{"type":"Point","coordinates":[2.674027778,48.605]}},{"type":"Feature","id":"LFPM-409dcb81879b24a980fd","properties":{"airport":"LFPM","name":"C","layer":"Labels","category":"Taxiways","object_type":"Label","style_id":"label.taxiways","source_group":"LFPM Taxiways","vsmr_group_ids":[],"geometry_role":"text_label","text-field":"C"},"geometry":{"type":"Point","coordinates":[2.673444444,48.607694444]}},{"type":"Feature","id":"LFPM-ba83de3eb564bf77a177","properties":{"airport":"LFPM","name":"C","layer":"Labels","category":"Taxiways","object_type":"Label","style_id":"label.taxiways","source_group":"LFPM Taxiways","vsmr_group_ids":[],"geometry_role":"text_label","text-field":"C"},"geometry":{"type":"Point","coordinates":[2.671722222,48.607944444]}},{"type":"Feature","id":"LFPM-226f199ab210e25dac71","properties":{"airport":"LFPM","name":"D","layer":"Labels","category":"Taxiways","object_type":"Label","style_id":"label.taxiways","source_group":"LFPM Taxiways","vsmr_group_ids":[],"geometry_role":"text_label","text-field":"D"},"geometry":{"type":"Point","coordinates":[2.671138889,48.608027778]}},{"type":"Feature","id":"LFPM-5b1432b6581090d5bd60","properties":{"airport":"LFPM","name":"D","layer":"Labels","category":"Taxiways","object_type":"Label","style_id":"label.taxiways","source_group":"LFPM Taxiways","vsmr_group_ids":[],"geometry_role":"text_label","text-field":"D"},"geometry":{"type":"Point","coordinates":[2.668777778,48.608361111]}},{"type":"Feature","id":"LFPM-1c07e6454e4a915b474d","properties":{"airport":"LFPM","name":"J","layer":"Labels","category":"Taxiways","object_type":"Label","style_id":"label.taxiways","source_group":"LFPM Taxiways","vsmr_group_ids":[],"geometry_role":"text_label","text-field":"J"},"geometry":{"type":"Point","coordinates":[2.669833333,48.612694444]}},{"type":"Feature","id":"LFPM-406e6f0e3bdaaba9cbff","properties":{"airport":"LFPM","name":"J","layer":"Labels","category":"Taxiways","object_type":"Label","style_id":"label.taxiways","source_group":"LFPM Taxiways","vsmr_group_ids":[],"geometry_role":"text_label","text-field":"J"},"geometry":{"type":"Point","coordinates":[2.672,48.612833333]}},{"type":"Feature","id":"LFPM-dcbe8b5acd6b50786440","properties":{"airport":"LFPM","name":"J","layer":"Labels","category":"Taxiways","object_type":"Label","style_id":"label.taxiways","source_group":"LFPM Taxiways","vsmr_group_ids":[],"geometry_role":"text_label","text-field":"J"},"geometry":{"type":"Point","coordinates":[2.672805556,48.612888889]}},{"type":"Feature","id":"LFPM-51712f94e128e854da6c","properties":{"airport":"LFPM","name":"J","layer":"Labels","category":"Taxiways","object_type":"Label","style_id":"label.taxiways","source_group":"LFPM Taxiways","vsmr_group_ids":[],"geometry_role":"text_label","text-field":"J"},"geometry":{"type":"Point","coordinates":[2.673444444,48.612944444]}},{"type":"Feature","id":"LFPM-df5b047ba064913e7c6b","properties":{"airport":"LFPM","name":"J","layer":"Labels","category":"Taxiways","object_type":"Label","style_id":"label.taxiways","source_group":"LFPM Taxiways","vsmr_group_ids":[],"geometry_role":"text_label","text-field":"J"},"geometry":{"type":"Point","coordinates":[2.675194444,48.613055556]}}]}
