{"type":"FeatureCollection","name":"LFRK AVISO","bbox":[-0.468293889,49.168492222,-0.438034167,49.183650556],"metadata":{"schema":"vSMR AVISO","schema_version":2,"geometry_mode":"shared","airport":"LFRK","coordinate_reference_system":"WGS84","coordinate_order":"longitude, latitude","default_color_palette":"dark","color_palettes":["dark","light"],"background_colors":{"dark":"#434A4F","light":"#434A4F"},"runways":[{"ends":["13L","31R"],"headings":[125,305],"thresholds":[[-0.457825,49.179721944],[-0.448880833,49.175571944]]},{"ends":["13","31"],"headings":[125,305],"thresholds":[[-0.463066944,49.179396944],[-0.445168889,49.171096944]]}],"saved_active_runways":[],"saved_active_airport_modes":[],"airport_reference":[-0.45,49.173332778],"feature_count":82,"style_count":11,"layer_counts":{"Airfield surfaces":5,"Buildings and structures":17,"Guidance lines":1,"Labels":53,"Operational restrictions":4,"Surface markings":1,"Terrain":1},"category_counts":{"Buildings":17,"Danger Area":4,"Gates":11,"Grass":1,"Grass runways":2,"Hard Surface 2":1,"Hard Surface 3":1,"Runways":1,"Stopbars":1,"Taxiways":43},"geometry_source":"local GNG","geometry_source_url":"","geometry_license":"GPL-3.0"},"styles":{"polygon.grassurface.00512f":{"name":"Grass","layer":"Terrain","object_type":"Area","paint":{"fill":"#010D19","fill-opacity":1,"palette-overrides":{"light":{"fill":"#00512F"}}},"feature_count":1},"polygon.dangerarea.280908":{"name":"Danger Area","layer":"Operational restrictions","object_type":"Area","paint":{"fill":"#280908","fill-opacity":1,"palette-overrides":{"light":{"fill":"#280908"}}},"feature_count":4},"polygon.hardsurface3.8a807f":{"name":"Hard Surface 3","layer":"Airfield surfaces","object_type":"Area","paint":{"fill":"#222D3C","fill-opacity":1,"palette-overrides":{"light":{"fill":"#8A807F"}}},"feature_count":1},"polygon.runwaygrass.008000":{"name":"Grass runways","layer":"Airfield surfaces","object_type":"Area","paint":{"fill":"#859A77","fill-opacity":1,"palette-overrides":{"light":{"fill":"#008000"}}},"feature_count":2},"polygon.hardsurface2.595e5b":{"name":"Hard Surface 2","layer":"Airfield surfaces","object_type":"Area","paint":{"fill":"#2F3949","fill-opacity":1,"palette-overrides":{"light":{"fill":"#595E5B"}}},"feature_count":1},"polygon.runwayconcrete.555555":{"name":"Runways","layer":"Airfield surfaces","object_type":"Area","paint":{"fill":"#111318","fill-opacity":1,"palette-overrides":{"light":{"fill":"#555555"}}},"feature_count":1},"polygon.building.394446":{"name":"Buildings","layer":"Buildings and structures","object_type":"Area","paint":{"fill":"#475570","fill-opacity":1,"palette-overrides":{"light":{"fill":"#394446"}}},"feature_count":17},"polygon.stopbar.7e0000":{"name":"Stopbars","layer":"Surface markings","object_type":"Area","paint":{"fill":"#7E0000","fill-opacity":1,"palette-overrides":{"light":{"fill":"#7E0000"}}},"feature_count":1},"line.taxiway.c0b631":{"name":"Taxiways","layer":"Guidance lines","object_type":"Line","paint":{"stroke":"#4E5A69","stroke-opacity":1,"stroke-width":1,"palette-overrides":{"light":{"stroke":"#C0B631"}}},"feature_count":1},"label.gates":{"name":"Gates","layer":"Labels","object_type":"Label","paint":{"text-color":"#CCCCCC","text-font":"Arial","text-size":12,"text-halo-color":"#000000","text-halo-width":1,"text-anchor":"center","zoomLevel":9},"feature_count":11},"label.taxiways":{"name":"Taxiways","layer":"Labels","object_type":"Label","paint":{"text-color":"#CCCCCC","text-font":"Arial","text-size":12,"text-halo-color":"#000000","text-halo-width":1,"text-anchor":"center","zoomLevel":7},"feature_count":42}},"vsmr_groups":[],"features":[{"type":"Feature","id":"LFRK-4412a6477669e2d8d1b3","properties":{"airport":"LFRK","name":"LFRK AVISO","layer":"Terrain","category":"Grass","object_type":"Area","style_id":"polygon.grassurface.00512f","source_group":"LFRK AVISO","vsmr_group_ids":[],"geometry_role":"filled_region"},"geometry":{"type":"Polygon","coordinates":[[[-0.449654722,49.180864444],[-0.450839167,49.179773889],[-0.454087222,49.180983056],[-0.453845,49.181453056],[-0.453828889,49.181521944],[-0.453901667,49.181574722],[-0.455740278,49.182261389],[-0.455850278,49.182256111],[-0.455960556,49.182194444],[-0.456078611,49.182070833],[-0.459425278,49.183650556],[-0.460494167,49.183623889],[-0.462563056,49.183204167],[-0.463536667,49.183001389],[-0.463934722,49.182943611],[-0.468293889,49.182776389],[-0.468259167,49.179710278],[-0.467686944,49.179764167],[-0.4668175,49.179378333],[-0.466769444,49.1787575],[-0.466118333,49.178535833],[-0.4570375,49.174357778],[-0.456743889,49.172374167],[-0.456484444,49.169631944],[-0.4511125,49.170123611],[-0.446683889,49.170027222],[-0.445104167,49.169303333],[-0.444011667,49.1702975],[-0.440114444,49.168492222],[-0.439110556,49.168540556],[-0.443573611,49.170660833],[-0.443354444,49.170947222],[-0.442099444,49.172054167],[-0.443215,49.172497222],[-0.443274444,49.173460833],[-0.442676667,49.1759225],[-0.44186,49.175948333],[-0.439668056,49.176899167],[-0.439528611,49.177758611],[-0.438034167,49.178514167],[-0.439209444,49.179516944],[-0.440425,49.178943889],[-0.440803611,49.1792175],[-0.442660278,49.178300833],[-0.449654722,49.180864444]]]}},{"type":"Feature","id":"LFRK-3832da27a9e73c5311a9","properties":{"airport":"LFRK","name":"LFRK AVISO","layer":"Operational restrictions","category":"Danger Area","object_type":"Area","style_id":"polygon.dangerarea.280908","source_group":"LFRK AVISO","vsmr_group_ids":[],"geometry_role":"filled_region"},"geometry":{"type":"Polygon","coordinates":[[[-0.466230833,49.181126667],[-0.465705,49.181122222],[-0.465762778,49.18207],[-0.465733333,49.182181667],[-0.465671667,49.182301111],[-0.465583333,49.182374167],[-0.465477222,49.182435833],[-0.465474444,49.182437778],[-0.465353611,49.182493611],[-0.465188889,49.182531944],[-0.46503,49.182557222],[-0.465512778,49.182649444],[-0.465639444,49.182624444],[-0.465789444,49.18258],[-0.465945556,49.182512778],[-0.466069167,49.182455],[-0.466151389,49.182381667],[-0.466244722,49.182241944],[-0.466230833,49.181126667]]]}},{"type":"Feature","id":"LFRK-f3adf022e58f237fe30c","properties":{"airport":"LFRK","name":"LFRK AVISO","layer":"Operational restrictions","category":"Danger Area","object_type":"Area","style_id":"polygon.dangerarea.280908","source_group":"LFRK AVISO","vsmr_group_ids":[],"geometry_role":"filled_region"},"geometry":{"type":"Polygon","coordinates":[[[-0.463724167,49.1787725],[-0.463545556,49.178813056],[-0.463406944,49.178901111],[-0.463326667,49.178972778],[-0.463261111,49.179034722],[-0.463195556,49.1790775],[-0.463072222,49.179093611],[-0.463326667,49.179208611],[-0.463326667,49.179151389],[-0.463363333,49.179072778],[-0.463446944,49.179001389],[-0.463538333,49.1789275],[-0.463611111,49.178886944],[-0.463698611,49.178865278],[-0.465846667,49.178733889],[-0.465846667,49.178633889],[-0.463724167,49.1787725]]]}},{"type":"Feature","id":"LFRK-b93b15e34933e708f086","properties":{"airport":"LFRK","name":"LFRK AVISO","layer":"Operational restrictions","category":"Danger Area","object_type":"Area","style_id":"polygon.dangerarea.280908","source_group":"LFRK AVISO","vsmr_group_ids":[],"geometry_role":"filled_region"},"geometry":{"type":"Polygon","coordinates":[[[-0.449629444,49.173585278],[-0.449253333,49.1734275],[-0.441637222,49.177328889],[-0.4418975,49.177555556],[-0.449629444,49.173585278]]]}},{"type":"Feature","id":"LFRK-78417b88f116446c951f","properties":{"airport":"LFRK","name":"LFRK AVISO","layer":"Operational restrictions","category":"Danger Area","object_type":"Area","style_id":"polygon.dangerarea.280908","source_group":"LFRK AVISO","vsmr_group_ids":[],"geometry_role":"filled_region"},"geometry":{"type":"Polygon","coordinates":[[[-0.454639167,49.171003611],[-0.454395833,49.1707875],[-0.449981389,49.173060278],[-0.450295833,49.173233611],[-0.454639167,49.171003611]]]}},{"type":"Feature","id":"LFRK-34709976a66bc7c78cd7","properties":{"airport":"LFRK","name":"LFRK AVISO","layer":"Airfield surfaces","category":"Hard Surface 3","object_type":"Area","style_id":"polygon.hardsurface3.8a807f","source_group":"LFRK AVISO","vsmr_group_ids":[],"geometry_role":"filled_region"},"geometry":{"type":"Polygon","coordinates":[[[-0.451532222,49.179245],[-0.451415833,49.179361389],[-0.451645833,49.179463611],[-0.451713056,49.179395278],[-0.451759167,49.179351111],[-0.451829722,49.179315],[-0.45194,49.179351111],[-0.45194,49.179353333],[-0.452028889,49.179391389],[-0.452032222,49.179429444],[-0.4519525,49.179501667],[-0.451909444,49.179511667],[-0.451869722,49.179505556],[-0.451854167,49.1795275],[-0.452026111,49.179579722],[-0.452025833,49.179511667],[-0.452065833,49.1794775],[-0.452118056,49.179459444],[-0.452163889,49.179451389],[-0.452521389,49.1796125],[-0.452329444,49.179778611],[-0.452915,49.180070556],[-0.452924722,49.180026389],[-0.452868611,49.179967222],[-0.452921944,49.179923056],[-0.45299,49.179885556],[-0.453057778,49.179864722],[-0.453461389,49.180053611],[-0.453418611,49.180109722],[-0.453393611,49.180147222],[-0.453368611,49.180186667],[-0.453322222,49.180238056],[-0.453507778,49.180329167],[-0.45379,49.180488056],[-0.454186667,49.180676944],[-0.454568889,49.180852222],[-0.454543889,49.1808825],[-0.455129722,49.181134722],[-0.455018889,49.181267778],[-0.455616944,49.181526944],[-0.455841944,49.181328889],[-0.460304722,49.183385556],[-0.461027778,49.182701111],[-0.460743333,49.182606389],[-0.460628611,49.182645556],[-0.460254444,49.182485833],[-0.46011,49.182619722],[-0.458164722,49.181723333],[-0.458319444,49.18158],[-0.457916944,49.1814],[-0.4579575,49.181354722],[-0.457989167,49.181311389],[-0.457989167,49.181266111],[-0.457966111,49.181213333],[-0.457908333,49.181167778],[-0.457610833,49.181018889],[-0.4575125,49.180994167],[-0.457411667,49.181001944],[-0.457325,49.181030278],[-0.457267222,49.1810925],[-0.456855,49.180914444],[-0.456747778,49.180881111],[-0.4566575,49.18087],[-0.456586944,49.180884722],[-0.456493889,49.180921667],[-0.456414722,49.180964167],[-0.456344167,49.181006667],[-0.456217222,49.181078611],[-0.4559775,49.180978889],[-0.456279167,49.180704167],[-0.454814444,49.180019167],[-0.454681944,49.179979444],[-0.454620278,49.179976944],[-0.454376111,49.180233056],[-0.454327778,49.180261944],[-0.454279167,49.180278333],[-0.454221667,49.180278333],[-0.451684444,49.179100556],[-0.451593333,49.179176944],[-0.451609722,49.179195278],[-0.451647222,49.179244167],[-0.451648611,49.179288889],[-0.451532222,49.179245]]]}},{"type":"Feature","id":"LFRK-7e17bba3414497d68dce","properties":{"airport":"LFRK","name":"LFRK AVISO","layer":"Airfield surfaces","category":"Grass runways","object_type":"Area","style_id":"polygon.runwaygrass.008000","source_group":"LFRK AVISO","vsmr_group_ids":[],"geometry_role":"filled_region"},"geometry":{"type":"Polygon","coordinates":[[[-0.458426667,49.180786944],[-0.457965278,49.181202778],[-0.45798,49.181241111],[-0.4579975,49.181285278],[-0.45798,49.181317778],[-0.457915556,49.181401944],[-0.459488056,49.182101667],[-0.459589167,49.182099167],[-0.459660556,49.182101667],[-0.459702778,49.182104444],[-0.4597575,49.182088056],[-0.459833056,49.182055],[-0.460285833,49.181626944],[-0.458426667,49.180786944]]]}},{"type":"Feature","id":"LFRK-cd34697da7cbf7fb7be0","properties":{"airport":"LFRK","name":"LFRK AVISO","layer":"Airfield surfaces","category":"Hard Surface 2","object_type":"Area","style_id":"polygon.hardsurface2.595e5b","source_group":"LFRK AVISO","vsmr_group_ids":[],"geometry_role":"filled_region"},"geometry":{"type":"Polygon","coordinates":[[[-0.462628333,49.179806389],[-0.462695833,49.179755],[-0.462745278,49.179728611],[-0.462796944,49.179708056],[-0.462853056,49.179690278],[-0.462908611,49.179681389],[-0.462963611,49.179675556],[-0.463008056,49.179676667],[-0.463063333,49.179686111],[-0.463120278,49.179691944],[-0.463225278,49.179723333],[-0.462376389,49.179328889],[-0.462463611,49.179391667],[-0.462500833,49.179425556],[-0.462529444,49.179461667],[-0.462550833,49.179518611],[-0.462556111,49.179572222],[-0.462543611,49.1796175],[-0.462520556,49.179661944],[-0.462478333,49.179714167],[-0.462394167,49.179790833],[-0.460508056,49.181542222],[-0.457413611,49.180106944],[-0.457373611,49.180023333],[-0.457385556,49.179965833],[-0.457409444,49.179911111],[-0.457445556,49.179863889],[-0.457465556,49.1798325],[-0.457345556,49.179783056],[-0.457285556,49.179853611],[-0.4572375,49.17989],[-0.457169722,49.179916389],[-0.457113611,49.179931944],[-0.457049722,49.1799425],[-0.456889722,49.179866667],[-0.455111944,49.179017778],[-0.455050833,49.178958056],[-0.455063889,49.178900833],[-0.455098889,49.178863889],[-0.455129444,49.178823889],[-0.455177222,49.178781111],[-0.454946111,49.178678611],[-0.454797778,49.178784167],[-0.454741111,49.1788325],[-0.454636667,49.178792778],[-0.449098889,49.176225278],[-0.448988611,49.176175278],[-0.448908056,49.176136667],[-0.448840278,49.176103333],[-0.448801944,49.176053333],[-0.448789444,49.175998056],[-0.448806389,49.175931389],[-0.448844444,49.175886944],[-0.448879722,49.175839722],[-0.448697778,49.1757825],[-0.448630278,49.175901389],[-0.448455,49.1760425],[-0.454503056,49.178977222],[-0.454545556,49.179084167],[-0.454476944,49.179194444],[-0.453578611,49.179981667],[-0.453837778,49.180100556],[-0.454756667,49.179284167],[-0.454809444,49.179235833],[-0.454872778,49.179222222],[-0.454967778,49.179222222],[-0.460369722,49.181677778],[-0.459894444,49.182098889],[-0.459806667,49.182141111],[-0.459711944,49.182160556],[-0.459612778,49.182159167],[-0.459531944,49.182138056],[-0.458320278,49.181581667],[-0.458165556,49.181726389],[-0.460116111,49.182620833],[-0.460254444,49.1824925],[-0.460148333,49.182438056],[-0.460092778,49.182394444],[-0.460060556,49.182344722],[-0.460039722,49.182276667],[-0.460058333,49.182205833],[-0.460095,49.182148611],[-0.4601575,49.182098889],[-0.462628333,49.179806389]]]}},{"type":"Feature","id":"LFRK-5ce76ca909c8a42cc7e6","properties":{"airport":"LFRK","name":"LFRK AVISO","layer":"Airfield surfaces","category":"Runways","object_type":"Area","style_id":"polygon.runwayconcrete.555555","source_group":"LFRK AVISO","vsmr_group_ids":[],"geometry_role":"filled_region"},"geometry":{"type":"Polygon","coordinates":[[[-0.444956667,49.171348333],[-0.444956667,49.171421667],[-0.444993056,49.171490278],[-0.445047222,49.171551944],[-0.445137778,49.171596944],[-0.445264722,49.171625278],[-0.445427778,49.171634722],[-0.445616111,49.171646667],[-0.445721111,49.171658611],[-0.445851389,49.171689167],[-0.44596,49.17172],[-0.465308056,49.180691667],[-0.465423611,49.180769722],[-0.465485556,49.180829167],[-0.465568056,49.180918056],[-0.465704167,49.1811175],[-0.465753611,49.1811525],[-0.465939167,49.181190278],[-0.466067222,49.1811875],[-0.466236111,49.181125556],[-0.466574167,49.180796667],[-0.445330556,49.170950278],[-0.444990833,49.171272222],[-0.444956667,49.171348333]]]}},{"type":"Feature","id":"LFRK-520cfa98ba145ab4da9f","properties":{"airport":"LFRK","name":"LFRK AVISO","layer":"Airfield surfaces","category":"Grass runways","object_type":"Area","style_id":"polygon.runwaygrass.008000","source_group":"LFRK AVISO","vsmr_group_ids":[],"geometry_role":"filled_region"},"geometry":{"type":"Polygon","coordinates":[[[-0.449057778,49.175390556],[-0.448673611,49.175760556],[-0.457626389,49.179914722],[-0.458012778,49.179545833],[-0.449057778,49.175390556]]]}},{"type":"Feature","id":"LFRK-2769815250bf53412627","properties":{"airport":"LFRK","name":"LFRK AVISO","layer":"Buildings and structures","category":"Buildings","object_type":"Area","style_id":"polygon.building.394446","source_group":"LFRK AVISO","vsmr_group_ids":[],"geometry_role":"filled_region"},"geometry":{"type":"Polygon","coordinates":[[[-0.458896389,49.18289],[-0.458754167,49.182815556],[-0.458683056,49.182885556],[-0.458825278,49.1829575],[-0.458896389,49.18289]]]}},{"type":"Feature","id":"LFRK-7ec29ec74afa099433d2","properties":{"airport":"LFRK","name":"LFRK AVISO","layer":"Buildings and structures","category":"Buildings","object_type":"Area","style_id":"polygon.building.394446","source_group":"LFRK AVISO","vsmr_group_ids":[],"geometry_role":"filled_region"},"geometry":{"type":"Polygon","coordinates":[[[-0.457333611,49.182146667],[-0.457166667,49.182064167],[-0.457049722,49.182173333],[-0.457221389,49.182258889],[-0.457333611,49.182146667]]]}},{"type":"Feature","id":"LFRK-09c130226d2b09149050","properties":{"airport":"LFRK","name":"LFRK AVISO","layer":"Buildings and structures","category":"Buildings","object_type":"Area","style_id":"polygon.building.394446","source_group":"LFRK AVISO","vsmr_group_ids":[],"geometry_role":"filled_region"},"geometry":{"type":"Polygon","coordinates":[[[-0.4567875,49.181822222],[-0.456455556,49.181672778],[-0.456319167,49.181805278],[-0.456643611,49.181954722],[-0.4567875,49.181822222]]]}},{"type":"Feature","id":"LFRK-4d42a5c5ff86b73b1a87","properties":{"airport":"LFRK","name":"LFRK AVISO","layer":"Buildings and structures","category":"Buildings","object_type":"Area","style_id":"polygon.building.394446","source_group":"LFRK AVISO","vsmr_group_ids":[],"geometry_role":"filled_region"},"geometry":{"type":"Polygon","coordinates":[[[-0.455486111,49.181468889],[-0.455087222,49.181278056],[-0.4548025,49.181537222],[-0.455201667,49.181735556],[-0.455486111,49.181468889]]]}},{"type":"Feature","id":"LFRK-69e03e66ab8631720b14","properties":{"airport":"LFRK","name":"LFRK AVISO","layer":"Buildings and structures","category":"Buildings","object_type":"Area","style_id":"polygon.building.394446","source_group":"LFRK AVISO","vsmr_group_ids":[],"geometry_role":"filled_region"},"geometry":{"type":"Polygon","coordinates":[[[-0.455014167,49.181101389],[-0.454559167,49.180891667],[-0.454410833,49.181041111],[-0.454860833,49.181244722],[-0.455014167,49.181101389]]]}},{"type":"Feature","id":"LFRK-4a307d79bfcbc9b78edb","properties":{"airport":"LFRK","name":"LFRK AVISO","layer":"Buildings and structures","category":"Buildings","object_type":"Area","style_id":"polygon.building.394446","source_group":"LFRK AVISO","vsmr_group_ids":[],"geometry_role":"filled_region"},"geometry":{"type":"Polygon","coordinates":[[[-0.4537975,49.180458611],[-0.45351,49.180328889],[-0.453308889,49.1805225],[-0.453420556,49.180580833],[-0.453468056,49.180531667],[-0.453638333,49.180608333],[-0.4537975,49.180458611]]]}},{"type":"Feature","id":"LFRK-5fdb4c5355d88d3ad339","properties":{"airport":"LFRK","name":"LFRK AVISO","layer":"Buildings and structures","category":"Buildings","object_type":"Area","style_id":"polygon.building.394446","source_group":"LFRK AVISO","vsmr_group_ids":[],"geometry_role":"filled_region"},"geometry":{"type":"Polygon","coordinates":[[[-0.451644444,49.179457778],[-0.451420556,49.17936],[-0.451239722,49.179529722],[-0.4514675,49.179622222],[-0.451644444,49.179457778]]]}},{"type":"Feature","id":"LFRK-6a7e7afabae591c15a5f","properties":{"airport":"LFRK","name":"LFRK AVISO","layer":"Buildings and structures","category":"Buildings","object_type":"Area","style_id":"polygon.building.394446","source_group":"LFRK AVISO","vsmr_group_ids":[],"geometry_role":"filled_region"},"geometry":{"type":"Polygon","coordinates":[[[-0.451996667,49.179631944],[-0.451826944,49.179548889],[-0.451705278,49.179661667],[-0.451885833,49.179741111],[-0.451996667,49.179631944]]]}},{"type":"Feature","id":"LFRK-ee007ec68e7ab4748780","properties":{"airport":"LFRK","name":"LFRK AVISO","layer":"Buildings and structures","category":"Buildings","object_type":"Area","style_id":"polygon.building.394446","source_group":"LFRK AVISO","vsmr_group_ids":[],"geometry_role":"filled_region"},"geometry":{"type":"Polygon","coordinates":[[[-0.4524025,49.179814722],[-0.452175,49.179713333],[-0.452071667,49.179810556],[-0.452305833,49.179909722],[-0.4524025,49.179814722]]]}},{"type":"Feature","id":"LFRK-0be660858e8cdc666a04","properties":{"airport":"LFRK","name":"LFRK AVISO","layer":"Buildings and structures","category":"Buildings","object_type":"Area","style_id":"polygon.building.394446","source_group":"LFRK AVISO","vsmr_group_ids":[],"geometry_role":"filled_region"},"geometry":{"type":"Polygon","coordinates":[[[-0.4526775,49.179950278],[-0.452473611,49.179849722],[-0.452245,49.180051944],[-0.452464722,49.180151111],[-0.4526775,49.179950278]]]}},{"type":"Feature","id":"LFRK-331d5933ffb57142dc94","properties":{"airport":"LFRK","name":"LFRK AVISO","layer":"Buildings and structures","category":"Buildings","object_type":"Area","style_id":"polygon.building.394446","source_group":"LFRK AVISO","vsmr_group_ids":[],"geometry_role":"filled_region"},"geometry":{"type":"Polygon","coordinates":[[[-0.452921944,49.180062222],[-0.452706389,49.179965],[-0.452455556,49.180178333],[-0.4526825,49.180278889],[-0.452921944,49.180062222]]]}},{"type":"Feature","id":"LFRK-aa54585226e71573d1a8","properties":{"airport":"LFRK","name":"LFRK AVISO","layer":"Buildings and structures","category":"Buildings","object_type":"Area","style_id":"polygon.building.394446","source_group":"LFRK AVISO","vsmr_group_ids":[],"geometry_role":"filled_region"},"geometry":{"type":"Polygon","coordinates":[[[-0.453316944,49.180237222],[-0.453137778,49.180143611],[-0.452946944,49.180323056],[-0.453068333,49.180380278],[-0.453128056,49.180325556],[-0.453185556,49.180352778],[-0.453316944,49.180237222]]]}},{"type":"Feature","id":"LFRK-5dade9a67bca4d4f8e40","properties":{"airport":"LFRK","name":"LFRK AVISO","layer":"Buildings and structures","category":"Buildings","object_type":"Area","style_id":"polygon.building.394446","source_group":"LFRK AVISO","vsmr_group_ids":[],"geometry_role":"filled_region"},"geometry":{"type":"Polygon","coordinates":[[[-0.454194444,49.180641667],[-0.454013333,49.180556944],[-0.453856389,49.180708889],[-0.454032222,49.180795556],[-0.454194444,49.180641667]]]}},{"type":"Feature","id":"LFRK-3a762ee849d3248d59d5","properties":{"airport":"LFRK","name":"LFRK AVISO","layer":"Buildings and structures","category":"Buildings","object_type":"Area","style_id":"polygon.building.394446","source_group":"LFRK AVISO","vsmr_group_ids":[],"geometry_role":"filled_region"},"geometry":{"type":"Polygon","coordinates":[[[-0.454409722,49.180876667],[-0.454251111,49.1808025],[-0.454159722,49.180901944],[-0.454312222,49.180969722],[-0.454409722,49.180876667]]]}},{"type":"Feature","id":"LFRK-e41b001728cd88c82cd1","properties":{"airport":"LFRK","name":"LFRK AVISO","layer":"Buildings and structures","category":"Buildings","object_type":"Area","style_id":"polygon.building.394446","source_group":"LFRK AVISO","vsmr_group_ids":[],"geometry_role":"filled_region"},"geometry":{"type":"Polygon","coordinates":[[[-0.457141667,49.182005278],[-0.456905556,49.181891944],[-0.456809722,49.181990833],[-0.457034722,49.182101667],[-0.457141667,49.182005278]]]}},{"type":"Feature","id":"LFRK-8c0e72394cc26be92d22","properties":{"airport":"LFRK","name":"LFRK AVISO","layer":"Buildings and structures","category":"Buildings","object_type":"Area","style_id":"polygon.building.394446","source_group":"LFRK AVISO","vsmr_group_ids":[],"geometry_role":"filled_region"},"geometry":{"type":"Polygon","coordinates":[[[-0.457677778,49.182426389],[-0.457806944,49.182308056],[-0.457573333,49.182206667],[-0.457630556,49.182152222],[-0.457553611,49.182118889],[-0.457506389,49.182171389],[-0.457471944,49.182158611],[-0.457403333,49.182216111],[-0.457623889,49.182328333],[-0.457588056,49.182364722],[-0.457632222,49.182382778],[-0.457622222,49.182400833],[-0.457677778,49.182426389]]]}},{"type":"Feature","id":"LFRK-d22262b17af1f88f7e7b","properties":{"airport":"LFRK","name":"LFRK AVISO","layer":"Buildings and structures","category":"Buildings","object_type":"Area","style_id":"polygon.building.394446","source_group":"LFRK AVISO","vsmr_group_ids":[],"geometry_role":"filled_region"},"geometry":{"type":"Polygon","coordinates":[[[-0.459715556,49.18342],[-0.459816389,49.183465833],[-0.4599675,49.183324722],[-0.459079444,49.182901944],[-0.45883,49.183136111],[-0.459623056,49.183511667],[-0.459715556,49.18342]]]}},{"type":"Feature","id":"LFRK-a49df6b74b58b3e82f2b","properties":{"airport":"LFRK","name":"LFRK AVISO","layer":"Surface markings","category":"Stopbars","object_type":"Area","style_id":"polygon.stopbar.7e0000","source_group":"LFRK AVISO","vsmr_group_ids":[],"geometry_role":"filled_region"},"geometry":{"type":"Polygon","coordinates":[[[-0.462334444,49.180083333],[-0.462355,49.180063056],[-0.462190556,49.179983611],[-0.462168333,49.180003889],[-0.462334444,49.180083333]]]}},{"type":"Feature","id":"LFRK-a5adcd5da579e690095d","properties":{"airport":"LFRK","name":"1","layer":"Labels","category":"Gates","object_type":"Label","style_id":"label.gates","source_group":"LFRK Gates","vsmr_group_ids":[],"geometry_role":"text_label","text-field":"1"},"geometry":{"type":"Point","coordinates":[-0.460336111,49.182977778]}},{"type":"Feature","id":"LFRK-85ee3d5f266e8ac1b133","properties":{"airport":"LFRK","name":"2","layer":"Labels","category":"Gates","object_type":"Label","style_id":"label.gates","source_group":"LFRK Gates","vsmr_group_ids":[],"geometry_role":"text_label","text-field":"2"},"geometry":{"type":"Point","coordinates":[-0.459686111,49.182655556]}},{"type":"Feature","id":"LFRK-c8a5f9035e23a49edc47","properties":{"airport":"LFRK","name":"3","layer":"Labels","category":"Gates","object_type":"Label","style_id":"label.gates","source_group":"LFRK Gates","vsmr_group_ids":[],"geometry_role":"text_label","text-field":"3"},"geometry":{"type":"Point","coordinates":[-0.458955556,49.182341667]}},{"type":"Feature","id":"LFRK-7a6e023d0b3ddb316ad1","properties":{"airport":"LFRK","name":"4","layer":"Labels","category":"Gates","object_type":"Label","style_id":"label.gates","source_group":"LFRK Gates","vsmr_group_ids":[],"geometry_role":"text_label","text-field":"4"},"geometry":{"type":"Point","coordinates":[-0.458230556,49.182030556]}},{"type":"Feature","id":"LFRK-51b32ad3e1c313f409ee","properties":{"airport":"LFRK","name":"5","layer":"Labels","category":"Gates","object_type":"Label","style_id":"label.gates","source_group":"LFRK Gates","vsmr_group_ids":[],"geometry_role":"text_label","text-field":"5"},"geometry":{"type":"Point","coordinates":[-0.457525,49.181694444]}},{"type":"Feature","id":"LFRK-bdf675a90cac40b92eca","properties":{"airport":"LFRK","name":"6","layer":"Labels","category":"Gates","object_type":"Label","style_id":"label.gates","source_group":"LFRK Gates","vsmr_group_ids":[],"geometry_role":"text_label","text-field":"6"},"geometry":{"type":"Point","coordinates":[-0.456827778,49.181347222]}},{"type":"Feature","id":"LFRK-c37798304114f0549aef","properties":{"airport":"LFRK","name":"Parking Herbe","layer":"Labels","category":"Gates","object_type":"Label","style_id":"label.gates","source_group":"LFRK Gates","vsmr_group_ids":[],"geometry_role":"text_label","text-field":"Parking Herbe"},"geometry":{"type":"Point","coordinates":[-0.459740556,49.181615]}},{"type":"Feature","id":"LFRK-992c7dcfb6210e127ba8","properties":{"airport":"LFRK","name":"Terminal","layer":"Labels","category":"Gates","object_type":"Label","style_id":"label.gates","source_group":"LFRK Gates","vsmr_group_ids":[],"geometry_role":"text_label","text-field":"Terminal"},"geometry":{"type":"Point","coordinates":[-0.45962,49.183349167]}},{"type":"Feature","id":"LFRK-3c7c8ae596af8cd3de38","properties":{"airport":"LFRK","name":"TWR","layer":"Labels","category":"Gates","object_type":"Label","style_id":"label.gates","source_group":"LFRK Gates","vsmr_group_ids":[],"geometry_role":"text_label","text-field":"TWR"},"geometry":{"type":"Point","coordinates":[-0.457376111,49.182300556]}},{"type":"Feature","id":"LFRK-b9e5f37d5cbaa9d80586","properties":{"airport":"LFRK","name":"ACB","layer":"Labels","category":"Gates","object_type":"Label","style_id":"label.gates","source_group":"LFRK Gates","vsmr_group_ids":[],"geometry_role":"text_label","text-field":"ACB"},"geometry":{"type":"Point","coordinates":[-0.454729167,49.181096944]}},{"type":"Feature","id":"LFRK-041a24e773a71dfc9da7","properties":{"airport":"LFRK","name":"Hangars","layer":"Labels","category":"Gates","object_type":"Label","style_id":"label.gates","source_group":"LFRK Gates","vsmr_group_ids":[],"geometry_role":"text_label","text-field":"Hangars"},"geometry":{"type":"Point","coordinates":[-0.452284722,49.179911389]}},{"type":"Feature","id":"LFRK-4b5f90991115c4145162","properties":{"airport":"LFRK","name":"LFRK Groundlayout AVISO","layer":"Guidance lines","category":"Taxiways","object_type":"Line","style_id":"line.taxiway.c0b631","source_group":"LFRK Groundlayout AVISO","vsmr_group_ids":[],"geometry_role":"linework"},"geometry":{"type":"MultiLineString","coordinates":[[[-0.460266667,49.183153889],[-0.460183611,49.182841111]],[[-0.459568889,49.182822222],[-0.459485833,49.1825425]],[[-0.458871111,49.182528611],[-0.458788056,49.182221111]],[[-0.458167778,49.182201944],[-0.4580875,49.181890833]],[[-0.457475278,49.181876944],[-0.457387222,49.181564167]],[[-0.456769722,49.181548611],[-0.456686667,49.181235833]],[[-0.455746111,49.1807675],[-0.455955556,49.180704167]],[[-0.455353889,49.180585556],[-0.455562778,49.180525]],[[-0.454957778,49.180405833],[-0.455164167,49.180340556]],[[-0.454566389,49.180221389],[-0.454775,49.180160833]]]}},{"type":"Feature","id":"LFRK-e4c93a1441c99f4e6a0f","properties":{"airport":"LFRK","name":"A1","layer":"Labels","category":"Taxiways","object_type":"Label","style_id":"label.taxiways","source_group":"LFRK Taxiways","vsmr_group_ids":[],"geometry_role":"text_label","text-field":"A1"},"geometry":{"type":"Point","coordinates":[-0.462747778,49.180126111]}},{"type":"Feature","id":"LFRK-3fa62055ce9b24e09fb9","properties":{"airport":"LFRK","name":"A","layer":"Labels","category":"Taxiways","object_type":"Label","style_id":"label.taxiways","source_group":"LFRK Taxiways","vsmr_group_ids":[],"geometry_role":"text_label","text-field":"A"},"geometry":{"type":"Point","coordinates":[-0.459113056,49.182064167]}},{"type":"Feature","id":"LFRK-06fc5315d62f5ed100b5","properties":{"airport":"LFRK","name":"H","layer":"Labels","category":"Taxiways","object_type":"Label","style_id":"label.taxiways","source_group":"LFRK Taxiways","vsmr_group_ids":[],"geometry_role":"text_label","text-field":"H"},"geometry":{"type":"Point","coordinates":[-0.4586125,49.180919444]}},{"type":"Feature","id":"LFRK-ed63f48531f704861f39","properties":{"airport":"LFRK","name":"H","layer":"Labels","category":"Taxiways","object_type":"Label","style_id":"label.taxiways","source_group":"LFRK Taxiways","vsmr_group_ids":[],"geometry_role":"text_label","text-field":"H"},"geometry":{"type":"Point","coordinates":[-0.454701389,49.179581944]}},{"type":"Feature","id":"LFRK-656c36a64706ad37edcd","properties":{"airport":"LFRK","name":"H","layer":"Labels","category":"Taxiways","object_type":"Label","style_id":"label.taxiways","source_group":"LFRK Taxiways","vsmr_group_ids":[],"geometry_role":"text_label","text-field":"H"},"geometry":{"type":"Point","coordinates":[-0.452288889,49.178012222]}},{"type":"Feature","id":"LFRK-b7fb2b57871bba8607ed","properties":{"airport":"LFRK","name":"H3","layer":"Labels","category":"Taxiways","object_type":"Label","style_id":"label.taxiways","source_group":"LFRK Taxiways","vsmr_group_ids":[],"geometry_role":"text_label","text-field":"H3"},"geometry":{"type":"Point","coordinates":[-0.448267778,49.175737778]}},{"type":"Feature","id":"LFRK-dd8020ee73c53aed0027","properties":{"airport":"LFRK","name":"H2","layer":"Labels","category":"Taxiways","object_type":"Label","style_id":"label.taxiways","source_group":"LFRK Taxiways","vsmr_group_ids":[],"geometry_role":"text_label","text-field":"H2"},"geometry":{"type":"Point","coordinates":[-0.455383056,49.178989167]}},{"type":"Feature","id":"LFRK-98e8e113a4c980b97c51","properties":{"airport":"LFRK","name":"H1","layer":"Labels","category":"Taxiways","object_type":"Label","style_id":"label.taxiways","source_group":"LFRK Taxiways","vsmr_group_ids":[],"geometry_role":"text_label","text-field":"H1"},"geometry":{"type":"Point","coordinates":[-0.457508333,49.179966667]}},{"type":"Feature","id":"LFRK-f7e64e6076339d7de1e0","properties":{"airport":"LFRK","name":"X","layer":"Labels","category":"Taxiways","object_type":"Label","style_id":"label.taxiways","source_group":"LFRK Taxiways","vsmr_group_ids":[],"geometry_role":"text_label","text-field":"X"},"geometry":{"type":"Point","coordinates":[-0.453706111,49.171345278]}},{"type":"Feature","id":"LFRK-0364d858b87fc4dfa71b","properties":{"airport":"LFRK","name":"X","layer":"Labels","category":"Taxiways","object_type":"Label","style_id":"label.taxiways","source_group":"LFRK Taxiways","vsmr_group_ids":[],"geometry_role":"text_label","text-field":"X"},"geometry":{"type":"Point","coordinates":[-0.445664167,49.178341389]}},{"type":"Feature","id":"LFRK-78fe7c85e342b185f900","properties":{"airport":"LFRK","name":"X","layer":"Labels","category":"Taxiways","object_type":"Label","style_id":"label.taxiways","source_group":"LFRK Taxiways","vsmr_group_ids":[],"geometry_role":"text_label","text-field":"X"},"geometry":{"type":"Point","coordinates":[-0.449234722,49.174200833]}},{"type":"Feature","id":"LFRK-cc749ed5f60c74432b9f","properties":{"airport":"LFRK","name":"X","layer":"Labels","category":"Taxiways","object_type":"Label","style_id":"label.taxiways","source_group":"LFRK Taxiways","vsmr_group_ids":[],"geometry_role":"text_label","text-field":"X"},"geometry":{"type":"Point","coordinates":[-0.449580556,49.174344167]}},{"type":"Feature","id":"LFRK-274e1630605475a7c291","properties":{"airport":"LFRK","name":"X","layer":"Labels","category":"Taxiways","object_type":"Label","style_id":"label.taxiways","source_group":"LFRK Taxiways","vsmr_group_ids":[],"geometry_role":"text_label","text-field":"X"},"geometry":{"type":"Point","coordinates":[-0.45098,49.174986389]}},{"type":"Feature","id":"LFRK-995fadbb518665104b2b","properties":{"airport":"LFRK","name":"X","layer":"Labels","category":"Taxiways","object_type":"Label","style_id":"label.taxiways","source_group":"LFRK Taxiways","vsmr_group_ids":[],"geometry_role":"text_label","text-field":"X"},"geometry":{"type":"Point","coordinates":[-0.450703333,49.174860556]}},{"type":"Feature","id":"LFRK-47dff13e09e8e5d2e3cd","properties":{"airport":"LFRK","name":"X","layer":"Labels","category":"Taxiways","object_type":"Label","style_id":"label.taxiways","source_group":"LFRK Taxiways","vsmr_group_ids":[],"geometry_role":"text_label","text-field":"X"},"geometry":{"type":"Point","coordinates":[-0.452347778,49.175621389]}},{"type":"Feature","id":"LFRK-725bb7a825532c942862","properties":{"airport":"LFRK","name":"X","layer":"Labels","category":"Taxiways","object_type":"Label","style_id":"label.taxiways","source_group":"LFRK Taxiways","vsmr_group_ids":[],"geometry_role":"text_label","text-field":"X"},"geometry":{"type":"Point","coordinates":[-0.453005278,49.175929444]}},{"type":"Feature","id":"LFRK-f8d5de1ea553297d575f","properties":{"airport":"LFRK","name":"X","layer":"Labels","category":"Taxiways","object_type":"Label","style_id":"label.taxiways","source_group":"LFRK Taxiways","vsmr_group_ids":[],"geometry_role":"text_label","text-field":"X"},"geometry":{"type":"Point","coordinates":[-0.456694167,49.176868611]}},{"type":"Feature","id":"LFRK-254790140acba32ba45e","properties":{"airport":"LFRK","name":"X","layer":"Labels","category":"Taxiways","object_type":"Label","style_id":"label.taxiways","source_group":"LFRK Taxiways","vsmr_group_ids":[],"geometry_role":"text_label","text-field":"X"},"geometry":{"type":"Point","coordinates":[-0.456451667,49.177156111]}},{"type":"Feature","id":"LFRK-3e48ade2fbc70b2269b5","properties":{"airport":"LFRK","name":"X","layer":"Labels","category":"Taxiways","object_type":"Label","style_id":"label.taxiways","source_group":"LFRK Taxiways","vsmr_group_ids":[],"geometry_role":"text_label","text-field":"X"},"geometry":{"type":"Point","coordinates":[-0.461789167,49.180010833]}},{"type":"Feature","id":"LFRK-944b95e3f7deff17190a","properties":{"airport":"LFRK","name":"X","layer":"Labels","category":"Taxiways","object_type":"Label","style_id":"label.taxiways","source_group":"LFRK Taxiways","vsmr_group_ids":[],"geometry_role":"text_label","text-field":"X"},"geometry":{"type":"Point","coordinates":[-0.461265556,49.1797875]}},{"type":"Feature","id":"LFRK-4df5669d69e5c6a334c5","properties":{"airport":"LFRK","name":"X","layer":"Labels","category":"Taxiways","object_type":"Label","style_id":"label.taxiways","source_group":"LFRK Taxiways","vsmr_group_ids":[],"geometry_role":"text_label","text-field":"X"},"geometry":{"type":"Point","coordinates":[-0.456518056,49.177565833]}},{"type":"Feature","id":"LFRK-6b88f833459e9365baac","properties":{"airport":"LFRK","name":"X","layer":"Labels","category":"Taxiways","object_type":"Label","style_id":"label.taxiways","source_group":"LFRK Taxiways","vsmr_group_ids":[],"geometry_role":"text_label","text-field":"X"},"geometry":{"type":"Point","coordinates":[-0.456926667,49.177742778]}},{"type":"Feature","id":"LFRK-df8748b3550b97795bd5","properties":{"airport":"LFRK","name":"X","layer":"Labels","category":"Taxiways","object_type":"Label","style_id":"label.taxiways","source_group":"LFRK Taxiways","vsmr_group_ids":[],"geometry_role":"text_label","text-field":"X"},"geometry":{"type":"Point","coordinates":[-0.455661389,49.177166389]}},{"type":"Feature","id":"LFRK-ea18ae9d692e7097c970","properties":{"airport":"LFRK","name":"X","layer":"Labels","category":"Taxiways","object_type":"Label","style_id":"label.taxiways","source_group":"LFRK Taxiways","vsmr_group_ids":[],"geometry_role":"text_label","text-field":"X"},"geometry":{"type":"Point","coordinates":[-0.455058611,49.176902778]}},{"type":"Feature","id":"LFRK-f5851d5e5a0bdc90e404","properties":{"airport":"LFRK","name":"X","layer":"Labels","category":"Taxiways","object_type":"Label","style_id":"label.taxiways","source_group":"LFRK Taxiways","vsmr_group_ids":[],"geometry_role":"text_label","text-field":"X"},"geometry":{"type":"Point","coordinates":[-0.448676389,49.176793889]}},{"type":"Feature","id":"LFRK-6db2f591ede65e7c5774","properties":{"airport":"LFRK","name":"X","layer":"Labels","category":"Taxiways","object_type":"Label","style_id":"label.taxiways","source_group":"LFRK Taxiways","vsmr_group_ids":[],"geometry_role":"text_label","text-field":"X"},"geometry":{"type":"Point","coordinates":[-0.446309444,49.178031667]}},{"type":"Feature","id":"LFRK-e07b5208ea10a9aa420e","properties":{"airport":"LFRK","name":"X","layer":"Labels","category":"Taxiways","object_type":"Label","style_id":"label.taxiways","source_group":"LFRK Taxiways","vsmr_group_ids":[],"geometry_role":"text_label","text-field":"X"},"geometry":{"type":"Point","coordinates":[-0.452003056,49.175112222]}},{"type":"Feature","id":"LFRK-db6afdccb800fd9a6592","properties":{"airport":"LFRK","name":"X","layer":"Labels","category":"Taxiways","object_type":"Label","style_id":"label.taxiways","source_group":"LFRK Taxiways","vsmr_group_ids":[],"geometry_role":"text_label","text-field":"X"},"geometry":{"type":"Point","coordinates":[-0.4660475,49.181361944]}},{"type":"Feature","id":"LFRK-de585b4917b351f3f837","properties":{"airport":"LFRK","name":"X","layer":"Labels","category":"Taxiways","object_type":"Label","style_id":"label.taxiways","source_group":"LFRK Taxiways","vsmr_group_ids":[],"geometry_role":"text_label","text-field":"X"},"geometry":{"type":"Point","coordinates":[-0.466063611,49.181669167]}},{"type":"Feature","id":"LFRK-af7b0512797ea9fec5bf","properties":{"airport":"LFRK","name":"X","layer":"Labels","category":"Taxiways","object_type":"Label","style_id":"label.taxiways","source_group":"LFRK Taxiways","vsmr_group_ids":[],"geometry_role":"text_label","text-field":"X"},"geometry":{"type":"Point","coordinates":[-0.451481944,49.175348889]}},{"type":"Feature","id":"LFRK-1f57ad5c8559857d6ba6","properties":{"airport":"LFRK","name":"X","layer":"Labels","category":"Taxiways","object_type":"Label","style_id":"label.taxiways","source_group":"LFRK Taxiways","vsmr_group_ids":[],"geometry_role":"text_label","text-field":"X"},"geometry":{"type":"Point","coordinates":[-0.448914167,49.176679444]}},{"type":"Feature","id":"LFRK-353017fce49c3f15ba2f","properties":{"airport":"LFRK","name":"X","layer":"Labels","category":"Taxiways","object_type":"Label","style_id":"label.taxiways","source_group":"LFRK Taxiways","vsmr_group_ids":[],"geometry_role":"text_label","text-field":"X"},"geometry":{"type":"Point","coordinates":[-0.450313056,49.173077222]}},{"type":"Feature","id":"LFRK-5690d10c870fe8d37627","properties":{"airport":"LFRK","name":"X","layer":"Labels","category":"Taxiways","object_type":"Label","style_id":"label.taxiways","source_group":"LFRK Taxiways","vsmr_group_ids":[],"geometry_role":"text_label","text-field":"X"},"geometry":{"type":"Point","coordinates":[-0.449466111,49.173515833]}},{"type":"Feature","id":"LFRK-60c357ebfdb8dbe93e9a","properties":{"airport":"LFRK","name":"X","layer":"Labels","category":"Taxiways","object_type":"Label","style_id":"label.taxiways","source_group":"LFRK Taxiways","vsmr_group_ids":[],"geometry_role":"text_label","text-field":"X"},"geometry":{"type":"Point","coordinates":[-0.442754722,49.176954722]}},{"type":"Feature","id":"LFRK-6957e8c754627a47c253","properties":{"airport":"LFRK","name":"X","layer":"Labels","category":"Taxiways","object_type":"Label","style_id":"label.taxiways","source_group":"LFRK Taxiways","vsmr_group_ids":[],"geometry_role":"text_label","text-field":"X"},"geometry":{"type":"Point","coordinates":[-0.453362222,49.171515556]}},{"type":"Feature","id":"LFRK-6c34d61717ed397183c9","properties":{"airport":"LFRK","name":"X","layer":"Labels","category":"Taxiways","object_type":"Label","style_id":"label.taxiways","source_group":"LFRK Taxiways","vsmr_group_ids":[],"geometry_role":"text_label","text-field":"X"},"geometry":{"type":"Point","coordinates":[-0.450756111,49.172841111]}},{"type":"Feature","id":"LFRK-4843739616f7be97c58c","properties":{"airport":"LFRK","name":"X","layer":"Labels","category":"Taxiways","object_type":"Label","style_id":"label.taxiways","source_group":"LFRK Taxiways","vsmr_group_ids":[],"geometry_role":"text_label","text-field":"X"},"geometry":{"type":"Point","coordinates":[-0.448941389,49.173786667]}},{"type":"Feature","id":"LFRK-73d18afda4194db10581","properties":{"airport":"LFRK","name":"X","layer":"Labels","category":"Taxiways","object_type":"Label","style_id":"label.taxiways","source_group":"LFRK Taxiways","vsmr_group_ids":[],"geometry_role":"text_label","text-field":"X"},"geometry":{"type":"Point","coordinates":[-0.443428611,49.176591944]}},{"type":"Feature","id":"LFRK-c43f5b7877bb042cc21f","properties":{"airport":"LFRK","name":"X","layer":"Labels","category":"Taxiways","object_type":"Label","style_id":"label.taxiways","source_group":"LFRK Taxiways","vsmr_group_ids":[],"geometry_role":"text_label","text-field":"X"},"geometry":{"type":"Point","coordinates":[-0.452958889,49.171725278]}},{"type":"Feature","id":"LFRK-6b680abede00a1a90a67","properties":{"airport":"LFRK","name":"X","layer":"Labels","category":"Taxiways","object_type":"Label","style_id":"label.taxiways","source_group":"LFRK Taxiways","vsmr_group_ids":[],"geometry_role":"text_label","text-field":"X"},"geometry":{"type":"Point","coordinates":[-0.451285556,49.172590556]}},{"type":"Feature","id":"LFRK-7565a96cc8cda38e3dab","properties":{"airport":"LFRK","name":"X","layer":"Labels","category":"Taxiways","object_type":"Label","style_id":"label.taxiways","source_group":"LFRK Taxiways","vsmr_group_ids":[],"geometry_role":"text_label","text-field":"X"},"geometry":{"type":"Point","coordinates":[-0.448499167,49.174017222]}},{"type":"Feature","id":"LFRK-a9e6ee2c2424e5908b46","properties":{"airport":"LFRK","name":"X","layer":"Labels","category":"Taxiways","object_type":"Label","style_id":"label.taxiways","source_group":"LFRK Taxiways","vsmr_group_ids":[],"geometry_role":"text_label","text-field":"X"},"geometry":{"type":"Point","coordinates":[-0.444293889,49.176193056]}}]}
