{"type":"FeatureCollection","name":"LFTW AVISO","bbox":[4.372939444,43.713868333,4.450361667,43.779215833],"metadata":{"schema":"vSMR AVISO","schema_version":2,"geometry_mode":"shared","airport":"LFTW","coordinate_reference_system":"WGS84","coordinate_order":"longitude, latitude","default_color_palette":"dark","color_palettes":["dark","light"],"background_colors":{"dark":"#434A4F","light":"#434A4F"},"runways":[{"ends":["18","36"],"headings":[175,355],"thresholds":[[4.415555833,43.768407778],[4.417135833,43.746446944]]}],"saved_active_runways":[],"saved_active_airport_modes":[],"airport_reference":[4.416388889,43.7575],"feature_count":47,"style_count":9,"layer_counts":{"Airfield surfaces":2,"Buildings and structures":11,"Guidance lines":4,"Labels":8,"Terrain":22},"category_counts":{"Apron Surface":1,"Buildings":11,"Gates":8,"Grass":22,"Hard Surface 2":2,"Runways":1,"Stopbars":1,"Taxiways":1},"geometry_source":"local GNG","geometry_source_url":"","geometry_license":"GPL-3.0"},"styles":{"line.taxiway.c0b631":{"name":"Taxiways","layer":"Guidance lines","object_type":"Line","paint":{"stroke":"#4E5A69","stroke-opacity":1,"stroke-width":1,"palette-overrides":{"light":{"stroke":"#C0B631"}}},"feature_count":1},"line.runwayconcrete.555555":{"name":"Runways","layer":"Guidance lines","object_type":"Line","paint":{"stroke":"#111318","stroke-opacity":1,"stroke-width":1,"palette-overrides":{"light":{"stroke":"#555555"}}},"feature_count":1},"line.apronsurface.808080":{"name":"Apron Surface","layer":"Guidance lines","object_type":"Line","paint":{"stroke":"#808080","stroke-opacity":1,"stroke-width":1,"palette-overrides":{"light":{"stroke":"#808080"}}},"feature_count":1},"label.gates":{"name":"Gates","layer":"Labels","object_type":"Label","paint":{"text-color":"#CCCCCC","text-font":"Arial","text-size":12,"text-halo-color":"#000000","text-halo-width":1,"text-anchor":"center","zoomLevel":9},"feature_count":8},"polygon.terrain2.868686":{"name":"Hard Surface 2","layer":"Airfield surfaces","object_type":"Area","paint":{"fill":"#2F3949","fill-opacity":1,"palette-overrides":{"light":{"fill":"#595E5B"}}},"feature_count":1},"polygon.hardsurface2.595e5b":{"name":"Hard Surface 2","layer":"Airfield surfaces","object_type":"Area","paint":{"fill":"#2F3949","fill-opacity":1,"palette-overrides":{"light":{"fill":"#595E5B"}}},"feature_count":1},"polygon.grassurface.00512f":{"name":"Grass","layer":"Terrain","object_type":"Area","paint":{"fill":"#010D19","fill-opacity":1,"palette-overrides":{"light":{"fill":"#00512F"}}},"feature_count":22},"polygon.building.394446":{"name":"Buildings","layer":"Buildings and structures","object_type":"Area","paint":{"fill":"#475570","fill-opacity":1,"palette-overrides":{"light":{"fill":"#394446"}}},"feature_count":11},"line.stopbar.7e0000":{"name":"Stopbars","layer":"Guidance lines","object_type":"Line","paint":{"stroke":"#7E0000","stroke-opacity":1,"stroke-width":1,"palette-overrides":{"light":{"stroke":"#7E0000"}}},"feature_count":1}},"vsmr_groups":[],"features":[{"type":"Feature","id":"LFTW-fd988e8a77eac64fd3a2","properties":{"airport":"LFTW","name":"LFTW AVISO","layer":"Airfield surfaces","category":"Hard Surface 2","object_type":"Area","style_id":"polygon.terrain2.868686","source_group":"LFTW AVISO","vsmr_group_ids":[],"geometry_role":"filled_region"},"geometry":{"type":"Polygon","coordinates":[[[4.374692778,43.713868333],[4.450361667,43.714244722],[4.448350556,43.779215833],[4.372939444,43.776264722],[4.374692778,43.713868333]]]}},{"type":"Feature","id":"LFTW-855cbc274a0e9761b6e5","properties":{"airport":"LFTW","name":"LFTW AVISO","layer":"Airfield surfaces","category":"Hard Surface 2","object_type":"Area","style_id":"polygon.hardsurface2.595e5b","source_group":"LFTW AVISO","vsmr_group_ids":[],"geometry_role":"filled_region"},"geometry":{"type":"Polygon","coordinates":[[[4.412559167,43.768295833],[4.412285278,43.768431667],[4.412246111,43.768611389],[4.412271111,43.768645],[4.412278056,43.768655278],[4.412288889,43.768798889],[4.412224722,43.768896667],[4.412153611,43.768924722],[4.411986389,43.768919722],[4.411883333,43.768855556],[4.411844167,43.768786111],[4.411840833,43.768709167],[4.4118975,43.768634722],[4.412007778,43.768578056],[4.412046944,43.768385556],[4.411840556,43.768183611],[4.411445833,43.768078333],[4.4110475,43.768150278],[4.410983333,43.768296667],[4.411015556,43.768358333],[4.410983333,43.768476389],[4.410883889,43.768558611],[4.410752222,43.768566111],[4.410606389,43.768545556],[4.410524722,43.768450556],[4.410506944,43.768363333],[4.410556667,43.768255556],[4.410645556,43.768214444],[4.410773611,43.768206667],[4.410883889,43.768070556],[4.410825,43.767804444],[4.410462222,43.767593889],[4.410124444,43.767573333],[4.4099075,43.767668333],[4.409911111,43.767717222],[4.409900278,43.767801944],[4.409843333,43.767876389],[4.409683333,43.767896944],[4.409537778,43.767868611],[4.409463056,43.767814722],[4.409434444,43.7677275],[4.409466667,43.767622222],[4.409555556,43.767555278],[4.409694167,43.767547778],[4.409808056,43.767547778],[4.409985833,43.767437222],[4.410039167,43.767188333],[4.409807778,43.766879444],[4.409533889,43.766792222],[4.409270833,43.766843333],[4.409231667,43.766923056],[4.409093056,43.766966667],[4.408982778,43.766969167],[4.4088725,43.766938333],[4.408812222,43.766874167],[4.408783611,43.7668075],[4.408801389,43.766722778],[4.408844167,43.766676389],[4.408929444,43.766643056],[4.409039722,43.766632778],[4.409203333,43.766658611],[4.409445,43.766594444],[4.409583889,43.766394167],[4.409534167,43.766049444],[4.409303056,43.765893889],[4.409064722,43.765873333],[4.408983056,43.76593],[4.40888,43.765942778],[4.408741111,43.76593],[4.408673611,43.765899167],[4.408620278,43.76584],[4.408613333,43.765752778],[4.4086275,43.765685833],[4.408702222,43.765631944],[4.408808889,43.765603889],[4.408933333,43.765614167],[4.409015,43.765655278],[4.409061389,43.765719444],[4.409335,43.765709167],[4.409406111,43.765657778],[4.409580556,43.765539722],[4.409669722,43.765239167],[4.40957,43.765013333],[4.409356667,43.764964444],[4.409129167,43.7649875],[4.408990556,43.764961944],[4.40893,43.764905278],[4.408894444,43.764795],[4.408905278,43.764689722],[4.408976389,43.764617778],[4.409108056,43.764592222],[4.409253611,43.764594722],[4.4093925,43.764664167],[4.409442222,43.764748889],[4.409705278,43.764807778],[4.409957778,43.764764167],[4.410225833,43.764494722],[4.410208056,43.764236944],[4.410083611,43.764129167],[4.409937778,43.764113889],[4.409767222,43.764098333],[4.409713889,43.764036667],[4.409681944,43.763933889],[4.409706944,43.763831389],[4.409806389,43.763769722],[4.409952222,43.763743889],[4.410119167,43.7637775],[4.410204722,43.763839167],[4.41024,43.763921111],[4.410234444,43.763983333],[4.410366111,43.764111944],[4.410678889,43.764114444],[4.410725278,43.763893611],[4.410060278,43.763167222],[4.410103333,43.762386111],[4.4113825,43.762450278],[4.411555833,43.7594875],[4.412555,43.759536389],[4.412480278,43.760639444],[4.412565556,43.760693333],[4.412636667,43.760729444],[4.412768056,43.7607475],[4.412949444,43.760734444],[4.413173611,43.760644722],[4.413367778,43.760528611],[4.413485,43.758766389],[4.413403333,43.758733056],[4.413165,43.758733056],[4.4130725,43.758825278],[4.412923333,43.758925556],[4.4127775,43.758981944],[4.412567778,43.758981944],[4.412375833,43.758930556],[4.412259444,43.758875278],[4.412184722,43.758903611],[4.412238056,43.758318056],[4.41232,43.758341389],[4.412376667,43.758305278],[4.412508333,43.758269444],[4.412725278,43.758264167],[4.412917222,43.758310556],[4.413098611,43.758431111],[4.413176667,43.758564722],[4.413425556,43.75857],[4.413521667,43.758528889],[4.413564444,43.757952222],[4.413546667,43.757888056],[4.413503889,43.757851944],[4.413375833,43.757818611],[4.412468889,43.757781111],[4.412472222,43.757737222],[4.411675833,43.757726944],[4.4121325,43.751670833],[4.413108889,43.751697222],[4.413123056,43.751545556],[4.413261667,43.751540556],[4.413273056,43.751241944],[4.414033889,43.75126],[4.414051667,43.750486389],[4.414033889,43.750440278],[4.413962778,43.750391389],[4.413870278,43.750375833],[4.412723889,43.750311667],[4.412741667,43.750052222],[4.412574722,43.750045833],[4.412653056,43.749348333],[4.412791667,43.749350833],[4.412788056,43.749086111],[4.413975278,43.749119722],[4.414106944,43.749086389],[4.414174444,43.749022222],[4.414188611,43.748868056],[4.414181667,43.748744722],[4.414110556,43.748626667],[4.413975278,43.748516111],[4.413843889,43.748488056],[4.412322778,43.748423611],[4.411764722,43.748410833],[4.411533611,43.748408056],[4.411402222,43.748421111],[4.411338056,43.748469722],[4.411331111,43.748580278],[4.411334444,43.748628889],[4.411345278,43.748680278],[4.411483889,43.748754722],[4.4114625,43.7492325],[4.410790556,43.749196389],[4.410836944,43.748689167],[4.410893611,43.748683889],[4.411000278,43.748666111],[4.411060833,43.748596667],[4.411075,43.74822],[4.411714167,43.748252222],[4.411774722,43.748246944],[4.411884722,43.748205833],[4.411948889,43.748151944],[4.411977222,43.748069722],[4.411970278,43.747985],[4.411934722,43.747949167],[4.411799722,43.747936389],[4.411828056,43.74751],[4.412403889,43.747525556],[4.412364722,43.747972222],[4.412279444,43.747987778],[4.412236667,43.748013333],[4.412208333,43.748067222],[4.412204722,43.748144167],[4.412236667,43.748205833],[4.412332778,43.748272778],[4.412457222,43.748275],[4.413820556,43.748326389],[4.413941389,43.748295556],[4.414083611,43.748221111],[4.414151111,43.748154444],[4.414208056,43.7479875],[4.414265,43.7479875],[4.4143875,43.746347222],[4.4168525,43.7464375],[4.416908333,43.745609722],[4.417495278,43.74562],[4.417433889,43.746417222],[4.417618056,43.746424722],[4.417722222,43.7464575],[4.417847222,43.746587778],[4.417899444,43.746713333],[4.417909722,43.746846389],[4.417885556,43.746994444],[4.417798611,43.747104722],[4.417621389,43.747275278],[4.417451389,43.747488611],[4.417403611,43.748041111],[4.416761111,43.756748056],[4.416761111,43.756775278],[4.416790556,43.756811667],[4.416912222,43.756833056],[4.418899167,43.756892222],[4.41892,43.756792222],[4.419558056,43.756813333],[4.419537222,43.7569225],[4.421455556,43.757004444],[4.421468333,43.756952778],[4.423303333,43.757074167],[4.423240556,43.757419722],[4.423756944,43.757459167],[4.423731667,43.757650278],[4.420848056,43.757489444],[4.4208775,43.757231944],[4.419541389,43.757195278],[4.419537222,43.757283333],[4.418886667,43.757253056],[4.418895,43.757177222],[4.417043611,43.757089167],[4.416854722,43.757089167],[4.416770833,43.757119444],[4.416737222,43.757168056],[4.416538611,43.760413611],[4.416558889,43.760524722],[4.416652222,43.760659722],[4.416838611,43.760741667],[4.416842778,43.760741667],[4.417090278,43.760794444],[4.417881111,43.760838333],[4.418165,43.760823611],[4.418392222,43.760726944],[4.418550278,43.76056],[4.418664722,43.759268889],[4.419430278,43.759276667],[4.421133611,43.759241389],[4.421097222,43.759704444],[4.4210525,43.761144722],[4.419896667,43.761100556],[4.4198925,43.760910278],[4.419876389,43.760819444],[4.419799167,43.760702222],[4.419641111,43.760611389],[4.419499167,43.760588056],[4.419381389,43.760593889],[4.419263889,43.7606525],[4.4188825,43.760898611],[4.418722778,43.763257222],[4.418733889,43.763359167],[4.418741111,43.763484444],[4.418806111,43.763586111],[4.418921667,43.763669722],[4.419109722,43.763706389],[4.419351944,43.763706389],[4.419550833,43.763651389],[4.419688333,43.763581111],[4.419731667,43.763492222],[4.419816389,43.762286667],[4.420004444,43.762294444],[4.420047778,43.761934167],[4.421385556,43.761973333],[4.421349444,43.762469444],[4.421258889,43.762469444],[4.421110833,43.762579167],[4.420998056,43.764042778],[4.419165278,43.763982778],[4.419038611,43.764011389],[4.418973611,43.764055833],[4.418930278,43.764102778],[4.418893889,43.764927222],[4.418908333,43.764955833],[4.418940833,43.76499],[4.419016944,43.764981944],[4.419045833,43.764822778],[4.419671389,43.764822778],[4.419609722,43.765781389],[4.418637222,43.765752778],[4.418763889,43.764051111],[4.416820278,43.763993056],[4.416606944,43.764003611],[4.416444167,43.764063611],[4.416303056,43.764188889],[4.416230833,43.764301111],[4.416137778,43.765876667],[4.416016944,43.767316389],[4.416020833,43.767394167],[4.416096389,43.767533889],[4.416223333,43.767700278],[4.416376944,43.767861389],[4.416415278,43.768036111],[4.4163575,43.768210833],[4.41625,43.768349444],[4.416058056,43.7684575],[4.415858333,43.7684825],[4.415812222,43.769228611],[4.415224444,43.769203611],[4.415278333,43.768396667],[4.414103056,43.768363056],[4.412559167,43.768295833]]]}},{"type":"Feature","id":"LFTW-98a393bc45fb0443d020","properties":{"airport":"LFTW","name":"LFTW AVISO","layer":"Terrain","category":"Grass","object_type":"Area","style_id":"polygon.grassurface.00512f","source_group":"LFTW AVISO","vsmr_group_ids":[],"geometry_role":"filled_region"},"geometry":{"type":"Polygon","coordinates":[[[4.413098056,43.767422222],[4.414046389,43.768190278],[4.413484444,43.768166389],[4.413399444,43.768142778],[4.413284167,43.768089167],[4.413182778,43.768023889],[4.413103333,43.767942778],[4.413084167,43.7678675],[4.413073333,43.767821944],[4.413098056,43.767422222]]]}},{"type":"Feature","id":"LFTW-c5b7b449af5a9fb63a8d","properties":{"airport":"LFTW","name":"LFTW AVISO","layer":"Terrain","category":"Grass","object_type":"Area","style_id":"polygon.grassurface.00512f","source_group":"LFTW AVISO","vsmr_group_ids":[],"geometry_role":"filled_region"},"geometry":{"type":"Polygon","coordinates":[[[4.41284,43.767807778],[4.412765,43.767943889],[4.412664167,43.768027778],[4.412470278,43.768095],[4.412320278,43.7681175],[4.412235,43.768108056],[4.412093056,43.76794],[4.412168056,43.767764722],[4.412299722,43.7677125],[4.412366944,43.767645278],[4.412385,43.767538889],[4.412341111,43.767430556],[4.412204167,43.767369167],[4.412051667,43.767352222],[4.411888889,43.767425],[4.4118425,43.767507222],[4.411826944,43.767593056],[4.411850278,43.767684444],[4.411881111,43.767729167],[4.41185,43.767869167],[4.411583889,43.767953056],[4.411227222,43.767852222],[4.410986944,43.767731111],[4.410589444,43.767493333],[4.410627778,43.767242222],[4.410788056,43.7671675],[4.410958611,43.767169444],[4.411093056,43.767137778],[4.411173056,43.767061111],[4.411183611,43.766962222],[4.411139444,43.766861667],[4.411036111,43.7668],[4.410888889,43.766788611],[4.410757222,43.766829722],[4.4106925,43.7669025],[4.410666667,43.766988333],[4.410475278,43.767113333],[4.410165278,43.767085278],[4.409898333,43.766685],[4.409782222,43.766384444],[4.409751111,43.766276389],[4.409906111,43.7661625],[4.410243611,43.766156111],[4.410372778,43.766198889],[4.4105175,43.766197222],[4.410602778,43.766172778],[4.410664722,43.766118611],[4.410683056,43.766038611],[4.410688056,43.765924722],[4.410639167,43.765868611],[4.410494444,43.765812778],[4.4103575,43.765818333],[4.410238611,43.765870556],[4.410163611,43.765928333],[4.409956944,43.765930278],[4.409734722,43.765786389],[4.409764167,43.76556],[4.409836667,43.765338056],[4.409968611,43.7650675],[4.410038333,43.764951667],[4.410363889,43.76489],[4.410562778,43.764983333],[4.410586111,43.765084167],[4.410661111,43.765164444],[4.410756667,43.765186944],[4.410929722,43.765185],[4.411004722,43.765136667],[4.411066667,43.76506],[4.411077222,43.764955556],[4.411020278,43.764877222],[4.410916944,43.764830556],[4.410761944,43.764826667],[4.410632778,43.764845278],[4.410475556,43.764770833],[4.410423889,43.7645225],[4.410708611,43.764295],[4.410969722,43.764153333],[4.411321111,43.763992778],[4.411602778,43.764082222],[4.411667222,43.764239167],[4.411625833,43.764326944],[4.411620833,43.764403333],[4.4116775,43.764504167],[4.411832778,43.764563889],[4.41198,43.764563889],[4.412101389,43.764502222],[4.412155556,43.764425833],[4.412150556,43.764349167],[4.412122222,43.764276389],[4.412067778,43.764215],[4.411936111,43.764160833],[4.411850833,43.764000278],[4.411956944,43.7638025],[4.412305556,43.763761389],[4.412613056,43.763737222],[4.412721667,43.763752222],[4.412941111,43.763836111],[4.413085833,43.763983611],[4.413114167,43.764071389],[4.41284,43.767807778]]]}},{"type":"Feature","id":"LFTW-c02c2457d5a314bc3e93","properties":{"airport":"LFTW","name":"LFTW AVISO","layer":"Terrain","category":"Grass","object_type":"Area","style_id":"polygon.grassurface.00512f","source_group":"LFTW AVISO","vsmr_group_ids":[],"geometry_role":"filled_region"},"geometry":{"type":"Polygon","coordinates":[[[4.410553056,43.763241111],[4.410591389,43.763211389],[4.410641389,43.763186111],[4.410726667,43.763156389],[4.410770556,43.763141389],[4.4116175,43.763183889],[4.411802778,43.763266944],[4.411885,43.763506667],[4.411658611,43.763738333],[4.411249722,43.763861389],[4.410879444,43.763810278],[4.410544167,43.763445],[4.410553056,43.763241111]]]}},{"type":"Feature","id":"LFTW-5e7f989866ce73008283","properties":{"airport":"LFTW","name":"LFTW AVISO","layer":"Terrain","category":"Grass","object_type":"Area","style_id":"polygon.grassurface.00512f","source_group":"LFTW AVISO","vsmr_group_ids":[],"geometry_role":"filled_region"},"geometry":{"type":"Polygon","coordinates":[[[4.4123025,43.76096],[4.412367778,43.760938333],[4.412467778,43.760898611],[4.412542778,43.760891389],[4.412772778,43.760895],[4.412942778,43.760923889],[4.413093056,43.760974722],[4.413268056,43.761122778],[4.413318056,43.761238333],[4.413176389,43.763319167],[4.413111389,43.763453056],[4.412931389,43.763539722],[4.412706111,43.763590278],[4.412361111,43.763619167],[4.412145833,43.763510556],[4.4123025,43.76096]]]}},{"type":"Feature","id":"LFTW-f17221c107af310cca84","properties":{"airport":"LFTW","name":"LFTW AVISO","layer":"Terrain","category":"Grass","object_type":"Area","style_id":"polygon.grassurface.00512f","source_group":"LFTW AVISO","vsmr_group_ids":[],"geometry_role":"filled_region"},"geometry":{"type":"Polygon","coordinates":[[[4.413321389,43.7640575],[4.413357222,43.763995278],[4.413457778,43.763896944],[4.413694444,43.763793333],[4.413873889,43.763756944],[4.415129444,43.763824444],[4.415308889,43.763871111],[4.415466667,43.764005833],[4.415509722,43.764114722],[4.415236389,43.767999167],[4.415143056,43.768102778],[4.415028333,43.76817],[4.414798611,43.768221944],[4.414526111,43.768227222],[4.414310833,43.768175278],[4.413191389,43.767278611],[4.413126944,43.767112778],[4.413321389,43.7640575]]]}},{"type":"Feature","id":"LFTW-a1c732b154d1cce43f7d","properties":{"airport":"LFTW","name":"LFTW AVISO","layer":"Terrain","category":"Grass","object_type":"Area","style_id":"polygon.grassurface.00512f","source_group":"LFTW AVISO","vsmr_group_ids":[],"geometry_role":"filled_region"},"geometry":{"type":"Polygon","coordinates":[[[4.413710833,43.759022222],[4.413761111,43.758939444],[4.413861667,43.758856389],[4.414026667,43.758783889],[4.414141389,43.758758056],[4.415554722,43.758820278],[4.415698333,43.758851389],[4.415848889,43.758944722],[4.415870556,43.759053611],[4.415870278,43.759250278],[4.415545556,43.763492778],[4.415509722,43.763575833],[4.415323333,43.763643056],[4.415093611,43.763674167],[4.413773333,43.763617222],[4.413579722,43.763523889],[4.413443333,43.763368333],[4.413400278,43.763233611],[4.413400278,43.763135278],[4.413710833,43.759022222]]]}},{"type":"Feature","id":"LFTW-16dfff50b617443a467e","properties":{"airport":"LFTW","name":"LFTW AVISO","layer":"Terrain","category":"Grass","object_type":"Area","style_id":"polygon.grassurface.00512f","source_group":"LFTW AVISO","vsmr_group_ids":[],"geometry_role":"filled_region"},"geometry":{"type":"Polygon","coordinates":[[[4.414203056,43.751718056],[4.414246111,43.751655833],[4.414346389,43.7515575],[4.414518611,43.751485],[4.414669444,43.751453889],[4.416061111,43.751526389],[4.416290556,43.751598889],[4.416383889,43.7516975],[4.416391111,43.751826944],[4.415927778,43.758421389],[4.415891944,43.758535278],[4.41577,43.758613056],[4.415483056,43.758649167],[4.414270556,43.758613056],[4.414069722,43.758586944],[4.413868889,43.758473056],[4.413775556,43.758333056],[4.413746944,43.758213889],[4.414203056,43.751718056]]]}},{"type":"Feature","id":"LFTW-b40bcccb981985f032bc","properties":{"airport":"LFTW","name":"LFTW AVISO","layer":"Terrain","category":"Grass","object_type":"Area","style_id":"polygon.grassurface.00512f","source_group":"LFTW AVISO","vsmr_group_ids":[],"geometry_role":"filled_region"},"geometry":{"type":"Polygon","coordinates":[[[4.413454167,43.751966389],[4.413473889,43.751515556],[4.413551389,43.751448056],[4.4136775,43.75142],[4.413816389,43.751424722],[4.4139425,43.751494722],[4.414003889,43.751566944],[4.414003889,43.751805278],[4.413945556,43.75188],[4.413855,43.7519475],[4.413787222,43.751970833],[4.413454167,43.751966389]]]}},{"type":"Feature","id":"LFTW-6ac66aad4e59c92911f1","properties":{"airport":"LFTW","name":"LFTW AVISO","layer":"Terrain","category":"Grass","object_type":"Area","style_id":"polygon.grassurface.00512f","source_group":"LFTW AVISO","vsmr_group_ids":[],"geometry_role":"filled_region"},"geometry":{"type":"Polygon","coordinates":[[[4.413516111,43.752748889],[4.413545278,43.752207222],[4.413690556,43.752233056],[4.413852222,43.752307778],[4.413929722,43.752401111],[4.4139525,43.752550556],[4.413916944,43.752632222],[4.413845833,43.7526975],[4.413768056,43.752735],[4.413703611,43.752751389],[4.413516111,43.752748889]]]}},{"type":"Feature","id":"LFTW-72fd92b50c989aed76da","properties":{"airport":"LFTW","name":"LFTW AVISO","layer":"Terrain","category":"Grass","object_type":"Area","style_id":"polygon.grassurface.00512f","source_group":"LFTW AVISO","vsmr_group_ids":[],"geometry_role":"filled_region"},"geometry":{"type":"Polygon","coordinates":[[[4.413470833,43.753294167],[4.413496667,43.752944167],[4.413703611,43.752958056],[4.413816667,43.753],[4.413878056,43.753067778],[4.413884444,43.753149444],[4.413855278,43.753226667],[4.413813333,43.753266389],[4.413755278,43.7532825],[4.413700278,43.753298889],[4.413470833,43.753294167]]]}},{"type":"Feature","id":"LFTW-6809a73b9d6a03f33412","properties":{"airport":"LFTW","name":"LFTW AVISO","layer":"Terrain","category":"Grass","object_type":"Area","style_id":"polygon.grassurface.00512f","source_group":"LFTW AVISO","vsmr_group_ids":[],"geometry_role":"filled_region"},"geometry":{"type":"Polygon","coordinates":[[[4.413435,43.753854722],[4.413461111,43.753501944],[4.413687222,43.753513889],[4.413771389,43.753555833],[4.413839167,43.753623611],[4.413868333,43.753681944],[4.413855278,43.753740278],[4.413793889,43.753808056],[4.413713056,43.753845278],[4.413671111,43.753854722],[4.413435,43.753854722]]]}},{"type":"Feature","id":"LFTW-c0c20de1859a73822a89","properties":{"airport":"LFTW","name":"LFTW AVISO","layer":"Terrain","category":"Grass","object_type":"Area","style_id":"polygon.grassurface.00512f","source_group":"LFTW AVISO","vsmr_group_ids":[],"geometry_role":"filled_region"},"geometry":{"type":"Polygon","coordinates":[[[4.413389722,43.754393889],[4.413418889,43.754041389],[4.413658056,43.75406],[4.413771111,43.754113889],[4.413813333,43.754174444],[4.413819722,43.754244722],[4.413787222,43.754338056],[4.413755,43.75438],[4.413687222,43.754410278],[4.413628889,43.754417222],[4.413389722,43.754393889]]]}},{"type":"Feature","id":"LFTW-a8748b3bae3cfc5e039f","properties":{"airport":"LFTW","name":"LFTW AVISO","layer":"Terrain","category":"Grass","object_type":"Area","style_id":"polygon.grassurface.00512f","source_group":"LFTW AVISO","vsmr_group_ids":[],"geometry_role":"filled_region"},"geometry":{"type":"Polygon","coordinates":[[[4.413344444,43.755085],[4.413389722,43.754599444],[4.413683889,43.754634444],[4.413764722,43.754681111],[4.413774444,43.754758333],[4.413767778,43.754896111],[4.413738889,43.754998611],[4.413706389,43.75505],[4.413648333,43.755082778],[4.413596667,43.755092222],[4.413344444,43.755085]]]}},{"type":"Feature","id":"LFTW-626c905e0b10fd78cce4","properties":{"airport":"LFTW","name":"LFTW AVISO","layer":"Terrain","category":"Grass","object_type":"Area","style_id":"polygon.grassurface.00512f","source_group":"LFTW AVISO","vsmr_group_ids":[],"geometry_role":"filled_region"},"geometry":{"type":"Polygon","coordinates":[[[4.413299167,43.755703889],[4.413325,43.755255556],[4.413506111,43.755260278],[4.413631944,43.755293056],[4.413706389,43.755367778],[4.413745278,43.755472778],[4.413728889,43.755603333],[4.413696667,43.755689722],[4.413645,43.755725],[4.413599722,43.755725],[4.413299167,43.755703889]]]}},{"type":"Feature","id":"LFTW-39613cecf6611e268a09","properties":{"airport":"LFTW","name":"LFTW AVISO","layer":"Terrain","category":"Grass","object_type":"Area","style_id":"polygon.grassurface.00512f","source_group":"LFTW AVISO","vsmr_group_ids":[],"geometry_role":"filled_region"},"geometry":{"type":"Polygon","coordinates":[[[4.413201944,43.755937222],[4.413460556,43.755944444],[4.413596389,43.755984167],[4.413677222,43.756056389],[4.413699722,43.756161389],[4.413664167,43.756598056],[4.413638333,43.756635556],[4.413541389,43.756682222],[4.413441111,43.756684444],[4.413276389,43.756675],[4.413227778,43.756672778],[4.413140556,43.756574722],[4.413201944,43.755937222]]]}},{"type":"Feature","id":"LFTW-c66351a20247aa121008","properties":{"airport":"LFTW","name":"LFTW AVISO","layer":"Terrain","category":"Grass","object_type":"Area","style_id":"polygon.grassurface.00512f","source_group":"LFTW AVISO","vsmr_group_ids":[],"geometry_role":"filled_region"},"geometry":{"type":"Polygon","coordinates":[[[4.413137222,43.7568525],[4.413185833,43.756824444],[4.413256944,43.756801111],[4.413305278,43.756798889],[4.413470278,43.756801111],[4.413554167,43.75682],[4.413625278,43.756880556],[4.413641667,43.757027778],[4.413625278,43.757095556],[4.413538056,43.757146667],[4.413356944,43.757142222],[4.413098611,43.756941389],[4.413137222,43.7568525]]]}},{"type":"Feature","id":"LFTW-e4d6a27dc6e1ca5f8f95","properties":{"airport":"LFTW","name":"LFTW AVISO","layer":"Terrain","category":"Grass","object_type":"Area","style_id":"polygon.grassurface.00512f","source_group":"LFTW AVISO","vsmr_group_ids":[],"geometry_role":"filled_region"},"geometry":{"type":"Polygon","coordinates":[[[4.4130725,43.757396667],[4.413218056,43.757303333],[4.413356944,43.757265833],[4.413363611,43.757265833],[4.4134475,43.757268056],[4.413544444,43.757275278],[4.413625278,43.757305556],[4.413651111,43.757354722],[4.413641389,43.757501667],[4.413615556,43.757583333],[4.413538056,43.7576325],[4.413453889,43.757648889],[4.413192222,43.757639444],[4.413137222,43.757606667],[4.413078889,43.757543611],[4.4130725,43.757396667]]]}},{"type":"Feature","id":"LFTW-e75650141d1268d52d7e","properties":{"airport":"LFTW","name":"LFTW AVISO","layer":"Terrain","category":"Grass","object_type":"Area","style_id":"polygon.grassurface.00512f","source_group":"LFTW AVISO","vsmr_group_ids":[],"geometry_role":"filled_region"},"geometry":{"type":"Polygon","coordinates":[[[4.4145675,43.746829722],[4.414603056,43.746764444],[4.414671389,43.7466775],[4.4148,43.746604167],[4.414947778,43.746558611],[4.415071111,43.746535],[4.415788333,43.746566667],[4.414534444,43.747389167],[4.4145675,43.746829722]]]}},{"type":"Feature","id":"LFTW-f56cd1117aab23d488e1","properties":{"airport":"LFTW","name":"LFTW AVISO","layer":"Terrain","category":"Grass","object_type":"Area","style_id":"polygon.grassurface.00512f","source_group":"LFTW AVISO","vsmr_group_ids":[],"geometry_role":"filled_region"},"geometry":{"type":"Polygon","coordinates":[[[4.414506944,43.747763056],[4.414509722,43.7477075],[4.414528889,43.747628611],[4.414649444,43.747523611],[4.415927778,43.746695278],[4.416056389,43.74663],[4.416218056,43.746614167],[4.416398611,43.74662],[4.416576667,43.746681389],[4.416688889,43.7467625],[4.416735278,43.746823889],[4.416746389,43.7468475],[4.416430833,43.751189722],[4.416347778,43.751264722],[4.416231667,43.751329167],[4.416109722,43.751352778],[4.414673611,43.751301111],[4.414495278,43.7512175],[4.414358333,43.751103611],[4.414293056,43.751017778],[4.414269167,43.750959722],[4.414506944,43.747763056]]]}},{"type":"Feature","id":"LFTW-8e53d0054b661c30361d","properties":{"airport":"LFTW","name":"LFTW AVISO","layer":"Terrain","category":"Grass","object_type":"Area","style_id":"polygon.grassurface.00512f","source_group":"LFTW AVISO","vsmr_group_ids":[],"geometry_role":"filled_region"},"geometry":{"type":"Polygon","coordinates":[[[4.413644722,43.749370833],[4.413683333,43.749343056],[4.4137875,43.749319444],[4.413900278,43.749310833],[4.414055,43.749321389],[4.414126389,43.749370833],[4.414173889,43.7494225],[4.414138333,43.750026111],[4.4141025,43.750094722],[4.414048889,43.750159167],[4.413926944,43.750193611],[4.413787222,43.750195833],[4.413674167,43.750161389],[4.413608889,43.750120556],[4.413596944,43.749948611],[4.413644722,43.749370833]]]}},{"type":"Feature","id":"LFTW-23c6b720f172573ed8a2","properties":{"airport":"LFTW","name":"LFTW AVISO","layer":"Terrain","category":"Grass","object_type":"Area","style_id":"polygon.grassurface.00512f","source_group":"LFTW AVISO","vsmr_group_ids":[],"geometry_role":"filled_region"},"geometry":{"type":"Polygon","coordinates":[[[4.412999444,43.749486944],[4.413038056,43.749340833],[4.4130825,43.749317222],[4.413168889,43.749291389],[4.413314444,43.749271944],[4.413421667,43.749265556],[4.413365,43.750197778],[4.413329444,43.750197778],[4.4131925,43.750189444],[4.413064722,43.750156944],[4.413005278,43.750111944],[4.412987222,43.7500175],[4.4129725,43.749907778],[4.412999444,43.749486944]]]}},{"type":"Feature","id":"LFTW-04c1dde32f800a4bc782","properties":{"airport":"LFTW","name":"LFTW AVISO","layer":"Terrain","category":"Grass","object_type":"Area","style_id":"polygon.grassurface.00512f","source_group":"LFTW AVISO","vsmr_group_ids":[],"geometry_role":"filled_region"},"geometry":{"type":"Polygon","coordinates":[[[4.416434722,43.761507778],[4.4164725,43.761449722],[4.4165475,43.761341389],[4.416654722,43.76126],[4.416826389,43.761213333],[4.417362778,43.7611825],[4.418028056,43.761225],[4.418306944,43.761263889],[4.418473056,43.761356944],[4.418558889,43.761488611],[4.418580278,43.761651111],[4.418494444,43.763123333],[4.418414167,43.763301667],[4.418199444,43.763441111],[4.417968889,43.763545556],[4.417700556,43.763611389],[4.416896111,43.763599722],[4.416606389,43.763576667],[4.416418611,43.763456389],[4.416311389,43.763320833],[4.4163275,43.762933333],[4.416434722,43.761507778]]]}},{"type":"Feature","id":"LFTW-47217ec588aa0a32f70d","properties":{"airport":"LFTW","name":"LFTW AVISO","layer":"Buildings and structures","category":"Buildings","object_type":"Area","style_id":"polygon.building.394446","source_group":"LFTW AVISO","vsmr_group_ids":[],"geometry_role":"filled_region"},"geometry":{"type":"Polygon","coordinates":[[[4.4213425,43.763355278],[4.421368611,43.762675278],[4.421823333,43.762694167],[4.421768056,43.763372222],[4.4213425,43.763355278]]]}},{"type":"Feature","id":"LFTW-c9fabfec2b2c7e73e863","properties":{"airport":"LFTW","name":"LFTW AVISO","layer":"Buildings and structures","category":"Buildings","object_type":"Area","style_id":"polygon.building.394446","source_group":"LFTW AVISO","vsmr_group_ids":[],"geometry_role":"filled_region"},"geometry":{"type":"Polygon","coordinates":[[[4.420933056,43.761038056],[4.421038611,43.759613333],[4.422328889,43.759676111],[4.422266667,43.761105278],[4.420933056,43.761038056]]]}},{"type":"Feature","id":"LFTW-a1f39828e791c2680b26","properties":{"airport":"LFTW","name":"LFTW AVISO","layer":"Buildings and structures","category":"Buildings","object_type":"Area","style_id":"polygon.building.394446","source_group":"LFTW AVISO","vsmr_group_ids":[],"geometry_role":"filled_region"},"geometry":{"type":"Polygon","coordinates":[[[4.420914167,43.757718333],[4.420926944,43.757476667],[4.4235525,43.757658056],[4.423520556,43.757895],[4.420914167,43.757718333]]]}},{"type":"Feature","id":"LFTW-55a4a4083d67a6750aed","properties":{"airport":"LFTW","name":"LFTW AVISO","layer":"Buildings and structures","category":"Buildings","object_type":"Area","style_id":"polygon.building.394446","source_group":"LFTW AVISO","vsmr_group_ids":[],"geometry_role":"filled_region"},"geometry":{"type":"Polygon","coordinates":[[[4.4112375,43.756378333],[4.411796944,43.756390833],[4.411705278,43.757592778],[4.411153889,43.757573611],[4.4112375,43.756378333]]]}},{"type":"Feature","id":"LFTW-8dd19c02704f6de0b8cd","properties":{"airport":"LFTW","name":"LFTW AVISO","layer":"Buildings and structures","category":"Buildings","object_type":"Area","style_id":"polygon.building.394446","source_group":"LFTW AVISO","vsmr_group_ids":[],"geometry_role":"filled_region"},"geometry":{"type":"Polygon","coordinates":[[[4.4111825,43.755271111],[4.411918056,43.755323056],[4.41188,43.755912222],[4.411167222,43.755876111],[4.4111825,43.755271111]]]}},{"type":"Feature","id":"LFTW-c31e32137b0bf7b2ffb7","properties":{"airport":"LFTW","name":"LFTW AVISO","layer":"Buildings and structures","category":"Buildings","object_type":"Area","style_id":"polygon.building.394446","source_group":"LFTW AVISO","vsmr_group_ids":[],"geometry_role":"filled_region"},"geometry":{"type":"Polygon","coordinates":[[[4.411271667,43.753956389],[4.411992222,43.753984167],[4.411961944,43.754717222],[4.411264722,43.754701389],[4.411271667,43.753956389]]]}},{"type":"Feature","id":"LFTW-01c20f21528ee305104f","properties":{"airport":"LFTW","name":"LFTW AVISO","layer":"Buildings and structures","category":"Buildings","object_type":"Area","style_id":"polygon.building.394446","source_group":"LFTW AVISO","vsmr_group_ids":[],"geometry_role":"filled_region"},"geometry":{"type":"Polygon","coordinates":[[[4.411436389,43.752633056],[4.412099167,43.752687778],[4.412058056,43.753570833],[4.4114025,43.753553056],[4.411436389,43.752633056]]]}},{"type":"Feature","id":"LFTW-bf1dc9cc48ded9f9b1b9","properties":{"airport":"LFTW","name":"LFTW AVISO","layer":"Buildings and structures","category":"Buildings","object_type":"Area","style_id":"polygon.building.394446","source_group":"LFTW AVISO","vsmr_group_ids":[],"geometry_role":"filled_region"},"geometry":{"type":"Polygon","coordinates":[[[4.411476944,43.751627222],[4.4121725,43.751671389],[4.412130278,43.752603056],[4.411450556,43.752579167],[4.411476944,43.751627222]]]}},{"type":"Feature","id":"LFTW-bdad8c390761e09c3ea8","properties":{"airport":"LFTW","name":"LFTW AVISO","layer":"Buildings and structures","category":"Buildings","object_type":"Area","style_id":"polygon.building.394446","source_group":"LFTW AVISO","vsmr_group_ids":[],"geometry_role":"filled_region"},"geometry":{"type":"Polygon","coordinates":[[[4.410819444,43.760830556],[4.410923611,43.759666389],[4.411646667,43.759685],[4.411539722,43.760856389],[4.410819444,43.760830556]]]}},{"type":"Feature","id":"LFTW-b92d0ac0f62f4748bfa6","properties":{"airport":"LFTW","name":"LFTW AVISO","layer":"Buildings and structures","category":"Buildings","object_type":"Area","style_id":"polygon.building.394446","source_group":"LFTW AVISO","vsmr_group_ids":[],"geometry_role":"filled_region"},"geometry":{"type":"Polygon","coordinates":[[[4.410852222,43.761853611],[4.410896667,43.761334722],[4.411410556,43.761354722],[4.411367222,43.761863056],[4.410852222,43.761853611]]]}},{"type":"Feature","id":"LFTW-0b718b08c261014eba14","properties":{"airport":"LFTW","name":"LFTW AVISO","layer":"Buildings and structures","category":"Buildings","object_type":"Area","style_id":"polygon.building.394446","source_group":"LFTW AVISO","vsmr_group_ids":[],"geometry_role":"filled_region"},"geometry":{"type":"Polygon","coordinates":[[[4.410600833,43.763064167],[4.410667778,43.762397222],[4.411411944,43.762429167],[4.411336111,43.763116667],[4.410600833,43.763064167]]]}},{"type":"Feature","id":"LFTW-8929016962194b29b73f","properties":{"airport":"LFTW","name":"1","layer":"Labels","category":"Gates","object_type":"Label","style_id":"label.gates","source_group":"LFTW Gates","vsmr_group_ids":[],"geometry_role":"text_label","text-field":"1"},"geometry":{"type":"Point","coordinates":[4.420888889,43.762805556]}},{"type":"Feature","id":"LFTW-ddde7ce17d491b8729f5","properties":{"airport":"LFTW","name":"2","layer":"Labels","category":"Gates","object_type":"Label","style_id":"label.gates","source_group":"LFTW Gates","vsmr_group_ids":[],"geometry_role":"text_label","text-field":"2"},"geometry":{"type":"Point","coordinates":[4.420944444,43.762277778]}},{"type":"Feature","id":"LFTW-f34c19f86e190fff15c3","properties":{"airport":"LFTW","name":"3","layer":"Labels","category":"Gates","object_type":"Label","style_id":"label.gates","source_group":"LFTW Gates","vsmr_group_ids":[],"geometry_role":"text_label","text-field":"3"},"geometry":{"type":"Point","coordinates":[4.419472222,43.758666667]}},{"type":"Feature","id":"LFTW-a6e4568a8207d4556867","properties":{"airport":"LFTW","name":"4","layer":"Labels","category":"Gates","object_type":"Label","style_id":"label.gates","source_group":"LFTW Gates","vsmr_group_ids":[],"geometry_role":"text_label","text-field":"4"},"geometry":{"type":"Point","coordinates":[4.420027778,43.758722222]}},{"type":"Feature","id":"LFTW-d6f0bbe331c7a1ff6799","properties":{"airport":"LFTW","name":"5","layer":"Labels","category":"Gates","object_type":"Label","style_id":"label.gates","source_group":"LFTW Gates","vsmr_group_ids":[],"geometry_role":"text_label","text-field":"5"},"geometry":{"type":"Point","coordinates":[4.420666667,43.758833333]}},{"type":"Feature","id":"LFTW-55545dbf993daf3a7d29","properties":{"airport":"LFTW","name":"6","layer":"Labels","category":"Gates","object_type":"Label","style_id":"label.gates","source_group":"LFTW Gates","vsmr_group_ids":[],"geometry_role":"text_label","text-field":"6"},"geometry":{"type":"Point","coordinates":[4.422694444,43.757194444]}},{"type":"Feature","id":"LFTW-52b518da528f3c284458","properties":{"airport":"LFTW","name":"7","layer":"Labels","category":"Gates","object_type":"Label","style_id":"label.gates","source_group":"LFTW Gates","vsmr_group_ids":[],"geometry_role":"text_label","text-field":"7"},"geometry":{"type":"Point","coordinates":[4.422055556,43.757166667]}},{"type":"Feature","id":"LFTW-768fcf884261a0d581a8","properties":{"airport":"LFTW","name":"8","layer":"Labels","category":"Gates","object_type":"Label","style_id":"label.gates","source_group":"LFTW Gates","vsmr_group_ids":[],"geometry_role":"text_label","text-field":"8"},"geometry":{"type":"Point","coordinates":[4.421944444,43.759138889]}},{"type":"Feature","id":"LFTW-21413d8908f04ff1e552","properties":{"airport":"LFTW","name":"LFTW Groundlayout AVISO","layer":"Guidance lines","category":"Stopbars","object_type":"Line","style_id":"line.stopbar.7e0000","source_group":"LFTW Groundlayout AVISO","vsmr_group_ids":[],"geometry_role":"linework"},"geometry":{"type":"MultiLineString","coordinates":[[[4.413695278,43.767908611],[4.413857222,43.767801667]],[[4.413412778,43.768331389],[4.413423333,43.768142222]],[[4.414730556,43.763801111],[4.414740556,43.763639722]],[[4.417243611,43.763922222],[4.417253611,43.763716944]],[[4.4174475,43.761108611],[4.417469167,43.760913333]],[[4.415075,43.75879],[4.415091389,43.758641667]],[[4.417490833,43.757104444],[4.417508611,43.756855833]],[[4.415623333,43.751493889],[4.4156325,43.751346667]],[[4.415541667,43.746954722],[4.415396111,43.746833889]],[[4.415109167,43.746536944],[4.415117778,43.746397778]]]}},{"type":"Feature","id":"LFTW-2a156d51c385ae91e5bf","properties":{"airport":"LFTW","name":"LFTW Groundlayout","layer":"Guidance lines","category":"Taxiways","object_type":"Line","style_id":"line.taxiway.c0b631","source_group":"LFTW Groundlayout","vsmr_group_ids":[],"geometry_role":"linework"},"geometry":{"type":"MultiLineString","coordinates":[[[4.413583333,43.754083333],[4.412694444,43.754055556]],[[4.412694444,43.753805556],[4.412694444,43.754055556]],[[4.4135,43.755333333],[4.412611111,43.755305556]],[[4.413472222,43.755611111],[4.412611111,43.755555556]],[[4.412611111,43.755305556],[4.412611111,43.755555556]],[[4.413055556,43.767444444],[4.413944444,43.768055556]],[[4.413083333,43.767083333],[4.4145,43.768083333]],[[4.413388889,43.757],[4.412527778,43.756972222]],[[4.413361111,43.757277778],[4.4125,43.75725]],[[4.412527778,43.756972222],[4.4125,43.75725]],[[4.416861111,43.746472222],[4.416472222,43.746444444]],[[4.416833333,43.74675],[4.416444444,43.746722222]],[[4.416472222,43.746444444],[4.415527778,43.746416667]],[[4.416444444,43.746722222],[4.415611111,43.746694444]],[[4.415527778,43.746416667],[4.414111111,43.746388889]],[[4.415138889,43.746666667],[4.414472222,43.746666667]],[[4.414111111,43.746388889],[4.414027778,43.747666667]],[[4.414472222,43.746666667],[4.414444444,43.747277778]],[[4.414027778,43.747666667],[4.414,43.748194444]],[[4.414388889,43.747722222],[4.414361111,43.748333333]],[[4.413972222,43.748472222],[4.413833333,43.750583333]],[[4.414361111,43.748333333],[4.414222222,43.750472222]],[[4.413833333,43.750583333],[4.413666667,43.753166667]],[[4.414194444,43.75075],[4.414027778,43.753305556]],[[4.413638889,43.753416667],[4.413611111,43.753833333]],[[4.414027778,43.753305556],[4.413972222,43.753972222]],[[4.413583333,43.754083333],[4.4135,43.755333333]],[[4.413972222,43.753972222],[4.413861111,43.755472222]],[[4.413472222,43.755611111],[4.413416667,43.756555556]],[[4.413861111,43.755472222],[4.413777778,43.756722222]],[[4.413388889,43.756833333],[4.413388889,43.757]],[[4.413777778,43.756722222],[4.41375,43.757166667]],[[4.413361111,43.757277778],[4.413333333,43.757888889]],[[4.41375,43.757166667],[4.413694444,43.758027778]],[[4.413305556,43.758138889],[4.413277778,43.758611111]],[[4.413694444,43.758027778],[4.413638889,43.758611111]],[[4.41325,43.758888889],[4.413138889,43.760555556]],[[4.413638889,43.758888889],[4.413527778,43.760555556]],[[4.413111111,43.760833333],[4.412972222,43.763027778]],[[4.4135,43.760833333],[4.413361111,43.763027778]],[[4.412944444,43.763277778],[4.412694444,43.767111111]],[[4.413333333,43.763277778],[4.413083333,43.767083333]],[[4.412694444,43.767111111],[4.412638889,43.768027778]],[[4.413055556,43.767444444],[4.413,43.768027778]],[[4.412805556,43.768305556],[4.414416667,43.768361111]],[[4.413,43.768027778],[4.413944444,43.768055556]],[[4.414416667,43.768361111],[4.414888889,43.768361111]],[[4.4145,43.768083333],[4.414916667,43.768111111]],[[4.414888889,43.768361111],[4.415277778,43.768388889]],[[4.414916667,43.768111111],[4.415305556,43.768111111]],[[4.412638889,43.768027778],[4.411194444,43.767972222]],[[4.412805556,43.768305556],[4.411055556,43.768222222]],[[4.411194444,43.767972222],[4.410194444,43.767416667]],[[4.411055556,43.768222222],[4.409916667,43.767583333]],[[4.410194444,43.767416667],[4.409416667,43.766472222]],[[4.409916667,43.767583333],[4.409055556,43.766527778]],[[4.409416667,43.766472222],[4.409583333,43.764388889]],[[4.409055556,43.766527778],[4.409194444,43.764277778]],[[4.409583333,43.764388889],[4.4105,43.763694444]],[[4.409194444,43.764277778],[4.410166667,43.763555556]],[[4.4105,43.763694444],[4.411583333,43.763333333]],[[4.410472222,43.763416667],[4.411333333,43.763111111]],[[4.411583333,43.763333333],[4.412944444,43.763277778]],[[4.411694444,43.763055556],[4.412972222,43.763027778]],[[4.413333333,43.763277778],[4.41525,43.763333333]],[[4.413361111,43.763027778],[4.415277778,43.763055556]],[[4.41525,43.763333333],[4.415638889,43.763361111]],[[4.415277778,43.763055556],[4.415666667,43.763083333]],[[4.416194444,43.763361111],[4.416583333,43.763388889]],[[4.416222222,43.763083333],[4.416583333,43.763111111]],[[4.416583333,43.763388889],[4.418416667,43.763416667]],[[4.416583333,43.763111111],[4.418444444,43.763166667]],[[4.418805556,43.763444444],[4.421805556,43.763527778]],[[4.418833333,43.763166667],[4.421444444,43.76325]],[[4.411694444,43.760805556],[4.413111111,43.760833333]],[[4.411333333,43.760527778],[4.413138889,43.760555556]],[[4.4135,43.760833333],[4.415444444,43.760888889]],[[4.413527778,43.760555556],[4.415444444,43.760611111]],[[4.415444444,43.760888889],[4.415805556,43.760888889]],[[4.415444444,43.760611111],[4.415833333,43.760611111]],[[4.416361111,43.760888889],[4.41675,43.760916667]],[[4.416388889,43.760638889],[4.416777778,43.760638889]],[[4.41675,43.760916667],[4.418638889,43.760944444]],[[4.416777778,43.760638889],[4.418638889,43.760694444]],[[4.418638889,43.760944444],[4.418444444,43.763166667]],[[4.419,43.760833333],[4.418833333,43.763166667]],[[4.418416667,43.763416667],[4.418333333,43.764472222]],[[4.418805556,43.763444444],[4.418722222,43.764222222]],[[4.418333333,43.764472222],[4.419111111,43.7645]],[[4.418722222,43.764222222],[4.419138889,43.764222222]],[[4.419111111,43.7645],[4.419138889,43.764222222]],[[4.416611111,43.757416667],[4.417,43.757444444]],[[4.416638889,43.757138889],[4.417027778,43.757166667]],[[4.417,43.757444444],[4.42125,43.757611111]],[[4.417027778,43.757166667],[4.421444444,43.757361111]],[[4.412833333,43.758861111],[4.41325,43.758888889]],[[4.412861111,43.758611111],[4.413277778,43.758611111]],[[4.412833333,43.758861111],[4.412861111,43.758611111]],[[4.413638889,43.758888889],[4.415583333,43.758944444]],[[4.413638889,43.758611111],[4.415583333,43.758666667]],[[4.415583333,43.758944444],[4.415944444,43.758972222]],[[4.415583333,43.758666667],[4.415972222,43.758694444]],[[4.414194444,43.75075],[4.416166667,43.750805556]],[[4.414222222,43.750472222],[4.416166667,43.750527778]],[[4.416166667,43.750805556],[4.416555556,43.750805556]],[[4.416166667,43.750527778],[4.416555556,43.750527778]],[[4.422666667,43.757388889],[4.422027778,43.757388889]],[[4.422666667,43.757666667],[4.422027778,43.757638889]],[[4.422666667,43.757388889],[4.422666667,43.757666667]],[[4.422027778,43.757388889],[4.421444444,43.757361111]],[[4.422027778,43.757638889],[4.421611111,43.757638889]],[[4.421805556,43.763527778],[4.421861111,43.762833333]],[[4.421444444,43.76325],[4.421472222,43.762805556]],[[4.421861111,43.762833333],[4.421888889,43.762305556]],[[4.421472222,43.762805556],[4.421527778,43.762305556]],[[4.421888889,43.762305556],[4.422111111,43.759638889]],[[4.421527778,43.762305556],[4.421722222,43.759888889]],[[4.422111111,43.759638889],[4.421444444,43.759611111]],[[4.421722222,43.759888889],[4.42125,43.759888889]],[[4.421083333,43.759611111],[4.420583333,43.759583333]],[[4.42125,43.759888889],[4.420583333,43.759861111]],[[4.420583333,43.759583333],[4.419944444,43.759555556]],[[4.420583333,43.759861111],[4.419916667,43.759833333]],[[4.419944444,43.759555556],[4.419416667,43.759527778]],[[4.419916667,43.759833333],[4.419388889,43.759805556]],[[4.419416667,43.759527778],[4.418722222,43.7595]],[[4.419388889,43.759805556],[4.419083333,43.759805556]],[[4.418722222,43.7595],[4.418638889,43.760694444]],[[4.419083333,43.759805556],[4.419,43.760833333]],[[4.421444444,43.759611111],[4.4215,43.759138889]],[[4.421083333,43.759611111],[4.421111111,43.759111111]],[[4.4215,43.759138889],[4.421611111,43.757638889]],[[4.421111111,43.759111111],[4.42125,43.757611111]],[[4.414,43.748194444],[4.4135,43.748194444]],[[4.413972222,43.748472222],[4.413277778,43.748444444]],[[4.413111111,43.748166667],[4.411972222,43.748138889]],[[4.413277778,43.748444444],[4.412333333,43.748416667]],[[4.411972222,43.748138889],[4.411916667,43.749083333]],[[4.412333333,43.748416667],[4.412305556,43.749111111]],[[4.411916667,43.749083333],[4.412305556,43.749111111]],[[4.4135,43.748194444],[4.413527778,43.747805556]],[[4.413111111,43.748166667],[4.413138889,43.747777778]],[[4.413527778,43.747805556],[4.413138889,43.747777778]],[[4.414388889,43.747722222],[4.415611111,43.746694444]],[[4.414444444,43.747277778],[4.415138889,43.746666667]],[[4.410472222,43.763416667],[4.410083333,43.762694444]],[[4.410166667,43.763555556],[4.409694444,43.762777778]],[[4.410083333,43.762694444],[4.410055556,43.762361111]],[[4.409694444,43.762777778],[4.409666667,43.762388889]],[[4.410055556,43.762361111],[4.409666667,43.762388889]],[[4.411694444,43.763055556],[4.411638889,43.762361111]],[[4.411333333,43.763111111],[4.41125,43.762361111]],[[4.411638889,43.762361111],[4.411694444,43.760805556]],[[4.41125,43.762361111],[4.411333333,43.760527778]],[[4.413333333,43.757888889],[4.412472222,43.757833333]],[[4.413305556,43.758138889],[4.412444444,43.758111111]],[[4.412472222,43.757833333],[4.412444444,43.758111111]],[[4.413416667,43.756555556],[4.412555556,43.756527778]],[[4.413388889,43.756833333],[4.412527778,43.756777778]],[[4.412555556,43.756527778],[4.412527778,43.756777778]],[[4.413666667,43.753166667],[4.41275,43.753111111]],[[4.413638889,43.753416667],[4.412722222,43.753388889]],[[4.41275,43.753111111],[4.412722222,43.753388889]]]}},{"type":"Feature","id":"LFTW-ab6437918ec2f8709f46","properties":{"airport":"LFTW","name":"LFTW Groundlayout","layer":"Guidance lines","category":"Runways","object_type":"Line","style_id":"line.runwayconcrete.555555","source_group":"LFTW Groundlayout","vsmr_group_ids":[],"geometry_role":"linework"},"geometry":{"type":"MultiLineString","coordinates":[[[4.416861111,43.746444444],[4.416861111,43.746472222]],[[4.417416667,43.746444444],[4.417388889,43.746611111]],[[4.416861111,43.746444444],[4.417416667,43.746444444]],[[4.416833333,43.74675],[4.416555556,43.750527778]],[[4.417388889,43.746611111],[4.417111111,43.750694444]],[[4.416555556,43.750805556],[4.416083333,43.757277778]],[[4.417111111,43.750694444],[4.416638889,43.757138889]],[[4.416083333,43.757277778],[4.415972222,43.758694444]],[[4.416611111,43.757416667],[4.416527778,43.758833333]],[[4.415944444,43.758972222],[4.415833333,43.760611111]],[[4.416527778,43.758833333],[4.416388889,43.760638889]],[[4.415805556,43.760888889],[4.415666667,43.763083333]],[[4.416361111,43.760888889],[4.416222222,43.763083333]],[[4.415638889,43.763361111],[4.415305556,43.768111111]],[[4.416194444,43.763361111],[4.415833333,43.768277778],[4.415833333,43.768416667]],[[4.415277778,43.768388889],[4.415833333,43.768416667]]]}},{"type":"Feature","id":"LFTW-29e3e6edadd654c14b81","properties":{"airport":"LFTW","name":"LFTW Groundlayout","layer":"Guidance lines","category":"Apron Surface","object_type":"Line","style_id":"line.apronsurface.808080","source_group":"LFTW Groundlayout","vsmr_group_ids":[],"geometry_role":"linework"},"geometry":{"type":"MultiLineString","coordinates":[[[4.418972222,43.764666667],[4.419027778,43.764055556],[4.41975,43.764083333],[4.419694444,43.764722222]],[[4.418972222,43.764666667],[4.419694444,43.764722222]],[[4.417333333,43.7465],[4.417805556,43.746527778],[4.417888889,43.746638889],[4.417861111,43.746805556],[4.417777778,43.746916667],[4.41725,43.747277778]],[[4.417333333,43.7465],[4.41725,43.747277778]],[[4.415722222,43.768388889],[4.415805556,43.767444444],[4.416388889,43.768027778],[4.416388889,43.768222222],[4.416305556,43.768333333],[4.416138889,43.768416667]],[[4.415722222,43.768388889],[4.416138889,43.768416667]],[[4.420583333,43.7635],[4.420722222,43.762],[4.421916667,43.762027778],[4.421805556,43.763527778]],[[4.420583333,43.7635],[4.421805556,43.763527778]],[[4.411611111,43.7625],[4.409666667,43.762472222],[4.409694444,43.761833333],[4.410722222,43.761861111],[4.410888889,43.759444444],[4.412166667,43.759472222],[4.412083333,43.760638889],[4.411666667,43.760694444]],[[4.411611111,43.7625],[4.411666667,43.760694444]],[[4.418611111,43.760944444],[4.418833333,43.758166667],[4.422166667,43.758888889],[4.422,43.761027778],[4.42125,43.761027778],[4.421361111,43.759888889],[4.419388889,43.759805556],[4.419333333,43.760555556],[4.419,43.760972222]],[[4.418611111,43.760944444],[4.419,43.760972222]],[[4.412638889,43.758138889],[4.410805556,43.758111111],[4.411,43.754027778],[4.410527778,43.754027778],[4.4105,43.754444444],[4.409611111,43.754416667],[4.409638889,43.753111111],[4.411055556,43.753138889],[4.411194444,43.750472222],[4.413111111,43.7505]],[[4.412638889,43.758138889],[4.413111111,43.7505]],[[4.413722222,43.747944444],[4.412861111,43.747916667],[4.412861111,43.7475],[4.413722222,43.7475]],[[4.413722222,43.747944444],[4.413722222,43.7475]],[[4.412,43.759027778],[4.412027778,43.758444444],[4.412944444,43.758472222],[4.412944444,43.759027778]],[[4.412,43.759027778],[4.412944444,43.759027778]],[[4.411416667,43.749361111],[4.411444444,43.748805556],[4.412694444,43.748861111],[4.412666667,43.749388889]],[[4.411416667,43.749361111],[4.412666667,43.749388889]],[[4.423111111,43.757027778],[4.423027778,43.757833333],[4.421333333,43.75775],[4.421388889,43.757361111],[4.421611111,43.757361111],[4.421638889,43.756972222]],[[4.423111111,43.757027778],[4.421638889,43.756972222]]]}}]}
